{
  "metadata": {
    "chain": "^Dig",
    "country": "US",
    "scraped_at": "2026-02-08T12:37:37.186121",
    "total_locations": 40,
    "source": "OpenStreetMap Overpass API"
  },
  "locations": [
    {
      "osm_id": 655428288,
      "osm_type": "node",
      "name": "Dig",
      "brand": "Dig",
      "latitude": 39.9535857,
      "longitude": -75.1949927,
      "address": "South 36th Street",
      "city": "Philadelphia",
      "state": "PA",
      "postcode": "19104",
      "phone": "+1-267-298-4003",
      "website": "https://diginn.com",
      "opening_hours": "Mo-Su 11:00-22:00",
      "amenity_type": "fast_food",
      "cuisine": "regional"
    },
    {
      "osm_id": 2744965101,
      "osm_type": "node",
      "name": "Dig",
      "brand": "Dig",
      "latitude": 40.774277,
      "longitude": -73.9814791,
      "address": "West 67th Street",
      "city": "New York",
      "state": "NY",
      "postcode": "10023",
      "phone": "+1-212-335-2107",
      "website": "https://www.diginn.com",
      "opening_hours": "Mo-Su 11:00-22:00",
      "amenity_type": "fast_food",
      "cuisine": "regional"
    },
    {
      "osm_id": 4495100732,
      "osm_type": "node",
      "name": "Dig",
      "brand": "Dig",
      "latitude": 40.7407968,
      "longitude": -73.9882554,
      "address": "East 23rd Street",
      "city": "New York",
      "state": "NY",
      "postcode": "10010",
      "phone": "+1-212-253-6174",
      "website": "https://www.diginn.com",
      "opening_hours": "Mo-Su 11:00-22:00",
      "amenity_type": "fast_food",
      "cuisine": "regional"
    },
    {
      "osm_id": 4634024036,
      "osm_type": "node",
      "name": "Diggers Diner",
      "brand": "",
      "latitude": 37.9828649,
      "longitude": -122.0158875,
      "address": "Farm Bureau Road",
      "city": "",
      "state": "",
      "postcode": "",
      "phone": "+1 925-825-8958",
      "website": "",
      "opening_hours": "",
      "amenity_type": "fast_food",
      "cuisine": ""
    },
    {
      "osm_id": 4844071626,
      "osm_type": "node",
      "name": "Dig",
      "brand": "Dig",
      "latitude": 40.7060487,
      "longitude": -74.0072938,
      "address": "Pine Street",
      "city": "New York",
      "state": "NY",
      "postcode": "10005",
      "phone": "+1-212-785-1110",
      "website": "https://www.diginn.com/",
      "opening_hours": "Mo-Su 11:00-22:00",
      "amenity_type": "fast_food",
      "cuisine": "regional"
    },
    {
      "osm_id": 4858714957,
      "osm_type": "node",
      "name": "DiGiorio's Cafe Largo",
      "brand": "",
      "latitude": 25.0930154,
      "longitude": -80.4429736,
      "address": "Overseas Highway",
      "city": "Key Largo",
      "state": "",
      "postcode": "33037",
      "phone": "",
      "website": "",
      "opening_hours": "",
      "amenity_type": "restaurant",
      "cuisine": "italian"
    },
    {
      "osm_id": 5035324361,
      "osm_type": "node",
      "name": "DiGiacinto's Italian",
      "brand": "",
      "latitude": 37.1731577,
      "longitude": -93.2960342,
      "address": "South Campbell Avenue",
      "city": "Springfield",
      "state": "",
      "postcode": "",
      "phone": "",
      "website": "",
      "opening_hours": "",
      "amenity_type": "restaurant",
      "cuisine": "italian"
    },
    {
      "osm_id": 5749774102,
      "osm_type": "node",
      "name": "Dig",
      "brand": "Dig",
      "latitude": 42.3575861,
      "longitude": -71.058314,
      "address": "Washington Street",
      "city": "Boston",
      "state": "MA",
      "postcode": "02108",
      "phone": "+1-617-276-1000",
      "website": "https://www.diginn.com/",
      "opening_hours": "Mo-Fr 11:00-21:00",
      "amenity_type": "fast_food",
      "cuisine": "regional"
    },
    {
      "osm_id": 5750418524,
      "osm_type": "node",
      "name": "Digs",
      "brand": "",
      "latitude": 46.5436099,
      "longitude": -87.3947957,
      "address": "",
      "city": "",
      "state": "",
      "postcode": "",
      "phone": "",
      "website": "",
      "opening_hours": "",
      "amenity_type": "restaurant",
      "cuisine": ""
    },
    {
      "osm_id": 6207774942,
      "osm_type": "node",
      "name": "Dig",
      "brand": "Dig",
      "latitude": 40.7237755,
      "longitude": -73.9969179,
      "address": "Prince Street",
      "city": "New York",
      "state": "NY",
      "postcode": "10012",
      "phone": "+1-212-253-7854",
      "website": "https://www.diginn.com/",
      "opening_hours": "Mo-Su 11:00-22:00",
      "amenity_type": "fast_food",
      "cuisine": "regional"
    },
    {
      "osm_id": 6904407682,
      "osm_type": "node",
      "name": "Dig",
      "brand": "Dig",
      "latitude": 40.8055514,
      "longitude": -73.9653417,
      "address": "Broadway",
      "city": "New York",
      "state": "NY",
      "postcode": "10025",
      "phone": "+1-212-776-4047",
      "website": "https://www.diginn.com/",
      "opening_hours": "Mo-Su 11:00-22:00",
      "amenity_type": "fast_food",
      "cuisine": "regional"
    },
    {
      "osm_id": 7041713699,
      "osm_type": "node",
      "name": "Dig",
      "brand": "Dig",
      "latitude": 40.7803991,
      "longitude": -73.9547518,
      "address": "Lexington Avenue",
      "city": "New York",
      "state": "NY",
      "postcode": "10128",
      "phone": "+1-212-253-6176",
      "website": "https://www.diginn.com",
      "opening_hours": "Mo-Su 11:00-22:00",
      "amenity_type": "fast_food",
      "cuisine": "regional"
    },
    {
      "osm_id": 7110645322,
      "osm_type": "node",
      "name": "Dig",
      "brand": "Dig",
      "latitude": 42.3722125,
      "longitude": -71.1195269,
      "address": "Mount Auburn Street",
      "city": "Cambridge",
      "state": "MA",
      "postcode": "02138",
      "phone": "+1 617-904-4340",
      "website": "https://www.diginn.com/kendall-square",
      "opening_hours": "Mo-Su 11:00-21:00",
      "amenity_type": "fast_food",
      "cuisine": "regional"
    },
    {
      "osm_id": 7490811289,
      "osm_type": "node",
      "name": "Dig",
      "brand": "Dig",
      "latitude": 42.3506571,
      "longitude": -71.0761723,
      "address": "Boylston Street",
      "city": "Boston",
      "state": "MA",
      "postcode": "02116",
      "phone": "+1-617-904-3711",
      "website": "https://www.diginn.com/",
      "opening_hours": "Mo-Su 11:00-21:00",
      "amenity_type": "fast_food",
      "cuisine": "regional"
    },
    {
      "osm_id": 8805920711,
      "osm_type": "node",
      "name": "Dig",
      "brand": "Dig",
      "latitude": 41.0032063,
      "longitude": -73.6831206,
      "address": "South Ridge Street",
      "city": "Port Chester",
      "state": "NY",
      "postcode": "10573",
      "phone": "+1-914-305-8463",
      "website": "https://www.diginn.com/",
      "opening_hours": "Mo-Su 11:00-22:00",
      "amenity_type": "fast_food",
      "cuisine": "regional"
    },
    {
      "osm_id": 9283283266,
      "osm_type": "node",
      "name": "Dig",
      "brand": "Dig",
      "latitude": 40.715736,
      "longitude": -73.95907,
      "address": "North 4th Street",
      "city": "Brooklyn",
      "state": "NY",
      "postcode": "11211",
      "phone": "+1-718-215-6844",
      "website": "https://www.diginn.com/",
      "opening_hours": "Mo-Su 11:00-22:00",
      "amenity_type": "fast_food",
      "cuisine": "regional"
    },
    {
      "osm_id": 9283314367,
      "osm_type": "node",
      "name": "Dig",
      "brand": "Dig",
      "latitude": 42.3510917,
      "longitude": -71.0474213,
      "address": "Thomson Place",
      "city": "Boston",
      "state": "MA",
      "postcode": "02210",
      "phone": "+1-617-904-4009",
      "website": "https://www.diginn.com/",
      "opening_hours": "Mo-Su 11:00-21:00",
      "amenity_type": "fast_food",
      "cuisine": "regional"
    },
    {
      "osm_id": 9283502337,
      "osm_type": "node",
      "name": "Dig",
      "brand": "Dig",
      "latitude": 40.7572491,
      "longitude": -73.9706146,
      "address": "East 52nd Street",
      "city": "New York",
      "state": "NY",
      "postcode": "10022",
      "phone": "+1-212-421-3055",
      "website": "https://www.diginn.com/",
      "opening_hours": "Mo-Fr 11:00-21:00",
      "amenity_type": "fast_food",
      "cuisine": "regional"
    },
    {
      "osm_id": 9283504354,
      "osm_type": "node",
      "name": "Dig",
      "brand": "Dig",
      "latitude": 40.7611499,
      "longitude": -73.9687742,
      "address": "Lexington Avenue",
      "city": "New York",
      "state": "NY",
      "postcode": "10022",
      "phone": "+1 646-905-3166",
      "website": "https://www.diginn.com/",
      "opening_hours": "Mo-Fr 11:00-21:00",
      "amenity_type": "fast_food",
      "cuisine": "regional"
    },
    {
      "osm_id": 9283523800,
      "osm_type": "node",
      "name": "Dig",
      "brand": "Dig",
      "latitude": 40.7458346,
      "longitude": -73.994148,
      "address": "7th Avenue",
      "city": "New York",
      "state": "NY",
      "postcode": "10001",
      "phone": "+1-646-905-5911",
      "website": "https://www.diginn.com/",
      "opening_hours": "Mo-Su 11:00-22:00",
      "amenity_type": "fast_food",
      "cuisine": "regional"
    },
    {
      "osm_id": 9283527807,
      "osm_type": "node",
      "name": "Dig",
      "brand": "Dig",
      "latitude": 40.7126107,
      "longitude": -74.0156441,
      "address": "Liberty Street",
      "city": "New York",
      "state": "NY",
      "postcode": "10281",
      "phone": "+1-212-776-4051",
      "website": "https://www.diginn.com/",
      "opening_hours": "Mo-Fr 11:00-20:00; Sa-Su 11:00-15:00",
      "amenity_type": "fast_food",
      "cuisine": "regional"
    },
    {
      "osm_id": 9283550594,
      "osm_type": "node",
      "name": "Dig",
      "brand": "Dig",
      "latitude": 40.7670479,
      "longitude": -73.9567664,
      "address": "1st Avenue",
      "city": "New York",
      "state": "NY",
      "postcode": "10021",
      "phone": "+1-646-905-2184",
      "website": "https://www.diginn.com/",
      "opening_hours": "Mo-Su 11:00-22:00",
      "amenity_type": "fast_food",
      "cuisine": "regional"
    },
    {
      "osm_id": 9283557221,
      "osm_type": "node",
      "name": "Dig",
      "brand": "Dig",
      "latitude": 40.7532522,
      "longitude": -73.9878951,
      "address": "Broadway",
      "city": "New York",
      "state": "NY",
      "postcode": "10018",
      "phone": "+1-212-365-5060",
      "website": "https://www.diginn.com/",
      "opening_hours": "Mo-Su 11:00-22:00",
      "amenity_type": "fast_food",
      "cuisine": "regional"
    },
    {
      "osm_id": 9283586621,
      "osm_type": "node",
      "name": "Dig",
      "brand": "Dig",
      "latitude": 40.7281492,
      "longitude": -73.9946724,
      "address": "Broadway",
      "city": "New York",
      "state": "NY",
      "postcode": "10012",
      "phone": "+1-646-905-2751",
      "website": "https://www.diginn.com/",
      "opening_hours": "Mo-Su 11:00-22:00",
      "amenity_type": "fast_food",
      "cuisine": "regional"
    },
    {
      "osm_id": 9283593494,
      "osm_type": "node",
      "name": "Dig",
      "brand": "Dig",
      "latitude": 40.7452451,
      "longitude": -73.9831578,
      "address": "Park Avenue South",
      "city": "New York",
      "state": "NY",
      "postcode": "10016",
      "phone": "+1-646-908-4998",
      "website": "https://www.diginn.com/",
      "opening_hours": "Mo-Fr 11:00-15:00",
      "amenity_type": "fast_food",
      "cuisine": "regional"
    },
    {
      "osm_id": 9283609979,
      "osm_type": "node",
      "name": "Dig",
      "brand": "Dig",
      "latitude": 40.763131,
      "longitude": -73.985279,
      "address": "8th Avenue",
      "city": "New York",
      "state": "NY",
      "postcode": "10019",
      "phone": "+1-212-335-2106",
      "website": "https://www.diginn.com/",
      "opening_hours": "Mo-Su 11:00-22:00",
      "amenity_type": "fast_food",
      "cuisine": "regional"
    },
    {
      "osm_id": 9283609980,
      "osm_type": "node",
      "name": "Dig",
      "brand": "Dig",
      "latitude": 39.9512759,
      "longitude": -75.1679478,
      "address": "Chestnut Street",
      "city": "Philadelphia",
      "state": "PA",
      "postcode": "19103",
      "phone": "+1-215-344-8440",
      "website": "https://www.diginn.com/",
      "opening_hours": "Mo-Su 11:00-22:00",
      "amenity_type": "fast_food",
      "cuisine": "regional"
    },
    {
      "osm_id": 9283623320,
      "osm_type": "node",
      "name": "Dig",
      "brand": "Dig",
      "latitude": 40.7333299,
      "longitude": -73.9897455,
      "address": "4th Avenue",
      "city": "New York",
      "state": "NY",
      "postcode": "10003",
      "phone": "+1-646-905-5999",
      "website": "https://www.diginn.com/",
      "opening_hours": "Mo-Su 11:00-16:00, 17:00-22:00",
      "amenity_type": "fast_food",
      "cuisine": "regional"
    },
    {
      "osm_id": 9653343576,
      "osm_type": "node",
      "name": "Dig",
      "brand": "Dig",
      "latitude": 40.7375465,
      "longitude": -73.9910075,
      "address": "E 17th St",
      "city": "New York",
      "state": "NY",
      "postcode": "10003",
      "phone": "+1 212-253-7676",
      "website": "https://www.diginn.com/",
      "opening_hours": "",
      "amenity_type": "fast_food",
      "cuisine": "regional"
    },
    {
      "osm_id": 9925922688,
      "osm_type": "node",
      "name": "Dig",
      "brand": "Dig",
      "latitude": 42.3631452,
      "longitude": -71.0835779,
      "address": "",
      "city": "",
      "state": "",
      "postcode": "",
      "phone": "",
      "website": "",
      "opening_hours": "11:00-21:00",
      "amenity_type": "fast_food",
      "cuisine": "regional"
    },
    {
      "osm_id": 9936345029,
      "osm_type": "node",
      "name": "Digby's Donuts",
      "brand": "",
      "latitude": 37.7642319,
      "longitude": -121.9508303,
      "address": "Market Place",
      "city": "",
      "state": "",
      "postcode": "",
      "phone": "",
      "website": "",
      "opening_hours": "",
      "amenity_type": "fast_food",
      "cuisine": "donut"
    },
    {
      "osm_id": 10029232044,
      "osm_type": "node",
      "name": "Diggity Dog",
      "brand": "",
      "latitude": 40.7523943,
      "longitude": -75.6048675,
      "address": "",
      "city": "",
      "state": "",
      "postcode": "",
      "phone": "",
      "website": "",
      "opening_hours": "Mo-Su 06:00-17:00",
      "amenity_type": "fast_food",
      "cuisine": "hot_dog;breakfast"
    },
    {
      "osm_id": 10876404056,
      "osm_type": "node",
      "name": "Dig",
      "brand": "Dig",
      "latitude": 38.9069164,
      "longitude": -77.0629381,
      "address": "Wisconsin Avenue Northwest",
      "city": "Washington",
      "state": "DC",
      "postcode": "20007",
      "phone": "+1 202-567-3116",
      "website": "https://www.diginn.com/",
      "opening_hours": "",
      "amenity_type": "fast_food",
      "cuisine": "regional"
    },
    {
      "osm_id": 11287703666,
      "osm_type": "node",
      "name": "Dig",
      "brand": "Dig",
      "latitude": 40.6919106,
      "longitude": -73.9832147,
      "address": "Willoughby Street",
      "city": "Brooklyn",
      "state": "NY",
      "postcode": "11201",
      "phone": "",
      "website": "https://www.diginn.com/",
      "opening_hours": "",
      "amenity_type": "fast_food",
      "cuisine": "regional"
    },
    {
      "osm_id": 11554649657,
      "osm_type": "node",
      "name": "Dig",
      "brand": "Dig",
      "latitude": 40.0076535,
      "longitude": -75.2877119,
      "address": "Coulter Avenue",
      "city": "Ardmore",
      "state": "PA",
      "postcode": "19003",
      "phone": "",
      "website": "",
      "opening_hours": "",
      "amenity_type": "fast_food",
      "cuisine": "regional"
    },
    {
      "osm_id": 11565261337,
      "osm_type": "node",
      "name": "Diggery Inn",
      "brand": "",
      "latitude": 37.8072076,
      "longitude": -122.22232,
      "address": "",
      "city": "",
      "state": "",
      "postcode": "",
      "phone": "",
      "website": "",
      "opening_hours": "",
      "amenity_type": "restaurant",
      "cuisine": "breakfast"
    },
    {
      "osm_id": 11679124966,
      "osm_type": "node",
      "name": "Dig",
      "brand": "Dig",
      "latitude": 40.7500854,
      "longitude": -73.9751882,
      "address": "3rd Avenue",
      "city": "",
      "state": "",
      "postcode": "",
      "phone": "",
      "website": "https://www.diginn.com/",
      "opening_hours": "Mo-Su 11:00-22:00",
      "amenity_type": "fast_food",
      "cuisine": "regional"
    },
    {
      "osm_id": 12236631120,
      "osm_type": "node",
      "name": "Dig",
      "brand": "Dig",
      "latitude": 39.0506364,
      "longitude": -77.4526928,
      "address": "Brimfield Drive",
      "city": "Ashburn",
      "state": "VA",
      "postcode": "20147",
      "phone": "+1-703-842-2406",
      "website": "https://www.diginn.com/",
      "opening_hours": "",
      "amenity_type": "fast_food",
      "cuisine": "regional"
    },
    {
      "osm_id": 12249142125,
      "osm_type": "node",
      "name": "Dig",
      "brand": "",
      "latitude": 38.9822833,
      "longitude": -77.0957963,
      "address": "",
      "city": "",
      "state": "",
      "postcode": "",
      "phone": "",
      "website": "",
      "opening_hours": "",
      "amenity_type": "restaurant",
      "cuisine": ""
    },
    {
      "osm_id": 13320152963,
      "osm_type": "node",
      "name": "Diggity Dawgs",
      "brand": "",
      "latitude": 39.8774015,
      "longitude": -88.9382504,
      "address": "East Pershing Road",
      "city": "Decatur",
      "state": "IL",
      "postcode": "62526-4733",
      "phone": "+1-217-358-0333",
      "website": "https://hotdiggitydawgs.com/",
      "opening_hours": "Tu-Fr 11:00-19:00",
      "amenity_type": "fast_food",
      "cuisine": "american"
    }
  ]
}