{
  "metadata": {
    "chain": "Cava",
    "country": "US",
    "scraped_at": "2026-01-28T15:12:58.780862",
    "total_locations": 226,
    "source": "OpenStreetMap Overpass API"
  },
  "locations": [
    {
      "osm_id": 600634722,
      "osm_type": "node",
      "name": "Cavallino Nero",
      "brand": "",
      "latitude": 39.4568022,
      "longitude": -74.660552,
      "address": "",
      "city": "",
      "state": "",
      "postcode": "",
      "phone": "",
      "website": "",
      "opening_hours": "",
      "amenity_type": "restaurant",
      "cuisine": ""
    },
    {
      "osm_id": 710896934,
      "osm_type": "node",
      "name": "Cava Azul Cocina & Cantina",
      "brand": "",
      "latitude": 47.756382,
      "longitude": -122.1533751,
      "address": "",
      "city": "",
      "state": "",
      "postcode": "",
      "phone": "",
      "website": "https://cavaazul.net",
      "opening_hours": "",
      "amenity_type": "restaurant",
      "cuisine": "mexican"
    },
    {
      "osm_id": 737460217,
      "osm_type": "node",
      "name": "CAVA",
      "brand": "CAVA",
      "latitude": 38.9443155,
      "longitude": -77.0773611,
      "address": "Wisconsin Avenue Northwest",
      "city": "Washington",
      "state": "DC",
      "postcode": "20016",
      "phone": "+1 202-695-8115",
      "website": "https://cava.com/locations/tenleytown-dc",
      "opening_hours": "",
      "amenity_type": "restaurant",
      "cuisine": "mediterranean"
    },
    {
      "osm_id": 1322292257,
      "osm_type": "node",
      "name": "CAVA",
      "brand": "CAVA",
      "latitude": 38.9807544,
      "longitude": -77.0970367,
      "address": "Bethesda Avenue",
      "city": "Bethesda",
      "state": "MD",
      "postcode": "20814",
      "phone": "",
      "website": "",
      "opening_hours": "10:30-20:00",
      "amenity_type": "restaurant",
      "cuisine": "mediterranean"
    },
    {
      "osm_id": 1592078834,
      "osm_type": "node",
      "name": "CAVA",
      "brand": "CAVA",
      "latitude": 38.9965751,
      "longitude": -77.0247492,
      "address": "Fenton Street",
      "city": "Silver Spring",
      "state": "MD",
      "postcode": "20910",
      "phone": "+1 301-200-8666",
      "website": "https://cava.com/locations/silver-spring-md",
      "opening_hours": "10:45-22:00",
      "amenity_type": "restaurant",
      "cuisine": "mediterranean"
    },
    {
      "osm_id": 1713269561,
      "osm_type": "node",
      "name": "Contigo Kitchen + Cava",
      "brand": "",
      "latitude": 37.7509099,
      "longitude": -122.434171,
      "address": "",
      "city": "",
      "state": "",
      "postcode": "",
      "phone": "",
      "website": "",
      "opening_hours": "",
      "amenity_type": "restaurant",
      "cuisine": "spanish"
    },
    {
      "osm_id": 1720524128,
      "osm_type": "node",
      "name": "CAVA",
      "brand": "CAVA",
      "latitude": 34.8246716,
      "longitude": -82.3931308,
      "address": "Augusta Street",
      "city": "Greenville",
      "state": "SC",
      "postcode": "29605",
      "phone": "",
      "website": "https://cava.com/",
      "opening_hours": "",
      "amenity_type": "restaurant",
      "cuisine": "mediterranean"
    },
    {
      "osm_id": 2033110076,
      "osm_type": "node",
      "name": "Cava Wine Bar",
      "brand": "",
      "latitude": 41.1479849,
      "longitude": -73.4921394,
      "address": "Forest Street",
      "city": "New Canaan",
      "state": "CT",
      "postcode": "06840",
      "phone": "",
      "website": "https://cavawinebar.com/",
      "opening_hours": "",
      "amenity_type": "restaurant",
      "cuisine": ""
    },
    {
      "osm_id": 2299978589,
      "osm_type": "node",
      "name": "CAVA",
      "brand": "CAVA",
      "latitude": 38.929388,
      "longitude": -77.032487,
      "address": "14th Street Northwest",
      "city": "Washington",
      "state": "DC",
      "postcode": "20010",
      "phone": "+1-202-695-8100",
      "website": "",
      "opening_hours": "10:45-22:00",
      "amenity_type": "restaurant",
      "cuisine": "mediterranean"
    },
    {
      "osm_id": 2602381943,
      "osm_type": "node",
      "name": "Le Cavalier",
      "brand": "",
      "latitude": 39.7464075,
      "longitude": -75.547536,
      "address": "West 11th Street",
      "city": "",
      "state": "",
      "postcode": "",
      "phone": "+1 302-594-3154",
      "website": "https://www.lecavalierde.com",
      "opening_hours": "",
      "amenity_type": "restaurant",
      "cuisine": "french"
    },
    {
      "osm_id": 2604085668,
      "osm_type": "node",
      "name": "CAVA",
      "brand": "CAVA",
      "latitude": 36.9722847,
      "longitude": -121.951703,
      "address": "",
      "city": "",
      "state": "",
      "postcode": "",
      "phone": "",
      "website": "",
      "opening_hours": "",
      "amenity_type": "restaurant",
      "cuisine": "mediterranean"
    },
    {
      "osm_id": 2619235415,
      "osm_type": "node",
      "name": "CAVA",
      "brand": "CAVA",
      "latitude": 35.8076212,
      "longitude": -78.8146724,
      "address": "Market Center Drive",
      "city": "",
      "state": "NC",
      "postcode": "",
      "phone": "+1-919-276-4984",
      "website": "https://cava.com/locations/park-west-nc",
      "opening_hours": "Su-Sa 10:45-22:00",
      "amenity_type": "restaurant",
      "cuisine": "mediterranean"
    },
    {
      "osm_id": 2703044063,
      "osm_type": "node",
      "name": "CAVA",
      "brand": "CAVA",
      "latitude": 40.7416972,
      "longitude": -73.9934425,
      "address": "Avenue Of The Americas",
      "city": "New York",
      "state": "NY",
      "postcode": "10010",
      "phone": "",
      "website": "",
      "opening_hours": "",
      "amenity_type": "restaurant",
      "cuisine": "mediterranean"
    },
    {
      "osm_id": 2750966522,
      "osm_type": "node",
      "name": "CAVA",
      "brand": "CAVA",
      "latitude": 33.7774987,
      "longitude": -84.3842205,
      "address": "Peachtree Street Northeast",
      "city": "Atlanta",
      "state": "GA",
      "postcode": "30308",
      "phone": "+1-678-904-1089",
      "website": "https://cava.com/locations/Midtown-Central-GA",
      "opening_hours": "10:30-22:00",
      "amenity_type": "restaurant",
      "cuisine": "mediterranean"
    },
    {
      "osm_id": 2924929144,
      "osm_type": "node",
      "name": "Cava Digital Kitchen",
      "brand": "ZoÃ«s Kitchen",
      "latitude": 32.8485805,
      "longitude": -96.7876506,
      "address": "Snider Plaza",
      "city": "Dallas",
      "state": "TX",
      "postcode": "75205",
      "phone": "",
      "website": "",
      "opening_hours": "Mo-Sa 09:00-18:00; Su 12:00-17:00",
      "amenity_type": "fast_food",
      "cuisine": "mediterranean"
    },
    {
      "osm_id": 3023695363,
      "osm_type": "node",
      "name": "CAVA",
      "brand": "CAVA",
      "latitude": 37.5817636,
      "longitude": -77.4986324,
      "address": "",
      "city": "",
      "state": "",
      "postcode": "",
      "phone": "",
      "website": "",
      "opening_hours": "",
      "amenity_type": "restaurant",
      "cuisine": "mediterranean"
    },
    {
      "osm_id": 3313321879,
      "osm_type": "node",
      "name": "Cava Digital Kitcheb",
      "brand": "",
      "latitude": 35.0863866,
      "longitude": -80.8490042,
      "address": "",
      "city": "",
      "state": "",
      "postcode": "",
      "phone": "",
      "website": "",
      "opening_hours": "Mo-Su 10:45-20:00",
      "amenity_type": "fast_food",
      "cuisine": ""
    },
    {
      "osm_id": 3397772546,
      "osm_type": "node",
      "name": "The CAVALIER",
      "brand": "",
      "latitude": 37.7833605,
      "longitude": -122.406933,
      "address": "Jessie Street",
      "city": "San Francisco",
      "state": "CA",
      "postcode": "94103",
      "phone": "+1-415-321-6000",
      "website": "https://thecavaliersf.com/",
      "opening_hours": "",
      "amenity_type": "restaurant",
      "cuisine": "international"
    },
    {
      "osm_id": 3440159124,
      "osm_type": "node",
      "name": "CAVA",
      "brand": "CAVA",
      "latitude": 39.6797819,
      "longitude": -104.9412249,
      "address": "South Colorado Boulevard",
      "city": "Denver",
      "state": "CO",
      "postcode": "80222",
      "phone": "+1-303-539-6937",
      "website": "https://cava.com/locations/colorado-blvd-south-co",
      "opening_hours": "Mo-Su 10:45-22:00",
      "amenity_type": "restaurant",
      "cuisine": "mediterranean"
    },
    {
      "osm_id": 3581488793,
      "osm_type": "node",
      "name": "CAVA",
      "brand": "CAVA",
      "latitude": 38.9315291,
      "longitude": -77.178526,
      "address": "Chain Bridge Road",
      "city": "",
      "state": "VA",
      "postcode": "",
      "phone": "",
      "website": "",
      "opening_hours": "Mo-Su 10:45-22:00",
      "amenity_type": "restaurant",
      "cuisine": "mediterranean"
    },
    {
      "osm_id": 3595273745,
      "osm_type": "node",
      "name": "CAVA",
      "brand": "CAVA",
      "latitude": 39.1258954,
      "longitude": -77.2376463,
      "address": "Kentlands Boulevard",
      "city": "Gaithersburg",
      "state": "MD",
      "postcode": "20878",
      "phone": "",
      "website": "https://cava.com/locations/gaithersburg-md",
      "opening_hours": "10:45-22:00",
      "amenity_type": "restaurant",
      "cuisine": "mediterranean"
    },
    {
      "osm_id": 3632105872,
      "osm_type": "node",
      "name": "CAVA",
      "brand": "CAVA",
      "latitude": 32.8704943,
      "longitude": -96.7689088,
      "address": "Park Lane North",
      "city": "",
      "state": "",
      "postcode": "",
      "phone": "",
      "website": "",
      "opening_hours": "10:45-22:00",
      "amenity_type": "restaurant",
      "cuisine": "mediterranean"
    },
    {
      "osm_id": 3757648225,
      "osm_type": "node",
      "name": "CAVA",
      "brand": "CAVA",
      "latitude": 30.4632136,
      "longitude": -84.2711306,
      "address": "Thomasville Road",
      "city": "Tallahassee",
      "state": "FL",
      "postcode": "32303",
      "phone": "",
      "website": "https://cava.com",
      "opening_hours": "10:30-22:30",
      "amenity_type": "restaurant",
      "cuisine": "mediterranean"
    },
    {
      "osm_id": 3809235522,
      "osm_type": "node",
      "name": "CAVA",
      "brand": "CAVA",
      "latitude": 37.103558,
      "longitude": -76.4913844,
      "address": "Jefferson Avenue",
      "city": "Newport News",
      "state": "VA",
      "postcode": "23606",
      "phone": "+1-757-372-4272",
      "website": "https://cava.com",
      "opening_hours": "",
      "amenity_type": "restaurant",
      "cuisine": "mediterranean"
    },
    {
      "osm_id": 3813477997,
      "osm_type": "node",
      "name": "CAVA",
      "brand": "CAVA",
      "latitude": 34.1842322,
      "longitude": -118.604686,
      "address": "",
      "city": "",
      "state": "",
      "postcode": "",
      "phone": "",
      "website": "",
      "opening_hours": "",
      "amenity_type": "restaurant",
      "cuisine": "mediterranean"
    },
    {
      "osm_id": 3840429401,
      "osm_type": "node",
      "name": "Cavarettis",
      "brand": "",
      "latitude": 34.2012038,
      "longitude": -118.6075764,
      "address": "",
      "city": "",
      "state": "",
      "postcode": "",
      "phone": "",
      "website": "",
      "opening_hours": "",
      "amenity_type": "restaurant",
      "cuisine": "deli"
    },
    {
      "osm_id": 3871422566,
      "osm_type": "node",
      "name": "CAVA",
      "brand": "CAVA",
      "latitude": 35.7893909,
      "longitude": -78.6616737,
      "address": "Daniels Street",
      "city": "Raleigh",
      "state": "NC",
      "postcode": "27605",
      "phone": "",
      "website": "",
      "opening_hours": "",
      "amenity_type": "restaurant",
      "cuisine": "mediterranean"
    },
    {
      "osm_id": 4040988423,
      "osm_type": "node",
      "name": "CAVA",
      "brand": "CAVA",
      "latitude": 29.8037522,
      "longitude": -95.4012092,
      "address": "West 20th Street",
      "city": "Houston",
      "state": "TX",
      "postcode": "",
      "phone": "",
      "website": "",
      "opening_hours": "Mo-Su 10:45-22:00",
      "amenity_type": "restaurant",
      "cuisine": "mediterranean"
    },
    {
      "osm_id": 4082281314,
      "osm_type": "node",
      "name": "CAVA",
      "brand": "CAVA",
      "latitude": 36.0883814,
      "longitude": -79.8394104,
      "address": "West Friendly Avenue",
      "city": "",
      "state": "",
      "postcode": "",
      "phone": "+1 743-229-2668",
      "website": "https://cava.com/locations/greensboro-nc",
      "opening_hours": "10:45-22:00",
      "amenity_type": "restaurant",
      "cuisine": "mediterranean"
    },
    {
      "osm_id": 4154452426,
      "osm_type": "node",
      "name": "CAVA",
      "brand": "CAVA",
      "latitude": 34.8472435,
      "longitude": -82.3391316,
      "address": "Haywood Road",
      "city": "Greenville",
      "state": "",
      "postcode": "29607",
      "phone": "",
      "website": "https://cava.com/",
      "opening_hours": "",
      "amenity_type": "restaurant",
      "cuisine": "mediterranean"
    },
    {
      "osm_id": 4240183593,
      "osm_type": "node",
      "name": "CAVA",
      "brand": "CAVA",
      "latitude": 34.0212238,
      "longitude": -84.121059,
      "address": "Peachtree Industrial Boulevard",
      "city": "Duluth",
      "state": "GA",
      "postcode": "30097",
      "phone": "+1-470-857-7116",
      "website": "https://cava.com/locations/duluth-ga",
      "opening_hours": "Mo-Su 10:30-22:30",
      "amenity_type": "restaurant",
      "cuisine": "mediterranean"
    },
    {
      "osm_id": 4337978830,
      "osm_type": "node",
      "name": "Cavan",
      "brand": "",
      "latitude": 29.9222129,
      "longitude": -90.0919173,
      "address": "Magazine Street",
      "city": "New Orleans",
      "state": "LA",
      "postcode": "70115",
      "phone": "+1-504-509-7655",
      "website": "https://www.cavannola.com/",
      "opening_hours": "We-Su 11:00-21:00",
      "amenity_type": "restaurant",
      "cuisine": ""
    },
    {
      "osm_id": 4418911394,
      "osm_type": "node",
      "name": "Cava Tapas & Wine Bar",
      "brand": "",
      "latitude": 43.07761,
      "longitude": -70.757039,
      "address": "Commercial Alley",
      "city": "Portsmouth",
      "state": "NH",
      "postcode": "03801",
      "phone": "+1-603-319-1575",
      "website": "https://www.cavatapasandwinebar.com/",
      "opening_hours": "",
      "amenity_type": "restaurant",
      "cuisine": "tapas"
    },
    {
      "osm_id": 4487863560,
      "osm_type": "node",
      "name": "CAVA",
      "brand": "CAVA",
      "latitude": 39.412974,
      "longitude": -76.772595,
      "address": "",
      "city": "",
      "state": "",
      "postcode": "",
      "phone": "",
      "website": "",
      "opening_hours": "",
      "amenity_type": "restaurant",
      "cuisine": "mediterranean"
    },
    {
      "osm_id": 4497833056,
      "osm_type": "node",
      "name": "CAVA",
      "brand": "CAVA",
      "latitude": 41.8880874,
      "longitude": -87.8052986,
      "address": "Lake Street",
      "city": "River Forest",
      "state": "IL",
      "postcode": "60305",
      "phone": "",
      "website": "",
      "opening_hours": "",
      "amenity_type": "restaurant",
      "cuisine": "mediterranean"
    },
    {
      "osm_id": 4501749521,
      "osm_type": "node",
      "name": "CAVA",
      "brand": "CAVA",
      "latitude": 40.0169655,
      "longitude": -105.257185,
      "address": "",
      "city": "",
      "state": "",
      "postcode": "",
      "phone": "",
      "website": "https://cava.com/locations/boulder-co",
      "opening_hours": "Mo-Su 10:45-22:00",
      "amenity_type": "restaurant",
      "cuisine": "mediterranean"
    },
    {
      "osm_id": 4540514796,
      "osm_type": "node",
      "name": "CAVA",
      "brand": "CAVA",
      "latitude": 38.7890125,
      "longitude": -77.6069731,
      "address": "Gateway Promenade Place",
      "city": "Gainesville",
      "state": "VA",
      "postcode": "20155",
      "phone": "+1-571-234-5934",
      "website": "https://cava.com/locations/gainesville-va",
      "opening_hours": "Mo-Su 10:45-22:00",
      "amenity_type": "restaurant",
      "cuisine": "mediterranean"
    },
    {
      "osm_id": 4543969102,
      "osm_type": "node",
      "name": "CAVA",
      "brand": "CAVA",
      "latitude": 38.8995193,
      "longitude": -77.2668987,
      "address": "Maple Avenue West",
      "city": "Vienna",
      "state": "VA",
      "postcode": "22180",
      "phone": "",
      "website": "",
      "opening_hours": "",
      "amenity_type": "restaurant",
      "cuisine": "mediterranean"
    },
    {
      "osm_id": 4554280519,
      "osm_type": "node",
      "name": "CAVA",
      "brand": "CAVA",
      "latitude": 38.8127883,
      "longitude": -77.1098575,
      "address": "Duke Street",
      "city": "Alexandria",
      "state": "VA",
      "postcode": "22304",
      "phone": "+1 571-223-6440",
      "website": "https://cava.com/locations/foxchase-va",
      "opening_hours": "10:30-22:30",
      "amenity_type": "restaurant",
      "cuisine": "mediterranean"
    },
    {
      "osm_id": 4559289816,
      "osm_type": "node",
      "name": "CAVA",
      "brand": "CAVA",
      "latitude": 40.6924317,
      "longitude": -73.9885461,
      "address": "Adams Street",
      "city": "",
      "state": "",
      "postcode": "11201",
      "phone": "+1-929-296-7809",
      "website": "https://cava.com",
      "opening_hours": "Mo-Su 10:45-22:00",
      "amenity_type": "restaurant",
      "cuisine": "mediterranean"
    },
    {
      "osm_id": 4561048492,
      "osm_type": "node",
      "name": "CAVA",
      "brand": "CAVA",
      "latitude": 40.7522516,
      "longitude": -73.9736217,
      "address": "3rd Avenue",
      "city": "New York",
      "state": "NY",
      "postcode": "10017",
      "phone": "+1-332-345-2438",
      "website": "https://cava.com/locations/708-3rd-ave-ny",
      "opening_hours": "Mo 10:45-22:00; Tu 10:45-20:00; We-Su 10:45-22:00",
      "amenity_type": "restaurant",
      "cuisine": "mediterranean"
    },
    {
      "osm_id": 4579629186,
      "osm_type": "node",
      "name": "CAVA",
      "brand": "CAVA",
      "latitude": 38.9164074,
      "longitude": -77.0225843,
      "address": "8th Street Northwest",
      "city": "Washington",
      "state": "DC",
      "postcode": "20001",
      "phone": "",
      "website": "",
      "opening_hours": "",
      "amenity_type": "restaurant",
      "cuisine": "mediterranean"
    },
    {
      "osm_id": 4633801803,
      "osm_type": "node",
      "name": "Cavallo's",
      "brand": "",
      "latitude": 40.8147549,
      "longitude": -74.1718848,
      "address": "",
      "city": "",
      "state": "",
      "postcode": "",
      "phone": "",
      "website": "",
      "opening_hours": "",
      "amenity_type": "restaurant",
      "cuisine": "italian"
    },
    {
      "osm_id": 4664894703,
      "osm_type": "node",
      "name": "CAVA",
      "brand": "CAVA",
      "latitude": 38.8539384,
      "longitude": -77.0427358,
      "address": "Ronald Reagan Washington National Airport Access Road",
      "city": "Arlington",
      "state": "VA",
      "postcode": "22202",
      "phone": "",
      "website": "",
      "opening_hours": "Mo-Su 05:00-15:30",
      "amenity_type": "restaurant",
      "cuisine": "mediterranean"
    },
    {
      "osm_id": 4696251026,
      "osm_type": "node",
      "name": "CAVA",
      "brand": "CAVA",
      "latitude": 33.9806649,
      "longitude": -84.2146781,
      "address": "Peachtree Parkway Northwest",
      "city": "Peachtree Corners",
      "state": "GA",
      "postcode": "30092",
      "phone": "",
      "website": "https://cava.com/",
      "opening_hours": "Mo-Su 10:45-22:00",
      "amenity_type": "restaurant",
      "cuisine": "mediterranean"
    },
    {
      "osm_id": 4810181889,
      "osm_type": "node",
      "name": "Cava",
      "brand": "",
      "latitude": 39.9794746,
      "longitude": -75.1531829,
      "address": "",
      "city": "",
      "state": "",
      "postcode": "",
      "phone": "",
      "website": "",
      "opening_hours": "",
      "amenity_type": "fast_food",
      "cuisine": ""
    },
    {
      "osm_id": 4835242623,
      "osm_type": "node",
      "name": "CAVA",
      "brand": "CAVA",
      "latitude": 38.906673,
      "longitude": -77.0420094,
      "address": "Connecticut Avenue Northwest",
      "city": "Washington",
      "state": "DC",
      "postcode": "20036",
      "phone": "+1 202-370-6636",
      "website": "https://cava.com/locations/dupont-dc",
      "opening_hours": "",
      "amenity_type": "restaurant",
      "cuisine": "mediterranean"
    },
    {
      "osm_id": 4921526998,
      "osm_type": "node",
      "name": "Cavanaugh Pizza",
      "brand": "",
      "latitude": 35.3120442,
      "longitude": -94.4016023,
      "address": "Cavanaugh Road",
      "city": "Fort Smith",
      "state": "AR",
      "postcode": "72908",
      "phone": "",
      "website": "",
      "opening_hours": "",
      "amenity_type": "restaurant",
      "cuisine": "pizza"
    },
    {
      "osm_id": 4924684896,
      "osm_type": "node",
      "name": "CAVA",
      "brand": "CAVA",
      "latitude": 36.7728546,
      "longitude": -76.234698,
      "address": "Eden Way North",
      "city": "Chesapeake",
      "state": "VA",
      "postcode": "23320",
      "phone": "",
      "website": "https://cava.com/locations/chesapeake-va",
      "opening_hours": "",
      "amenity_type": "restaurant",
      "cuisine": "mediterranean"
    },
    {
      "osm_id": 4936325239,
      "osm_type": "node",
      "name": "Cavalier Pizza",
      "brand": "",
      "latitude": 39.5320307,
      "longitude": -111.4632963,
      "address": "",
      "city": "",
      "state": "",
      "postcode": "",
      "phone": "",
      "website": "",
      "opening_hours": "",
      "amenity_type": "restaurant",
      "cuisine": "pizza"
    },
    {
      "osm_id": 4976388986,
      "osm_type": "node",
      "name": "CAVA",
      "brand": "CAVA",
      "latitude": 34.1238883,
      "longitude": -80.8729701,
      "address": "Two Notch Road",
      "city": "Columbia",
      "state": "SC",
      "postcode": "29229",
      "phone": "",
      "website": "",
      "opening_hours": "",
      "amenity_type": "restaurant",
      "cuisine": "mediterranean"
    },
    {
      "osm_id": 5061218426,
      "osm_type": "node",
      "name": "CAVA",
      "brand": "CAVA",
      "latitude": 40.5441471,
      "longitude": -105.076406,
      "address": "",
      "city": "",
      "state": "",
      "postcode": "",
      "phone": "",
      "website": "https://cava.com/",
      "opening_hours": "",
      "amenity_type": "restaurant",
      "cuisine": "mediterranean"
    },
    {
      "osm_id": 5125654207,
      "osm_type": "node",
      "name": "Benny Cavalloni's",
      "brand": "",
      "latitude": 36.8424592,
      "longitude": -76.1350611,
      "address": "Market Street",
      "city": "Virginia Beach",
      "state": "VA",
      "postcode": "23462",
      "phone": "+1-757-330-2868",
      "website": "https://www.bennysva.com/locations/benny-cavallonis/",
      "opening_hours": "Su-Th 11:00-22:00; Fr-Sa 11:00-00:00",
      "amenity_type": "restaurant",
      "cuisine": "pizza"
    },
    {
      "osm_id": 5166722021,
      "osm_type": "node",
      "name": "CAVA",
      "brand": "CAVA",
      "latitude": 38.872412,
      "longitude": -77.229146,
      "address": "District Avenue",
      "city": "Fairfax",
      "state": "VA",
      "postcode": "22031-2273",
      "phone": "+1 703-988-4313",
      "website": "https://cava.com/locations/mosaic-district-va",
      "opening_hours": "",
      "amenity_type": "restaurant",
      "cuisine": "mediterranean"
    },
    {
      "osm_id": 5185164676,
      "osm_type": "node",
      "name": "CAVA",
      "brand": "CAVA",
      "latitude": 34.0611701,
      "longitude": -118.4462,
      "address": "",
      "city": "",
      "state": "",
      "postcode": "",
      "phone": "",
      "website": "",
      "opening_hours": "",
      "amenity_type": "restaurant",
      "cuisine": "mediterranean"
    },
    {
      "osm_id": 5237417654,
      "osm_type": "node",
      "name": "CAVA",
      "brand": "CAVA",
      "latitude": 34.0250185,
      "longitude": -118.2844838,
      "address": "South Hoover Street",
      "city": "Los Angeles",
      "state": "CA",
      "postcode": "90007",
      "phone": "+1-213-212-9838",
      "website": "https://cava.com/",
      "opening_hours": "Mo-Su 10:45-22:00",
      "amenity_type": "restaurant",
      "cuisine": "mediterranean"
    },
    {
      "osm_id": 5241981902,
      "osm_type": "node",
      "name": "CAVA",
      "brand": "CAVA",
      "latitude": 38.8974553,
      "longitude": -77.0069852,
      "address": "Massachusetts Avenue Northeast",
      "city": "Washington",
      "state": "DC",
      "postcode": "20002",
      "phone": "",
      "website": "https://cava.com/",
      "opening_hours": "Mo-Su 10:45-21:00",
      "amenity_type": "restaurant",
      "cuisine": "mediterranean"
    },
    {
      "osm_id": 5258718528,
      "osm_type": "node",
      "name": "Cavalli's Pizza Napoletana",
      "brand": "",
      "latitude": 33.1982978,
      "longitude": -96.7078404,
      "address": "",
      "city": "",
      "state": "",
      "postcode": "",
      "phone": "",
      "website": "",
      "opening_hours": "",
      "amenity_type": "restaurant",
      "cuisine": "italian;pizza"
    },
    {
      "osm_id": 5268778856,
      "osm_type": "node",
      "name": "CAVA",
      "brand": "CAVA",
      "latitude": 34.0061491,
      "longitude": -81.2005492,
      "address": "Sunset Boulevard",
      "city": "Lexington",
      "state": "SC",
      "postcode": "29072",
      "phone": "",
      "website": "",
      "opening_hours": "",
      "amenity_type": "restaurant",
      "cuisine": "mediterranean"
    },
    {
      "osm_id": 5274355301,
      "osm_type": "node",
      "name": "CAVA",
      "brand": "CAVA",
      "latitude": 39.024144,
      "longitude": -77.3943364,
      "address": "Epicerie Plaza",
      "city": "Sterling",
      "state": "VA",
      "postcode": "20164",
      "phone": "",
      "website": "",
      "opening_hours": "",
      "amenity_type": "restaurant",
      "cuisine": "mediterranean"
    },
    {
      "osm_id": 5305600736,
      "osm_type": "node",
      "name": "CAVA",
      "brand": "CAVA",
      "latitude": 35.0746803,
      "longitude": -78.9622625,
      "address": "",
      "city": "",
      "state": "",
      "postcode": "",
      "phone": "",
      "website": "",
      "opening_hours": "",
      "amenity_type": "restaurant",
      "cuisine": "mediterranean"
    },
    {
      "osm_id": 5368519142,
      "osm_type": "node",
      "name": "CAVA",
      "brand": "CAVA",
      "latitude": 34.0906522,
      "longitude": -81.1728282,
      "address": "",
      "city": "",
      "state": "",
      "postcode": "",
      "phone": "",
      "website": "",
      "opening_hours": "",
      "amenity_type": "restaurant",
      "cuisine": "mediterranean"
    },
    {
      "osm_id": 5405358134,
      "osm_type": "node",
      "name": "CAVA",
      "brand": "CAVA",
      "latitude": 39.284487,
      "longitude": -76.5987814,
      "address": "",
      "city": "",
      "state": "",
      "postcode": "",
      "phone": "",
      "website": "",
      "opening_hours": "",
      "amenity_type": "restaurant",
      "cuisine": "mediterranean"
    },
    {
      "osm_id": 5407440393,
      "osm_type": "node",
      "name": "CAVA",
      "brand": "CAVA",
      "latitude": 38.7996855,
      "longitude": -77.3192521,
      "address": "Burke Centre Parkway",
      "city": "Burke",
      "state": "VA",
      "postcode": "22015",
      "phone": "",
      "website": "",
      "opening_hours": "",
      "amenity_type": "restaurant",
      "cuisine": "mediterranean"
    },
    {
      "osm_id": 5458051764,
      "osm_type": "node",
      "name": "CAVA",
      "brand": "CAVA",
      "latitude": 41.8890557,
      "longitude": -87.633264,
      "address": "West Kinzie Street",
      "city": "Chicago",
      "state": "IL",
      "postcode": "60654",
      "phone": "+1-773-348-8899",
      "website": "",
      "opening_hours": "Fr 23:00-02:00; Sa 23:00-03:00",
      "amenity_type": "restaurant",
      "cuisine": "mediterranean"
    },
    {
      "osm_id": 5485470145,
      "osm_type": "node",
      "name": "Cavas",
      "brand": "",
      "latitude": 43.0295625,
      "longitude": -87.9053211,
      "address": "East Erie Street",
      "city": "Milwaukee",
      "state": "",
      "postcode": "53202",
      "phone": "",
      "website": "",
      "opening_hours": "Th-Sa 17:00-21:00",
      "amenity_type": "restaurant",
      "cuisine": "tapas"
    },
    {
      "osm_id": 5543095053,
      "osm_type": "node",
      "name": "CAVA",
      "brand": "CAVA",
      "latitude": 37.3985158,
      "longitude": -79.2238243,
      "address": "",
      "city": "",
      "state": "",
      "postcode": "",
      "phone": "",
      "website": "",
      "opening_hours": "Mo-Su 10:45-22:00",
      "amenity_type": "restaurant",
      "cuisine": "mediterranean"
    },
    {
      "osm_id": 5569928292,
      "osm_type": "node",
      "name": "CAVA",
      "brand": "CAVA",
      "latitude": 38.851918,
      "longitude": -77.041244,
      "address": "National Avenue",
      "city": "Arlington",
      "state": "VA",
      "postcode": "22202",
      "phone": "+1-703-417-2125",
      "website": "https://cava.com/locations/national-airport-va",
      "opening_hours": "05:00-21:30",
      "amenity_type": "restaurant",
      "cuisine": "mediterranean"
    },
    {
      "osm_id": 5591321661,
      "osm_type": "node",
      "name": "CAVA",
      "brand": "CAVA",
      "latitude": 38.9562299,
      "longitude": -94.7227547,
      "address": "",
      "city": "",
      "state": "",
      "postcode": "",
      "phone": "",
      "website": "",
      "opening_hours": "",
      "amenity_type": "restaurant",
      "cuisine": "mediterranean"
    },
    {
      "osm_id": 5744083725,
      "osm_type": "node",
      "name": "CAVA",
      "brand": "CAVA",
      "latitude": 38.8769937,
      "longitude": -77.4421061,
      "address": "Newbrook Drive",
      "city": "Chantilly",
      "state": "VA",
      "postcode": "20151",
      "phone": "",
      "website": "",
      "opening_hours": "Mo-Su 10:00-22:00",
      "amenity_type": "restaurant",
      "cuisine": "mediterranean"
    },
    {
      "osm_id": 5775870215,
      "osm_type": "node",
      "name": "CAVA",
      "brand": "CAVA",
      "latitude": 39.0674439,
      "longitude": -77.4852053,
      "address": "Belmont Chase Drive",
      "city": "Ashburn",
      "state": "VA",
      "postcode": "20147",
      "phone": "",
      "website": "https://order.cava.com/stores/13/menu",
      "opening_hours": "Mo-Su 10:45-22:00",
      "amenity_type": "restaurant",
      "cuisine": "mediterranean"
    },
    {
      "osm_id": 5883165295,
      "osm_type": "node",
      "name": "CAVA",
      "brand": "CAVA",
      "latitude": 29.9350775,
      "longitude": -90.1086374,
      "address": "Freret Street",
      "city": "New Orleans",
      "state": "LA",
      "postcode": "70115",
      "phone": "+1 504-513-4146",
      "website": "https://cava.com/locations/Freret-LA",
      "opening_hours": "Mo-Su 10:30-22:30",
      "amenity_type": "restaurant",
      "cuisine": "mediterranean"
    },
    {
      "osm_id": 5919577375,
      "osm_type": "node",
      "name": "Cavanaugh's Restaurant",
      "brand": "",
      "latitude": 41.170924,
      "longitude": -75.8774043,
      "address": "",
      "city": "",
      "state": "",
      "postcode": "",
      "phone": "",
      "website": "",
      "opening_hours": "",
      "amenity_type": "restaurant",
      "cuisine": ""
    },
    {
      "osm_id": 6003795825,
      "osm_type": "node",
      "name": "CAVA",
      "brand": "CAVA",
      "latitude": 39.523751,
      "longitude": -76.3510963,
      "address": "Marketplace Drive",
      "city": "Bel Air",
      "state": "MD",
      "postcode": "21014",
      "phone": "",
      "website": "https://cava.com/",
      "opening_hours": "",
      "amenity_type": "restaurant",
      "cuisine": "mediterranean"
    },
    {
      "osm_id": 6006060909,
      "osm_type": "node",
      "name": "Cava",
      "brand": "",
      "latitude": 40.7791537,
      "longitude": -73.9535112,
      "address": "3rd Avenue",
      "city": "",
      "state": "",
      "postcode": "10028",
      "phone": "",
      "website": "",
      "opening_hours": "",
      "amenity_type": "restaurant",
      "cuisine": "mediterranean"
    },
    {
      "osm_id": 6016366499,
      "osm_type": "node",
      "name": "CAVA",
      "brand": "CAVA",
      "latitude": 38.880171,
      "longitude": -77.110216,
      "address": "Wilson Boulevard",
      "city": "Arlington",
      "state": "VA",
      "postcode": "22203-1839",
      "phone": "+1 703-310-6791",
      "website": "https://cava.com",
      "opening_hours": "Mo-Su 10:45-22:00",
      "amenity_type": "restaurant",
      "cuisine": "mediterranean"
    },
    {
      "osm_id": 6052814347,
      "osm_type": "node",
      "name": "CAVA",
      "brand": "CAVA",
      "latitude": 38.9613709,
      "longitude": -77.356482,
      "address": "Fountain Drive",
      "city": "Reston",
      "state": "VA",
      "postcode": "20190",
      "phone": "",
      "website": "https://order.cava.com/stores/65/menu",
      "opening_hours": "Mo-Su 10:45-22:00",
      "amenity_type": "restaurant",
      "cuisine": "mediterranean"
    },
    {
      "osm_id": 6073275079,
      "osm_type": "node",
      "name": "Cava",
      "brand": "CAVA",
      "latitude": 25.7644267,
      "longitude": -80.258343,
      "address": "Southwest 8th Street",
      "city": "Coral Gables",
      "state": "FL",
      "postcode": "33134",
      "phone": "+1-305-433-7666",
      "website": "https://cavamia.com/",
      "opening_hours": "Mo-We 11:30-16:00; Th 11:30-16:00, 18:30-22:00; Fr-Sa 11:30-16:00, 18:30-22:00; Su 12:00-22:00",
      "amenity_type": "restaurant",
      "cuisine": "spanish"
    },
    {
      "osm_id": 6135429749,
      "osm_type": "node",
      "name": "CAVA",
      "brand": "CAVA",
      "latitude": 38.9807244,
      "longitude": -76.9390171,
      "address": "Baltimore Avenue",
      "city": "College Park",
      "state": "MD",
      "postcode": "20740",
      "phone": "",
      "website": "",
      "opening_hours": "Mo-Su 10:45-22:00",
      "amenity_type": "restaurant",
      "cuisine": "mediterranean"
    },
    {
      "osm_id": 6193684318,
      "osm_type": "node",
      "name": "CAVA",
      "brand": "CAVA",
      "latitude": 30.6244897,
      "longitude": -96.339366,
      "address": "University Drive",
      "city": "College Station",
      "state": "TX",
      "postcode": "77840",
      "phone": "+1-936-571-1751",
      "website": "https://cava.com/locations/college-station-tx",
      "opening_hours": "Mo-Su 10:45-22:00; PH 10:45-15:00",
      "amenity_type": "restaurant",
      "cuisine": "mediterranean"
    },
    {
      "osm_id": 6214175385,
      "osm_type": "node",
      "name": "CAVA",
      "brand": "CAVA",
      "latitude": 39.1532525,
      "longitude": -76.7281832,
      "address": "Arundel Mills Boulevard",
      "city": "Hanover",
      "state": "MD",
      "postcode": "21076",
      "phone": "+1 410-216-0484",
      "website": "https://www.cava.com/",
      "opening_hours": "",
      "amenity_type": "restaurant",
      "cuisine": "mediterranean"
    },
    {
      "osm_id": 6238727403,
      "osm_type": "node",
      "name": "CAVA",
      "brand": "CAVA",
      "latitude": 40.007264,
      "longitude": -75.2125972,
      "address": "City Avenue",
      "city": "Philadelphia",
      "state": "PA",
      "postcode": "19131",
      "phone": "",
      "website": "",
      "opening_hours": "10:45-22:00",
      "amenity_type": "restaurant",
      "cuisine": "mediterranean"
    },
    {
      "osm_id": 6336123958,
      "osm_type": "node",
      "name": "CAVA",
      "brand": "CAVA",
      "latitude": 33.0659982,
      "longitude": -97.081381,
      "address": "Long Prairie Road",
      "city": "Flower Mound",
      "state": "TX",
      "postcode": "75028",
      "phone": "+1 469-702-9025",
      "website": "https://cava.com/",
      "opening_hours": "Mo-Su 10:45-22:00",
      "amenity_type": "restaurant",
      "cuisine": "mediterranean"
    },
    {
      "osm_id": 6348457663,
      "osm_type": "node",
      "name": "CAVA",
      "brand": "CAVA",
      "latitude": 39.054983,
      "longitude": -77.1174479,
      "address": "Rockville Pike",
      "city": "",
      "state": "MD",
      "postcode": "",
      "phone": "",
      "website": "",
      "opening_hours": "10:45-22:00",
      "amenity_type": "restaurant",
      "cuisine": "mediterranean"
    },
    {
      "osm_id": 6437635176,
      "osm_type": "node",
      "name": "CAVA",
      "brand": "CAVA",
      "latitude": 39.9872058,
      "longitude": -75.4053967,
      "address": "West Chester Pike",
      "city": "Newtown Square",
      "state": "PA",
      "postcode": "19073",
      "phone": "+1 484-421-2112",
      "website": "https://cava.com/locations/ellis-preserve-pa",
      "opening_hours": "10:30-22:00",
      "amenity_type": "restaurant",
      "cuisine": "mediterranean"
    },
    {
      "osm_id": 6439970699,
      "osm_type": "node",
      "name": "CAVA",
      "brand": "CAVA",
      "latitude": 39.8750982,
      "longitude": -75.5439323,
      "address": "Wilmington Pike",
      "city": "Glen Mills",
      "state": "PA",
      "postcode": "19342",
      "phone": "+1 484-848-5103",
      "website": "https://cava.com/locations/glen-mills-pa",
      "opening_hours": "10:30-22:30",
      "amenity_type": "restaurant",
      "cuisine": "mediterranean"
    },
    {
      "osm_id": 6515393788,
      "osm_type": "node",
      "name": "CAVA",
      "brand": "CAVA",
      "latitude": 37.5128722,
      "longitude": -77.6138674,
      "address": "",
      "city": "",
      "state": "",
      "postcode": "",
      "phone": "",
      "website": "",
      "opening_hours": "",
      "amenity_type": "restaurant",
      "cuisine": "mediterranean"
    },
    {
      "osm_id": 6526514538,
      "osm_type": "node",
      "name": "CAVA",
      "brand": "CAVA",
      "latitude": 37.4120051,
      "longitude": -77.6454749,
      "address": "",
      "city": "",
      "state": "",
      "postcode": "",
      "phone": "",
      "website": "",
      "opening_hours": "",
      "amenity_type": "restaurant",
      "cuisine": "mediterranean"
    },
    {
      "osm_id": 6561325872,
      "osm_type": "node",
      "name": "CAVA",
      "brand": "CAVA",
      "latitude": 35.8653744,
      "longitude": -78.6199134,
      "address": "Falls of Neuse Road",
      "city": "Raleigh",
      "state": "NC",
      "postcode": "27609",
      "phone": "+1-919-326-7740",
      "website": "",
      "opening_hours": "Mo-Su 11:00-21:00",
      "amenity_type": "restaurant",
      "cuisine": "mediterranean"
    },
    {
      "osm_id": 6568743285,
      "osm_type": "node",
      "name": "CAVA",
      "brand": "CAVA",
      "latitude": 40.7219556,
      "longitude": -73.996497,
      "address": "",
      "city": "",
      "state": "",
      "postcode": "",
      "phone": "+1-718-502-9262",
      "website": "https://cava.com/locations/nolita-ny",
      "opening_hours": "Tu-Sa 10:45-22:00",
      "amenity_type": "restaurant",
      "cuisine": "mediterranean"
    },
    {
      "osm_id": 6580850996,
      "osm_type": "node",
      "name": "CAVA",
      "brand": "Cava",
      "latitude": 32.6994035,
      "longitude": -97.4127642,
      "address": "Convair Drive",
      "city": "",
      "state": "",
      "postcode": "",
      "phone": "",
      "website": "",
      "opening_hours": "",
      "amenity_type": "fast_food",
      "cuisine": "mediterranean"
    },
    {
      "osm_id": 6630517161,
      "osm_type": "node",
      "name": "CAVA",
      "brand": "CAVA",
      "latitude": 40.7274974,
      "longitude": -74.0071128,
      "address": "Hudson Street",
      "city": "New York",
      "state": "NY",
      "postcode": "10014",
      "phone": "+1-332-222-6749",
      "website": "https://cava.com/locations/350-hudson-ny",
      "opening_hours": "Mo-Su 10:45-22:00",
      "amenity_type": "restaurant",
      "cuisine": "mediterranean"
    },
    {
      "osm_id": 6681723409,
      "osm_type": "node",
      "name": "CAVA",
      "brand": "CAVA",
      "latitude": 39.2006514,
      "longitude": -76.812547,
      "address": "Old Dobbin Lane",
      "city": "Columbia",
      "state": "MD",
      "postcode": "21045",
      "phone": "",
      "website": "",
      "opening_hours": "",
      "amenity_type": "restaurant",
      "cuisine": "mediterranean"
    },
    {
      "osm_id": 6683012538,
      "osm_type": "node",
      "name": "Cava",
      "brand": "Cava Group",
      "latitude": 37.6701931,
      "longitude": -77.4621541,
      "address": "Brook Road",
      "city": "Glen Allen",
      "state": "VA",
      "postcode": "23059",
      "phone": "",
      "website": "",
      "opening_hours": "10:45-22:00",
      "amenity_type": "fast_food",
      "cuisine": "mediterranean"
    },
    {
      "osm_id": 6711655118,
      "osm_type": "node",
      "name": "CAVA",
      "brand": "CAVA",
      "latitude": 35.688484,
      "longitude": -105.942115,
      "address": "",
      "city": "",
      "state": "",
      "postcode": "",
      "phone": "",
      "website": "",
      "opening_hours": "",
      "amenity_type": "restaurant",
      "cuisine": "mediterranean"
    },
    {
      "osm_id": 6786412126,
      "osm_type": "node",
      "name": "CAVA",
      "brand": "CAVA",
      "latitude": 42.0134751,
      "longitude": -71.2303068,
      "address": "",
      "city": "",
      "state": "",
      "postcode": "",
      "phone": "",
      "website": "",
      "opening_hours": "",
      "amenity_type": "restaurant",
      "cuisine": "mediterranean"
    },
    {
      "osm_id": 6802800188,
      "osm_type": "node",
      "name": "CAVA",
      "brand": "CAVA",
      "latitude": 40.7058652,
      "longitude": -74.0087804,
      "address": "Wall Street",
      "city": "",
      "state": "",
      "postcode": "10005",
      "phone": "+1-212-206-2524",
      "website": "",
      "opening_hours": "Mo-Su 10:45-22:00",
      "amenity_type": "restaurant",
      "cuisine": "mediterranean"
    },
    {
      "osm_id": 6876718985,
      "osm_type": "node",
      "name": "CAVA",
      "brand": "CAVA",
      "latitude": 42.3631928,
      "longitude": -71.0877761,
      "address": "Ames Street",
      "city": "Cambridge",
      "state": "MA",
      "postcode": "02142",
      "phone": "+16172029396",
      "website": "https://cava.com/locations/kendall-square-ma",
      "opening_hours": "Su-Fr 10:45-22:00",
      "amenity_type": "restaurant",
      "cuisine": "mediterranean"
    },
    {
      "osm_id": 6912741920,
      "osm_type": "node",
      "name": "CAVA",
      "brand": "CAVA",
      "latitude": 40.8877386,
      "longitude": -74.2543042,
      "address": "Willowbrook Boulevard",
      "city": "Wayne",
      "state": "NJ",
      "postcode": "07470",
      "phone": "+1 973-658-4991",
      "website": "https://cava.com/locations/wayne-nj",
      "opening_hours": "10:45-22:00",
      "amenity_type": "restaurant",
      "cuisine": "mediterranean"
    },
    {
      "osm_id": 7026994963,
      "osm_type": "node",
      "name": "Cavana's Pub and Grub",
      "brand": "",
      "latitude": 38.3929924,
      "longitude": -120.8027803,
      "address": "",
      "city": "",
      "state": "",
      "postcode": "",
      "phone": "",
      "website": "",
      "opening_hours": "",
      "amenity_type": "restaurant",
      "cuisine": ""
    },
    {
      "osm_id": 7362789427,
      "osm_type": "node",
      "name": "CAVA",
      "brand": "CAVA",
      "latitude": 40.7408801,
      "longitude": -73.9855827,
      "address": "Park Avenue South",
      "city": "New York",
      "state": "NY",
      "postcode": "10010",
      "phone": "+1-718-360-1815",
      "website": "https://cava.com/locations/filter/tag/ny",
      "opening_hours": "",
      "amenity_type": "restaurant",
      "cuisine": "mediterranean"
    },
    {
      "osm_id": 7386436588,
      "osm_type": "node",
      "name": "CAVA",
      "brand": "CAVA",
      "latitude": 34.1400695,
      "longitude": -118.132522,
      "address": "South Lake Avenue",
      "city": "Pasadena",
      "state": "CA",
      "postcode": "91101-5030",
      "phone": "+1 626-389-8775",
      "website": "https://cava.com/locations/pasadena-ca",
      "opening_hours": "",
      "amenity_type": "restaurant",
      "cuisine": "mediterranean"
    },
    {
      "osm_id": 7495622288,
      "osm_type": "node",
      "name": "CAVA",
      "brand": "CAVA",
      "latitude": 42.3499229,
      "longitude": -71.0788193,
      "address": "Boylston Street",
      "city": "Boston",
      "state": "MA",
      "postcode": "02116",
      "phone": "+16172868927",
      "website": "https://order.cava.com/stores/89/menu",
      "opening_hours": "Mo-Su 10:45-20:00",
      "amenity_type": "restaurant",
      "cuisine": "mediterranean"
    },
    {
      "osm_id": 7702671401,
      "osm_type": "node",
      "name": "Cava",
      "brand": "",
      "latitude": 35.9033847,
      "longitude": -78.9530797,
      "address": "Renaissance Parkway",
      "city": "",
      "state": "",
      "postcode": "27713",
      "phone": "+1 984-367-4715",
      "website": "https://cava.com/locations/Southpoint-NC",
      "opening_hours": "Mo-Su 10:30-22:30",
      "amenity_type": "restaurant",
      "cuisine": "mediterranean"
    },
    {
      "osm_id": 7703211963,
      "osm_type": "node",
      "name": "CAVA",
      "brand": "CAVA",
      "latitude": 38.8537324,
      "longitude": -77.3273493,
      "address": "Lee Highway",
      "city": "Fairfax",
      "state": "VA",
      "postcode": "22030",
      "phone": "",
      "website": "",
      "opening_hours": "",
      "amenity_type": "restaurant",
      "cuisine": "mediterranean"
    },
    {
      "osm_id": 7711828640,
      "osm_type": "node",
      "name": "CAVA",
      "brand": "CAVA",
      "latitude": 42.3439858,
      "longitude": -71.0992161,
      "address": "Boylston Street",
      "city": "Boston",
      "state": "MA",
      "postcode": "02215",
      "phone": "+1-617-286-8872",
      "website": "https://cava.com/locations/filter/tag/ma",
      "opening_hours": "Mo-Su 10:45-22:00",
      "amenity_type": "restaurant",
      "cuisine": "mediterranean"
    },
    {
      "osm_id": 7734401997,
      "osm_type": "node",
      "name": "CAVA",
      "brand": "CAVA",
      "latitude": 38.7694521,
      "longitude": -77.1399235,
      "address": "Kingstowne Towne Center",
      "city": "Alexandria",
      "state": "VA",
      "postcode": "22315",
      "phone": "+1 703-972-6191",
      "website": "https://cava.com/locations/kingstowne-va",
      "opening_hours": "",
      "amenity_type": "restaurant",
      "cuisine": "mediterranean"
    },
    {
      "osm_id": 7923866923,
      "osm_type": "node",
      "name": "Cava",
      "brand": "",
      "latitude": 34.0630011,
      "longitude": -84.3961846,
      "address": "Woodstock Road",
      "city": "",
      "state": "",
      "postcode": "",
      "phone": "+1-470-740-5301",
      "website": "https://cava.com/locations/roswell-corners-ga",
      "opening_hours": "10:30-22:30",
      "amenity_type": "restaurant",
      "cuisine": "salad"
    },
    {
      "osm_id": 7937971900,
      "osm_type": "node",
      "name": "Cavaluzzo's",
      "brand": "",
      "latitude": 40.5266147,
      "longitude": -75.5095673,
      "address": "",
      "city": "",
      "state": "",
      "postcode": "",
      "phone": "",
      "website": "",
      "opening_hours": "",
      "amenity_type": "restaurant",
      "cuisine": "pizza"
    },
    {
      "osm_id": 7946400018,
      "osm_type": "node",
      "name": "CAVA",
      "brand": "CAVA",
      "latitude": 36.8429343,
      "longitude": -76.1299628,
      "address": "Virginia Beach Boulevard",
      "city": "Virginia Beach",
      "state": "VA",
      "postcode": "23462",
      "phone": "+1-757-276-5024",
      "website": "https://cava.com/",
      "opening_hours": "Mo-Su 10:45-22:00",
      "amenity_type": "restaurant",
      "cuisine": "mediterranean"
    },
    {
      "osm_id": 8169270197,
      "osm_type": "node",
      "name": "CAVA",
      "brand": "CAVA",
      "latitude": 33.0118255,
      "longitude": -96.603714,
      "address": "",
      "city": "",
      "state": "",
      "postcode": "",
      "phone": "",
      "website": "",
      "opening_hours": "",
      "amenity_type": "restaurant",
      "cuisine": "mediterranean"
    },
    {
      "osm_id": 8185618720,
      "osm_type": "node",
      "name": "CAVA",
      "brand": "CAVA",
      "latitude": 40.1657498,
      "longitude": -75.4798307,
      "address": "Market Street",
      "city": "Collegeville",
      "state": "",
      "postcode": "19426",
      "phone": "+1 484-854-2747",
      "website": "https://cava.com/locations/collegeville-pa",
      "opening_hours": "10:30-22:30",
      "amenity_type": "restaurant",
      "cuisine": "mediterranean"
    },
    {
      "osm_id": 8375592560,
      "osm_type": "node",
      "name": "CAVA",
      "brand": "CAVA",
      "latitude": 32.9676678,
      "longitude": -96.9930429,
      "address": "South Denton Tap Road",
      "city": "Coppell",
      "state": "TX",
      "postcode": "",
      "phone": "",
      "website": "",
      "opening_hours": "Mo-Su 10:45-22:00; PH closed",
      "amenity_type": "restaurant",
      "cuisine": "mediterranean"
    },
    {
      "osm_id": 8401886232,
      "osm_type": "node",
      "name": "Cava",
      "brand": "",
      "latitude": 33.3974985,
      "longitude": -84.6026853,
      "address": "",
      "city": "",
      "state": "",
      "postcode": "",
      "phone": "",
      "website": "https://cava.com",
      "opening_hours": "",
      "amenity_type": "restaurant",
      "cuisine": "mediterranean"
    },
    {
      "osm_id": 8418834099,
      "osm_type": "node",
      "name": "CAVA",
      "brand": "CAVA",
      "latitude": 40.7528591,
      "longitude": -73.9875245,
      "address": "Broadway",
      "city": "",
      "state": "",
      "postcode": "10018",
      "phone": "",
      "website": "",
      "opening_hours": "",
      "amenity_type": "restaurant",
      "cuisine": "mediterranean"
    },
    {
      "osm_id": 8476087845,
      "osm_type": "node",
      "name": "CAVA",
      "brand": "CAVA",
      "latitude": 39.6717519,
      "longitude": -75.6481948,
      "address": "Fashion Center Boulevard",
      "city": "Newark",
      "state": "DE",
      "postcode": "19702",
      "phone": "+1 862-339-7686",
      "website": "https://cava.com/locations/christiana-de",
      "opening_hours": "10:45-22:00",
      "amenity_type": "restaurant",
      "cuisine": "mediterranean"
    },
    {
      "osm_id": 8699215392,
      "osm_type": "node",
      "name": "CAVA",
      "brand": "CAVA",
      "latitude": 34.0250457,
      "longitude": -118.393909,
      "address": "",
      "city": "",
      "state": "",
      "postcode": "",
      "phone": "",
      "website": "",
      "opening_hours": "Mo-Su 10:45-22:00",
      "amenity_type": "restaurant",
      "cuisine": "mediterranean"
    },
    {
      "osm_id": 9242904966,
      "osm_type": "node",
      "name": "CAVA",
      "brand": "CAVA",
      "latitude": 33.0804795,
      "longitude": -96.8264133,
      "address": "",
      "city": "",
      "state": "",
      "postcode": "",
      "phone": "",
      "website": "",
      "opening_hours": "",
      "amenity_type": "restaurant",
      "cuisine": "mediterranean"
    },
    {
      "osm_id": 9253740725,
      "osm_type": "node",
      "name": "CAVA",
      "brand": "CAVA",
      "latitude": 39.1133778,
      "longitude": -77.1858291,
      "address": "Upper Rock Circle",
      "city": "Rockville",
      "state": "MD",
      "postcode": "20850",
      "phone": "+13012005530",
      "website": "https://cava.com/locations/shady-grove-md",
      "opening_hours": "",
      "amenity_type": "restaurant",
      "cuisine": "mediterranean"
    },
    {
      "osm_id": 9280888342,
      "osm_type": "node",
      "name": "CAVA",
      "brand": "CAVA",
      "latitude": 34.0155988,
      "longitude": -118.498151,
      "address": "2nd Street",
      "city": "",
      "state": "",
      "postcode": "90401",
      "phone": "+1-310-237-5591",
      "website": "https://cava.com",
      "opening_hours": "Mo-Su 10:45-22:00",
      "amenity_type": "restaurant",
      "cuisine": "mediterranean"
    },
    {
      "osm_id": 9411824791,
      "osm_type": "node",
      "name": "Cava",
      "brand": "ZoÃ«s Kitchen",
      "latitude": 33.2292606,
      "longitude": -97.1658802,
      "address": "West University Drive",
      "city": "Denton",
      "state": "TX",
      "postcode": "76201",
      "phone": "",
      "website": "https://cava.com/locations/rayzor-ranch-tx",
      "opening_hours": "",
      "amenity_type": "fast_food",
      "cuisine": "mediterranean"
    },
    {
      "osm_id": 9421357601,
      "osm_type": "node",
      "name": "CAVA",
      "brand": "CAVA",
      "latitude": 38.8766724,
      "longitude": -77.0072159,
      "address": "M Street Southeast",
      "city": "Washington",
      "state": "DC",
      "postcode": "20003",
      "phone": "+1 202-536-2522",
      "website": "https://cava.com/locations/navy-yard-dc",
      "opening_hours": "",
      "amenity_type": "restaurant",
      "cuisine": "mediterranean"
    },
    {
      "osm_id": 9434301173,
      "osm_type": "node",
      "name": "CAVA",
      "brand": "CAVA",
      "latitude": 32.9809603,
      "longitude": -117.081638,
      "address": "Carmel Mountain Road",
      "city": "San Diego",
      "state": "CA",
      "postcode": "92128",
      "phone": "+1 858-683-1901",
      "website": "https://cava.com/locations/carmel-mountain-ranch-ca",
      "opening_hours": "Mo-Su 10:45-22:00",
      "amenity_type": "restaurant",
      "cuisine": "mediterranean"
    },
    {
      "osm_id": 9494220471,
      "osm_type": "node",
      "name": "CAVA",
      "brand": "CAVA",
      "latitude": 32.9537241,
      "longitude": -96.8208222,
      "address": "Belt Line Road",
      "city": "Addison",
      "state": "TX",
      "postcode": "75254",
      "phone": "+1-469-250-8010",
      "website": "https://cava.com/locations/addison-tx",
      "opening_hours": "Mo-Su 10:30-22:30",
      "amenity_type": "restaurant",
      "cuisine": "mediterranean"
    },
    {
      "osm_id": 9630405112,
      "osm_type": "node",
      "name": "CAVA",
      "brand": "CAVA",
      "latitude": 33.8848675,
      "longitude": -84.0096034,
      "address": "",
      "city": "",
      "state": "",
      "postcode": "",
      "phone": "",
      "website": "",
      "opening_hours": "",
      "amenity_type": "restaurant",
      "cuisine": "mediterranean"
    },
    {
      "osm_id": 9652028103,
      "osm_type": "node",
      "name": "CAVA",
      "brand": "CAVA",
      "latitude": 33.9024415,
      "longitude": -118.394362,
      "address": "",
      "city": "",
      "state": "",
      "postcode": "",
      "phone": "",
      "website": "",
      "opening_hours": "",
      "amenity_type": "restaurant",
      "cuisine": "mediterranean"
    },
    {
      "osm_id": 9661654064,
      "osm_type": "node",
      "name": "CAVA",
      "brand": "CAVA",
      "latitude": 40.716734,
      "longitude": -74.0354382,
      "address": "",
      "city": "",
      "state": "",
      "postcode": "",
      "phone": "",
      "website": "",
      "opening_hours": "",
      "amenity_type": "restaurant",
      "cuisine": "mediterranean"
    },
    {
      "osm_id": 9690923967,
      "osm_type": "node",
      "name": "CAVA",
      "brand": "CAVA",
      "latitude": 35.3099275,
      "longitude": -80.7478454,
      "address": "",
      "city": "",
      "state": "",
      "postcode": "",
      "phone": "",
      "website": "",
      "opening_hours": "",
      "amenity_type": "restaurant",
      "cuisine": "mediterranean"
    },
    {
      "osm_id": 9704163948,
      "osm_type": "node",
      "name": "CAVA",
      "brand": "CAVA",
      "latitude": 29.7374379,
      "longitude": -95.5612319,
      "address": "",
      "city": "",
      "state": "",
      "postcode": "",
      "phone": "",
      "website": "",
      "opening_hours": "Mo-Su 10:45-22:00",
      "amenity_type": "restaurant",
      "cuisine": "mediterranean"
    },
    {
      "osm_id": 9708294076,
      "osm_type": "node",
      "name": "CAVA",
      "brand": "CAVA",
      "latitude": 39.9124151,
      "longitude": -105.0460465,
      "address": "Main Street",
      "city": "Westminster",
      "state": "CO",
      "postcode": "80031",
      "phone": "+1-303-495-5750",
      "website": "https://cava.com/locations/filter/tag/co",
      "opening_hours": "",
      "amenity_type": "restaurant",
      "cuisine": "mediterranean"
    },
    {
      "osm_id": 9724729259,
      "osm_type": "node",
      "name": "CAVA",
      "brand": "CAVA",
      "latitude": 27.9339075,
      "longitude": -82.4829046,
      "address": "South Howard Avenue",
      "city": "Tampa",
      "state": "FL",
      "postcode": "33606",
      "phone": "",
      "website": "",
      "opening_hours": "Mo-Su 10:45-22:00",
      "amenity_type": "restaurant",
      "cuisine": "mediterranean"
    },
    {
      "osm_id": 9728492788,
      "osm_type": "node",
      "name": "CAVA",
      "brand": "CAVA",
      "latitude": 30.5253352,
      "longitude": -97.8199811,
      "address": "",
      "city": "",
      "state": "",
      "postcode": "",
      "phone": "",
      "website": "https://cava.com/",
      "opening_hours": "",
      "amenity_type": "restaurant",
      "cuisine": "mediterranean"
    },
    {
      "osm_id": 9807472495,
      "osm_type": "node",
      "name": "CAVA",
      "brand": "CAVA",
      "latitude": 38.052682,
      "longitude": -78.498603,
      "address": "Emmet Street North",
      "city": "Charlottesville",
      "state": "VA",
      "postcode": "22903-5090",
      "phone": "+1-434-227-4800",
      "website": "https://cava.com",
      "opening_hours": "Mo-Su 10:45-22:00",
      "amenity_type": "restaurant",
      "cuisine": "mediterranean"
    },
    {
      "osm_id": 9857025358,
      "osm_type": "node",
      "name": "CAVA",
      "brand": "",
      "latitude": 35.821705,
      "longitude": -78.6222606,
      "address": "Mercantile Drive",
      "city": "Raleigh",
      "state": "NC",
      "postcode": "27609",
      "phone": "+1-919-276-4591",
      "website": "",
      "opening_hours": "",
      "amenity_type": "restaurant",
      "cuisine": ""
    },
    {
      "osm_id": 9895928881,
      "osm_type": "node",
      "name": "Cavany Foods",
      "brand": "",
      "latitude": 40.7154488,
      "longitude": -74.0448063,
      "address": "",
      "city": "",
      "state": "",
      "postcode": "",
      "phone": "",
      "website": "",
      "opening_hours": "",
      "amenity_type": "restaurant",
      "cuisine": "italian"
    },
    {
      "osm_id": 9978733655,
      "osm_type": "node",
      "name": "CAVA",
      "brand": "CAVA",
      "latitude": 30.0843504,
      "longitude": -95.4498539,
      "address": "Spring Stuebner Road",
      "city": "Spring",
      "state": "TX",
      "postcode": "77389",
      "phone": "+1-346-478-5109",
      "website": "https://cava.com",
      "opening_hours": "",
      "amenity_type": "restaurant",
      "cuisine": "mediterranean"
    },
    {
      "osm_id": 10064648725,
      "osm_type": "node",
      "name": "CAVA",
      "brand": "CAVA",
      "latitude": 29.7703263,
      "longitude": -95.4012809,
      "address": "Washington Avenue",
      "city": "Houston",
      "state": "TX",
      "postcode": "77007",
      "phone": "+1-346-971-5833",
      "website": "https://cava.com",
      "opening_hours": "Mo-Su 11:45-22:00",
      "amenity_type": "restaurant",
      "cuisine": "mediterranean"
    },
    {
      "osm_id": 10155015144,
      "osm_type": "node",
      "name": "CAVA",
      "brand": "CAVA",
      "latitude": 35.2133671,
      "longitude": -80.8350803,
      "address": "Metropolitan Avenue",
      "city": "Charlotte",
      "state": "NC",
      "postcode": "28204",
      "phone": "",
      "website": "",
      "opening_hours": "",
      "amenity_type": "restaurant",
      "cuisine": "mediterranean"
    },
    {
      "osm_id": 10245969545,
      "osm_type": "node",
      "name": "Cavalino's",
      "brand": "",
      "latitude": 40.7912959,
      "longitude": -74.0041164,
      "address": "Park Avenue",
      "city": "Guttenberg",
      "state": "NJ",
      "postcode": "07093",
      "phone": "+1 201 662 7118;+1 201 662 7119",
      "website": "",
      "opening_hours": "",
      "amenity_type": "restaurant",
      "cuisine": "italian"
    },
    {
      "osm_id": 10270118602,
      "osm_type": "node",
      "name": "CAVA",
      "brand": "CAVA",
      "latitude": 29.6216768,
      "longitude": -82.3791099,
      "address": "Archer Road",
      "city": "Gainesville",
      "state": "FL",
      "postcode": "32608",
      "phone": "",
      "website": "https://cava.com/",
      "opening_hours": "",
      "amenity_type": "restaurant",
      "cuisine": "mediterranean"
    },
    {
      "osm_id": 10554725232,
      "osm_type": "node",
      "name": "CAVA",
      "brand": "CAVA",
      "latitude": 38.836836,
      "longitude": -77.051152,
      "address": "Richmond Highway",
      "city": "Alexandria",
      "state": "VA",
      "postcode": "22305-3175",
      "phone": "+1-703-278-2193",
      "website": "https://cava.com/locations/potomac-yard-va",
      "opening_hours": "",
      "amenity_type": "restaurant",
      "cuisine": "mediterranean"
    },
    {
      "osm_id": 10563322980,
      "osm_type": "node",
      "name": "CAVA",
      "brand": "CAVA",
      "latitude": 29.5943759,
      "longitude": -95.6230413,
      "address": "",
      "city": "",
      "state": "",
      "postcode": "",
      "phone": "",
      "website": "",
      "opening_hours": "Mo-Su 10:45-22:00",
      "amenity_type": "restaurant",
      "cuisine": "mediterranean"
    },
    {
      "osm_id": 10570575780,
      "osm_type": "node",
      "name": "CAVA",
      "brand": "CAVA",
      "latitude": 32.2472281,
      "longitude": -80.8326073,
      "address": "",
      "city": "",
      "state": "",
      "postcode": "",
      "phone": "",
      "website": "",
      "opening_hours": "",
      "amenity_type": "restaurant",
      "cuisine": "mediterranean"
    },
    {
      "osm_id": 10570749017,
      "osm_type": "node",
      "name": "CAVA",
      "brand": "CAVA",
      "latitude": 39.0409664,
      "longitude": -77.158552,
      "address": "Tuckerman Lane",
      "city": "Potomac",
      "state": "",
      "postcode": "20854",
      "phone": "",
      "website": "",
      "opening_hours": "",
      "amenity_type": "restaurant",
      "cuisine": "mediterranean"
    },
    {
      "osm_id": 10728675748,
      "osm_type": "node",
      "name": "CAVA",
      "brand": "CAVA",
      "latitude": 38.6305299,
      "longitude": -77.2881181,
      "address": "",
      "city": "",
      "state": "",
      "postcode": "",
      "phone": "",
      "website": "",
      "opening_hours": "Mo-Su 10:45-22:00",
      "amenity_type": "restaurant",
      "cuisine": "mediterranean"
    },
    {
      "osm_id": 10779945732,
      "osm_type": "node",
      "name": "CAVA",
      "brand": "CAVA",
      "latitude": 30.6324541,
      "longitude": -97.6991463,
      "address": "West University Avenue",
      "city": "Georgetown",
      "state": "TX",
      "postcode": "78628",
      "phone": "+1-737-738-5658",
      "website": "https://cava.com",
      "opening_hours": "Mo-Su 10:45-22:00",
      "amenity_type": "restaurant",
      "cuisine": "mediterranean"
    },
    {
      "osm_id": 10780523063,
      "osm_type": "node",
      "name": "CAVA",
      "brand": "CAVA",
      "latitude": 33.8676287,
      "longitude": -117.7493368,
      "address": "Santa Ana Canyon Road",
      "city": "Anaheim",
      "state": "CA",
      "postcode": "92808",
      "phone": "",
      "website": "https://cava.com/",
      "opening_hours": "Mo-Su 10:45-22:00",
      "amenity_type": "restaurant",
      "cuisine": "mediterranean"
    },
    {
      "osm_id": 10815610936,
      "osm_type": "node",
      "name": "CAVA",
      "brand": "CAVA",
      "latitude": 32.9012008,
      "longitude": -96.9594455,
      "address": "",
      "city": "",
      "state": "",
      "postcode": "",
      "phone": "",
      "website": "",
      "opening_hours": "",
      "amenity_type": "restaurant",
      "cuisine": "mediterranean"
    },
    {
      "osm_id": 10856035670,
      "osm_type": "node",
      "name": "CAVA",
      "brand": "CAVA",
      "latitude": 36.1611419,
      "longitude": -86.7793077,
      "address": "",
      "city": "",
      "state": "",
      "postcode": "",
      "phone": "",
      "website": "",
      "opening_hours": "",
      "amenity_type": "restaurant",
      "cuisine": "mediterranean"
    },
    {
      "osm_id": 10899712881,
      "osm_type": "node",
      "name": "CAVA",
      "brand": "CAVA",
      "latitude": 39.2776899,
      "longitude": -76.5624151,
      "address": "Boston Street",
      "city": "",
      "state": "",
      "postcode": "",
      "phone": "+1 667-677-8910",
      "website": "",
      "opening_hours": "10:45-22:00",
      "amenity_type": "restaurant",
      "cuisine": "mediterranean"
    },
    {
      "osm_id": 10904490459,
      "osm_type": "node",
      "name": "CAVA",
      "brand": "CAVA",
      "latitude": 27.3870218,
      "longitude": -82.4651039,
      "address": "",
      "city": "",
      "state": "",
      "postcode": "",
      "phone": "",
      "website": "",
      "opening_hours": "",
      "amenity_type": "restaurant",
      "cuisine": "mediterranean"
    },
    {
      "osm_id": 10905120018,
      "osm_type": "node",
      "name": "CAVA",
      "brand": "CAVA",
      "latitude": 41.0665057,
      "longitude": -74.1313926,
      "address": "",
      "city": "",
      "state": "",
      "postcode": "",
      "phone": "",
      "website": "",
      "opening_hours": "",
      "amenity_type": "restaurant",
      "cuisine": "mediterranean"
    },
    {
      "osm_id": 10923081782,
      "osm_type": "node",
      "name": "CAVA",
      "brand": "CAVA",
      "latitude": 40.7337972,
      "longitude": -73.989668,
      "address": "4th Avenue",
      "city": "",
      "state": "",
      "postcode": "10003",
      "phone": "+1-646-688-5067",
      "website": "https://cava.com/locations/union-square-ny",
      "opening_hours": "Mo-Su 10:45-22:00",
      "amenity_type": "restaurant",
      "cuisine": "mediterranean"
    },
    {
      "osm_id": 10968432177,
      "osm_type": "node",
      "name": "CAVA",
      "brand": "",
      "latitude": 30.2899927,
      "longitude": -97.8269915,
      "address": "",
      "city": "",
      "state": "",
      "postcode": "",
      "phone": "",
      "website": "",
      "opening_hours": "",
      "amenity_type": "fast_food",
      "cuisine": ""
    },
    {
      "osm_id": 10983411754,
      "osm_type": "node",
      "name": "Cavalli Pizza",
      "brand": "",
      "latitude": 32.921096,
      "longitude": -96.9963409,
      "address": "",
      "city": "",
      "state": "",
      "postcode": "",
      "phone": "",
      "website": "https://www.cavallipizza.com",
      "opening_hours": "",
      "amenity_type": "restaurant",
      "cuisine": "pizza"
    },
    {
      "osm_id": 11063280362,
      "osm_type": "node",
      "name": "Cava",
      "brand": "CAVA",
      "latitude": 33.9293787,
      "longitude": -84.3478451,
      "address": "Perimeter Center West",
      "city": "",
      "state": "",
      "postcode": "",
      "phone": "",
      "website": "",
      "opening_hours": "",
      "amenity_type": "restaurant",
      "cuisine": "mediterranean"
    },
    {
      "osm_id": 11161588050,
      "osm_type": "node",
      "name": "CAVA",
      "brand": "CAVA",
      "latitude": 34.7509071,
      "longitude": -86.7598711,
      "address": "US Highway 72 West",
      "city": "Madison",
      "state": "AL",
      "postcode": "35758",
      "phone": "",
      "website": "https://cava.com/",
      "opening_hours": "",
      "amenity_type": "restaurant",
      "cuisine": "mediterranean"
    },
    {
      "osm_id": 11242814774,
      "osm_type": "node",
      "name": "CAVA",
      "brand": "CAVA",
      "latitude": 30.267824,
      "longitude": -97.742615,
      "address": "Congress Avenue",
      "city": "Austin",
      "state": "TX",
      "postcode": "78701",
      "phone": "",
      "website": "",
      "opening_hours": "Mo-Su 10:45-22:00",
      "amenity_type": "restaurant",
      "cuisine": "mediterranean"
    },
    {
      "osm_id": 11265574618,
      "osm_type": "node",
      "name": "CAVA",
      "brand": "CAVA",
      "latitude": 34.152922,
      "longitude": -84.1761334,
      "address": "Peachtree Parkway",
      "city": "Cumming",
      "state": "GA",
      "postcode": "30041",
      "phone": "+1-470-239-0797",
      "website": "https://cava.com/",
      "opening_hours": "Mo-Su 10:45-22:00",
      "amenity_type": "restaurant",
      "cuisine": "mediterranean"
    },
    {
      "osm_id": 11291347523,
      "osm_type": "node",
      "name": "CAVA",
      "brand": "CAVA",
      "latitude": 30.2730999,
      "longitude": -97.7992479,
      "address": "Bee Caves Road",
      "city": "Austin",
      "state": "TX",
      "postcode": "78746",
      "phone": "+1-512-792-4957",
      "website": "https://cava.com",
      "opening_hours": "Tu-Sa 10:45-22:00",
      "amenity_type": "restaurant",
      "cuisine": "mediterranean"
    },
    {
      "osm_id": 11296574459,
      "osm_type": "node",
      "name": "CAVA",
      "brand": "CAVA",
      "latitude": 33.1060437,
      "longitude": -96.8050769,
      "address": "",
      "city": "",
      "state": "",
      "postcode": "",
      "phone": "",
      "website": "",
      "opening_hours": "",
      "amenity_type": "restaurant",
      "cuisine": "mediterranean"
    },
    {
      "osm_id": 11390121669,
      "osm_type": "node",
      "name": "CAVA",
      "brand": "CAVA",
      "latitude": 28.5125224,
      "longitude": -81.3751304,
      "address": "236 E Michigan Street",
      "city": "Orlando",
      "state": "",
      "postcode": "32806",
      "phone": "+1-689-698-4113",
      "website": "https://cava.com/locations/sodo-fl",
      "opening_hours": "Mo-Su 10:45-13:00",
      "amenity_type": "restaurant",
      "cuisine": "mediterranean"
    },
    {
      "osm_id": 11406745400,
      "osm_type": "node",
      "name": "CAVA",
      "brand": "CAVA",
      "latitude": 42.3532355,
      "longitude": -71.0575185,
      "address": "",
      "city": "",
      "state": "",
      "postcode": "",
      "phone": "",
      "website": "",
      "opening_hours": "",
      "amenity_type": "restaurant",
      "cuisine": "mediterranean"
    },
    {
      "osm_id": 11440010594,
      "osm_type": "node",
      "name": "CAVA",
      "brand": "CAVA",
      "latitude": 33.8848131,
      "longitude": -84.3156442,
      "address": "",
      "city": "",
      "state": "",
      "postcode": "",
      "phone": "",
      "website": "",
      "opening_hours": "",
      "amenity_type": "restaurant",
      "cuisine": "mediterranean"
    },
    {
      "osm_id": 11445490051,
      "osm_type": "node",
      "name": "CAVA",
      "brand": "CAVA",
      "latitude": 42.299392,
      "longitude": -71.3950653,
      "address": "",
      "city": "",
      "state": "",
      "postcode": "",
      "phone": "",
      "website": "",
      "opening_hours": "",
      "amenity_type": "restaurant",
      "cuisine": "mediterranean"
    },
    {
      "osm_id": 11458646174,
      "osm_type": "node",
      "name": "CAVA",
      "brand": "CAVA",
      "latitude": 38.883274,
      "longitude": -94.6601976,
      "address": "",
      "city": "",
      "state": "",
      "postcode": "",
      "phone": "",
      "website": "",
      "opening_hours": "",
      "amenity_type": "restaurant",
      "cuisine": "mediterranean"
    },
    {
      "osm_id": 11463644196,
      "osm_type": "node",
      "name": "Cava Restaurant",
      "brand": "",
      "latitude": 34.1053138,
      "longitude": -84.5389788,
      "address": "Towne Lake Parkway",
      "city": "",
      "state": "",
      "postcode": "",
      "phone": "+1 470-374-5089",
      "website": "https://cava.com/locations/woodstock-ga",
      "opening_hours": "10:45-22:00; Tu off; We off",
      "amenity_type": "restaurant",
      "cuisine": "american;salad"
    },
    {
      "osm_id": 11582726158,
      "osm_type": "node",
      "name": "CAVA",
      "brand": "CAVA",
      "latitude": 40.0078344,
      "longitude": -75.2885306,
      "address": "Coulter Avenue",
      "city": "Ardmore",
      "state": "PA",
      "postcode": "19003",
      "phone": "+1 484-282-3242",
      "website": "https://cava.com/locations/suburban-square-pa",
      "opening_hours": "10:45-22:00",
      "amenity_type": "restaurant",
      "cuisine": "mediterranean"
    },
    {
      "osm_id": 11608612601,
      "osm_type": "node",
      "name": "CAVA",
      "brand": "CAVA",
      "latitude": 39.4974154,
      "longitude": -76.6583355,
      "address": "",
      "city": "",
      "state": "",
      "postcode": "",
      "phone": "",
      "website": "",
      "opening_hours": "",
      "amenity_type": "restaurant",
      "cuisine": "mediterranean"
    },
    {
      "osm_id": 11658306668,
      "osm_type": "node",
      "name": "CAVA",
      "brand": "CAVA",
      "latitude": 33.8418385,
      "longitude": -78.6618331,
      "address": "US Highway 17 North",
      "city": "North Myrtle Beach",
      "state": "SC",
      "postcode": "29582",
      "phone": "+1-854-504-3694",
      "website": "",
      "opening_hours": "Mo-Su 10:45-22:00",
      "amenity_type": "restaurant",
      "cuisine": "mediterranean"
    },
    {
      "osm_id": 11783619200,
      "osm_type": "node",
      "name": "CAVA",
      "brand": "CAVA",
      "latitude": 33.8812722,
      "longitude": -84.4631796,
      "address": "",
      "city": "",
      "state": "",
      "postcode": "",
      "phone": "",
      "website": "",
      "opening_hours": "",
      "amenity_type": "restaurant",
      "cuisine": "mediterranean"
    },
    {
      "osm_id": 11866558940,
      "osm_type": "node",
      "name": "CAVA",
      "brand": "CAVA",
      "latitude": 42.2421667,
      "longitude": -87.9454969,
      "address": "North Milwaukee Avenue",
      "city": "Vernon Hills",
      "state": "IL",
      "postcode": "60061",
      "phone": "",
      "website": "",
      "opening_hours": "",
      "amenity_type": "restaurant",
      "cuisine": "mediterranean"
    },
    {
      "osm_id": 11907649068,
      "osm_type": "node",
      "name": "CAVA",
      "brand": "CAVA",
      "latitude": 29.6423893,
      "longitude": -98.4548875,
      "address": "",
      "city": "",
      "state": "",
      "postcode": "",
      "phone": "",
      "website": "",
      "opening_hours": "",
      "amenity_type": "restaurant",
      "cuisine": "mediterranean"
    },
    {
      "osm_id": 11966465866,
      "osm_type": "node",
      "name": "CAVA",
      "brand": "CAVA",
      "latitude": 37.2767844,
      "longitude": -76.7482533,
      "address": "Settlers Market Boulevard",
      "city": "Williamsburg",
      "state": "VA",
      "postcode": "23188",
      "phone": "+1-757-372-4209",
      "website": "https://cava.com/",
      "opening_hours": "Mo-Su 10:45-22:00",
      "amenity_type": "restaurant",
      "cuisine": "mediterranean"
    },
    {
      "osm_id": 11975781072,
      "osm_type": "node",
      "name": "CAVA",
      "brand": "CAVA",
      "latitude": 36.0759375,
      "longitude": -95.9232124,
      "address": "South Yale Avenue East",
      "city": "Tulsa",
      "state": "",
      "postcode": "74135",
      "phone": "+1 539 242 6424",
      "website": "https://cava.com/locations/kingspointe-ok",
      "opening_hours": "",
      "amenity_type": "restaurant",
      "cuisine": "mediterranean"
    },
    {
      "osm_id": 12050129169,
      "osm_type": "node",
      "name": "CAVA",
      "brand": "",
      "latitude": 35.8991567,
      "longitude": -84.1606289,
      "address": "Parkside Drive",
      "city": "",
      "state": "",
      "postcode": "37934",
      "phone": "+18652889905",
      "website": "https://cava.com/",
      "opening_hours": "Mo-Su 10:45-22:00",
      "amenity_type": "restaurant",
      "cuisine": ""
    },
    {
      "osm_id": 12066835882,
      "osm_type": "node",
      "name": "CAVA",
      "brand": "CAVA",
      "latitude": 41.9088159,
      "longitude": -87.6752498,
      "address": "North Milwaukee Avenue",
      "city": "Chicago",
      "state": "IL",
      "postcode": "60622",
      "phone": "",
      "website": "",
      "opening_hours": "",
      "amenity_type": "restaurant",
      "cuisine": "mediterranean"
    },
    {
      "osm_id": 12085305773,
      "osm_type": "node",
      "name": "CAVA",
      "brand": "CAVA",
      "latitude": 42.2311102,
      "longitude": -71.1775889,
      "address": "",
      "city": "",
      "state": "",
      "postcode": "",
      "phone": "",
      "website": "",
      "opening_hours": "",
      "amenity_type": "restaurant",
      "cuisine": "mediterranean"
    },
    {
      "osm_id": 12099811681,
      "osm_type": "node",
      "name": "CAVA",
      "brand": "CAVA",
      "latitude": 32.9512468,
      "longitude": -117.2358605,
      "address": "Paseo Place",
      "city": "San Diego",
      "state": "CA",
      "postcode": "92130",
      "phone": "+1 619-407-7100",
      "website": "https://cava.com/locations/one-paseo-ca",
      "opening_hours": "Mo-Su 10:45-22:00",
      "amenity_type": "restaurant",
      "cuisine": "mediterranean"
    },
    {
      "osm_id": 12143282328,
      "osm_type": "node",
      "name": "Cava",
      "brand": "",
      "latitude": 34.1911934,
      "longitude": -118.32936,
      "address": "North Victory Place",
      "city": "",
      "state": "",
      "postcode": "",
      "phone": "+1 747-308-2984",
      "website": "https://cava.com/locations/empire-center-ca",
      "opening_hours": "10:45-22:00",
      "amenity_type": "restaurant",
      "cuisine": "salad;mediterranean"
    },
    {
      "osm_id": 12157305292,
      "osm_type": "node",
      "name": "CAVA",
      "brand": "CAVA",
      "latitude": 39.4104568,
      "longitude": -104.8735233,
      "address": "Factory Shops Boulevard",
      "city": "Castle Rock",
      "state": "CO",
      "postcode": "80108",
      "phone": "+1-720-418-7218",
      "website": "https://cava.com/",
      "opening_hours": "",
      "amenity_type": "restaurant",
      "cuisine": "mediterranean"
    },
    {
      "osm_id": 12177166786,
      "osm_type": "node",
      "name": "CAVA",
      "brand": "CAVA",
      "latitude": 36.0671188,
      "longitude": -95.7802486,
      "address": "North 9th Street",
      "city": "Broken Arrow",
      "state": "",
      "postcode": "74012",
      "phone": "+1 539 250 4017",
      "website": "",
      "opening_hours": "",
      "amenity_type": "restaurant",
      "cuisine": "mediterranean"
    },
    {
      "osm_id": 12183112558,
      "osm_type": "node",
      "name": "CAVA",
      "brand": "CAVA",
      "latitude": 33.4223457,
      "longitude": -111.9257739,
      "address": "",
      "city": "",
      "state": "",
      "postcode": "",
      "phone": "",
      "website": "",
      "opening_hours": "",
      "amenity_type": "restaurant",
      "cuisine": "mediterranean"
    },
    {
      "osm_id": 12189117716,
      "osm_type": "node",
      "name": "CAVA",
      "brand": "CAVA",
      "latitude": 37.5120323,
      "longitude": -77.6136468,
      "address": "",
      "city": "",
      "state": "",
      "postcode": "",
      "phone": "",
      "website": "",
      "opening_hours": "",
      "amenity_type": "restaurant",
      "cuisine": "mediterranean"
    },
    {
      "osm_id": 12193448297,
      "osm_type": "node",
      "name": "CAVA",
      "brand": "CAVA",
      "latitude": 33.6851815,
      "longitude": -117.8106526,
      "address": "",
      "city": "",
      "state": "",
      "postcode": "",
      "phone": "",
      "website": "",
      "opening_hours": "",
      "amenity_type": "restaurant",
      "cuisine": "mediterranean"
    },
    {
      "osm_id": 12193747868,
      "osm_type": "node",
      "name": "CAVA",
      "brand": "CAVA",
      "latitude": 32.7698436,
      "longitude": -117.1471039,
      "address": "",
      "city": "",
      "state": "",
      "postcode": "",
      "phone": "+1-619-320-6289",
      "website": "https://cava.com/",
      "opening_hours": "10:45-22:00",
      "amenity_type": "restaurant",
      "cuisine": "mediterranean"
    },
    {
      "osm_id": 12217515062,
      "osm_type": "node",
      "name": "Cava Mezze",
      "brand": "",
      "latitude": 39.1509425,
      "longitude": -77.0641106,
      "address": "Olney Sandy Spring Road",
      "city": "",
      "state": "",
      "postcode": "",
      "phone": "+1 301-774-9090",
      "website": "https://www.cavamezze.com/",
      "opening_hours": "",
      "amenity_type": "restaurant",
      "cuisine": ""
    },
    {
      "osm_id": 12230794906,
      "osm_type": "node",
      "name": "CAVA",
      "brand": "CAVA",
      "latitude": 37.045529,
      "longitude": -76.390694,
      "address": "Coliseum Drive",
      "city": "Hampton",
      "state": "VA",
      "postcode": "23666",
      "phone": "",
      "website": "",
      "opening_hours": "",
      "amenity_type": "restaurant",
      "cuisine": "mediterranean"
    },
    {
      "osm_id": 12247373705,
      "osm_type": "node",
      "name": "CAVA",
      "brand": "CAVA",
      "latitude": 40.0663207,
      "longitude": -76.3142108,
      "address": "Fruitville Pike",
      "city": "",
      "state": "",
      "postcode": "",
      "phone": "",
      "website": "",
      "opening_hours": "",
      "amenity_type": "restaurant",
      "cuisine": "mediterranean"
    },
    {
      "osm_id": 12298408969,
      "osm_type": "node",
      "name": "CAVA",
      "brand": "CAVA",
      "latitude": 34.693823,
      "longitude": -86.5687104,
      "address": "Whitesburg Drive South",
      "city": "Huntsville",
      "state": "AL",
      "postcode": "35802",
      "phone": "+1-256-696-5970",
      "website": "https://cava.com/locations/whitesburg-al",
      "opening_hours": "Mo-Su 10:45-22:00",
      "amenity_type": "restaurant",
      "cuisine": "mediterranean"
    },
    {
      "osm_id": 12307390234,
      "osm_type": "node",
      "name": "CAVA",
      "brand": "CAVA",
      "latitude": 36.0535553,
      "longitude": -79.908756,
      "address": "West Wendover Avenue",
      "city": "",
      "state": "",
      "postcode": "",
      "phone": "+1 336-265-7937",
      "website": "https://cava.com/locations/wendover-nc",
      "opening_hours": "10:40-22:00",
      "amenity_type": "restaurant",
      "cuisine": "mediterranean"
    },
    {
      "osm_id": 12326761935,
      "osm_type": "node",
      "name": "CAVA",
      "brand": "CAVA",
      "latitude": 39.7979696,
      "longitude": -105.0773376,
      "address": "W 56th Ave",
      "city": "Arvada",
      "state": "CO",
      "postcode": "80002",
      "phone": "+1-720-792-1543",
      "website": "https://cava.com/locations/arvada-co",
      "opening_hours": "Mo-Su 10:45-22:00",
      "amenity_type": "restaurant",
      "cuisine": "mediterranean"
    },
    {
      "osm_id": 12349763834,
      "osm_type": "node",
      "name": "CAVA",
      "brand": "CAVA",
      "latitude": 36.8233185,
      "longitude": -76.0681542,
      "address": "Sabre Street",
      "city": "Virginia Beach",
      "state": "VA",
      "postcode": "23452",
      "phone": "",
      "website": "",
      "opening_hours": "",
      "amenity_type": "restaurant",
      "cuisine": "mediterranean"
    },
    {
      "osm_id": 12363047658,
      "osm_type": "node",
      "name": "CAVA",
      "brand": "CAVA",
      "latitude": 36.1077415,
      "longitude": -86.8158808,
      "address": "",
      "city": "Nashville",
      "state": "TN",
      "postcode": "37215",
      "phone": "",
      "website": "",
      "opening_hours": "Mo-Su 10:45-20:00",
      "amenity_type": "restaurant",
      "cuisine": "mediterranean"
    },
    {
      "osm_id": 12414067175,
      "osm_type": "node",
      "name": "CAVA",
      "brand": "CAVA",
      "latitude": 33.9998269,
      "longitude": -81.0387686,
      "address": "",
      "city": "",
      "state": "",
      "postcode": "",
      "phone": "",
      "website": "",
      "opening_hours": "",
      "amenity_type": "restaurant",
      "cuisine": "mediterranean"
    },
    {
      "osm_id": 12456510363,
      "osm_type": "node",
      "name": "CAVA",
      "brand": "CAVA",
      "latitude": 40.2968167,
      "longitude": -74.6836991,
      "address": "",
      "city": "",
      "state": "",
      "postcode": "",
      "phone": "",
      "website": "",
      "opening_hours": "",
      "amenity_type": "restaurant",
      "cuisine": "mediterranean"
    },
    {
      "osm_id": 12485361796,
      "osm_type": "node",
      "name": "CAVA",
      "brand": "CAVA",
      "latitude": 33.9857671,
      "longitude": -84.422109,
      "address": "Roswell Road",
      "city": "",
      "state": "",
      "postcode": "30062",
      "phone": "+1 470-524-0237",
      "website": "https://cava.com/locations/east-cobb-ga",
      "opening_hours": "10:45-22:00",
      "amenity_type": "restaurant",
      "cuisine": "mediterranean"
    },
    {
      "osm_id": 12572492234,
      "osm_type": "node",
      "name": "CAVA",
      "brand": "CAVA",
      "latitude": 34.0581314,
      "longitude": -118.4194684,
      "address": "",
      "city": "",
      "state": "",
      "postcode": "",
      "phone": "",
      "website": "",
      "opening_hours": "",
      "amenity_type": "restaurant",
      "cuisine": "mediterranean"
    },
    {
      "osm_id": 12605493017,
      "osm_type": "node",
      "name": "Cava",
      "brand": "",
      "latitude": 40.7155855,
      "longitude": -73.9588148,
      "address": "North 4th Street",
      "city": "",
      "state": "",
      "postcode": "",
      "phone": "",
      "website": "",
      "opening_hours": "Mo-Su 10:45-22:00",
      "amenity_type": "restaurant",
      "cuisine": ""
    },
    {
      "osm_id": 12673855501,
      "osm_type": "node",
      "name": "CAVA",
      "brand": "CAVA",
      "latitude": 28.4931794,
      "longitude": -81.4286547,
      "address": "",
      "city": "",
      "state": "",
      "postcode": "",
      "phone": "",
      "website": "",
      "opening_hours": "",
      "amenity_type": "restaurant",
      "cuisine": "mediterranean"
    },
    {
      "osm_id": 12808378487,
      "osm_type": "node",
      "name": "Cava",
      "brand": "CAVA",
      "latitude": 33.6982003,
      "longitude": -117.741147,
      "address": "Irvine Boulevard",
      "city": "Irvine",
      "state": "CA",
      "postcode": "92620",
      "phone": "+1-949-490-6084",
      "website": "https://cava.com/locations/woodbury-town-center-ca",
      "opening_hours": "Mo-Su 10:45-22:00",
      "amenity_type": "restaurant",
      "cuisine": "mediterranean"
    },
    {
      "osm_id": 12823465909,
      "osm_type": "node",
      "name": "Cava",
      "brand": "",
      "latitude": 42.1463924,
      "longitude": -70.8434252,
      "address": "Washington Street",
      "city": "",
      "state": "",
      "postcode": "",
      "phone": "",
      "website": "",
      "opening_hours": "10:45-22:00",
      "amenity_type": "restaurant",
      "cuisine": ""
    },
    {
      "osm_id": 12877170334,
      "osm_type": "node",
      "name": "Cava",
      "brand": "",
      "latitude": 32.940411,
      "longitude": -97.1194206,
      "address": "East Southlake Boulevard",
      "city": "Southlake",
      "state": "TX",
      "postcode": "76092",
      "phone": "",
      "website": "",
      "opening_hours": "",
      "amenity_type": "restaurant",
      "cuisine": ""
    },
    {
      "osm_id": 12896077739,
      "osm_type": "node",
      "name": "CAVA",
      "brand": "CAVA",
      "latitude": 41.870815,
      "longitude": -71.5327366,
      "address": "",
      "city": "",
      "state": "",
      "postcode": "",
      "phone": "",
      "website": "",
      "opening_hours": "",
      "amenity_type": "restaurant",
      "cuisine": "mediterranean"
    },
    {
      "osm_id": 12926463342,
      "osm_type": "node",
      "name": "CAVA",
      "brand": "CAVA",
      "latitude": 39.1824531,
      "longitude": -77.2642528,
      "address": "Century Boulevard",
      "city": "Germantown",
      "state": "MD",
      "postcode": "20874",
      "phone": "+1-240-690-5325",
      "website": "https://cava.com",
      "opening_hours": "",
      "amenity_type": "restaurant",
      "cuisine": "mediterranean"
    },
    {
      "osm_id": 12952784531,
      "osm_type": "node",
      "name": "CAVA",
      "brand": "CAVA",
      "latitude": 39.9516687,
      "longitude": -75.1692932,
      "address": "Chestnut Street",
      "city": "Philadelphia",
      "state": "PA",
      "postcode": "19103",
      "phone": "+1-215-259-3266",
      "website": "https://cava.com/locations/rittenhouse-pa",
      "opening_hours": "Mo-Su 10:45-22:00",
      "amenity_type": "restaurant",
      "cuisine": "mediterranean"
    },
    {
      "osm_id": 12986196714,
      "osm_type": "node",
      "name": "CAVA",
      "brand": "CAVA",
      "latitude": 30.3491053,
      "longitude": -91.0254893,
      "address": "Highland Market Drive",
      "city": "Baton Rouge",
      "state": "LA",
      "postcode": "70810",
      "phone": "+1-225-338-4462",
      "website": "https://cava.com/locations/highland-marketplace-la",
      "opening_hours": "Su-Sa 10:30-22:30",
      "amenity_type": "restaurant",
      "cuisine": "mediterranean"
    },
    {
      "osm_id": 13002609363,
      "osm_type": "node",
      "name": "CAVA",
      "brand": "CAVA",
      "latitude": 40.4381663,
      "longitude": -74.5053575,
      "address": "",
      "city": "",
      "state": "",
      "postcode": "",
      "phone": "",
      "website": "",
      "opening_hours": "",
      "amenity_type": "restaurant",
      "cuisine": "mediterranean"
    },
    {
      "osm_id": 13009136839,
      "osm_type": "node",
      "name": "CAVA",
      "brand": "CAVA",
      "latitude": 41.6577732,
      "longitude": -72.7265656,
      "address": "Berlin Turnpike",
      "city": "Newington",
      "state": "CT",
      "postcode": "06111",
      "phone": "+1-860-595-5451",
      "website": "https://cava.com/locations/meadow-commons-ct",
      "opening_hours": "Mo-Su 10:30-22:30",
      "amenity_type": "restaurant",
      "cuisine": "mediterranean"
    },
    {
      "osm_id": 13052360080,
      "osm_type": "node",
      "name": "CAVA",
      "brand": "CAVA",
      "latitude": 30.1821303,
      "longitude": -95.5348793,
      "address": "",
      "city": "",
      "state": "",
      "postcode": "",
      "phone": "",
      "website": "",
      "opening_hours": "",
      "amenity_type": "restaurant",
      "cuisine": "mediterranean"
    },
    {
      "osm_id": 13096536706,
      "osm_type": "node",
      "name": "CAVA",
      "brand": "CAVA",
      "latitude": 35.944479,
      "longitude": -86.8188748,
      "address": "",
      "city": "",
      "state": "",
      "postcode": "",
      "phone": "",
      "website": "",
      "opening_hours": "",
      "amenity_type": "restaurant",
      "cuisine": "mediterranean"
    },
    {
      "osm_id": 13113415007,
      "osm_type": "node",
      "name": "CAVA",
      "brand": "CAVA",
      "latitude": 41.8935347,
      "longitude": -87.6205454,
      "address": "East Ontario Street",
      "city": "Chicago",
      "state": "IL",
      "postcode": "60611",
      "phone": "",
      "website": "",
      "opening_hours": "",
      "amenity_type": "restaurant",
      "cuisine": "mediterranean"
    },
    {
      "osm_id": 13131845259,
      "osm_type": "node",
      "name": "CAVA",
      "brand": "CAVA",
      "latitude": 39.9565141,
      "longitude": -85.999166,
      "address": "Whistle Drive",
      "city": "Fishers",
      "state": "IN",
      "postcode": "46037",
      "phone": "",
      "website": "",
      "opening_hours": "",
      "amenity_type": "restaurant",
      "cuisine": "mediterranean"
    },
    {
      "osm_id": 13140202714,
      "osm_type": "node",
      "name": "CAVA",
      "brand": "CAVA",
      "latitude": 40.0844037,
      "longitude": -75.3881704,
      "address": "South Gulph Road",
      "city": "King of Prussia",
      "state": "PA",
      "postcode": "19406",
      "phone": "+1 484-612-7520",
      "website": "https://cava.com/locations/King-of-Prussia-PA",
      "opening_hours": "10:45-22:00",
      "amenity_type": "restaurant",
      "cuisine": "mediterranean"
    },
    {
      "osm_id": 13179474382,
      "osm_type": "node",
      "name": "CAVA",
      "brand": "CAVA",
      "latitude": 35.2072946,
      "longitude": -80.8610887,
      "address": "",
      "city": "",
      "state": "",
      "postcode": "",
      "phone": "",
      "website": "",
      "opening_hours": "",
      "amenity_type": "restaurant",
      "cuisine": "mediterranean"
    },
    {
      "osm_id": 13186291601,
      "osm_type": "node",
      "name": "CAVA",
      "brand": "",
      "latitude": 35.7590008,
      "longitude": -78.7415953,
      "address": "Walnut Street",
      "city": "",
      "state": "",
      "postcode": "27511",
      "phone": "+1 919-342-5937",
      "website": "https://cava.com/locations/cary-nc",
      "opening_hours": "Mo-Su 10:30-22:30",
      "amenity_type": "restaurant",
      "cuisine": "mediterranean"
    },
    {
      "osm_id": 13291341837,
      "osm_type": "node",
      "name": "CAVA",
      "brand": "CAVA",
      "latitude": 33.5299162,
      "longitude": -82.1225808,
      "address": "",
      "city": "",
      "state": "",
      "postcode": "",
      "phone": "",
      "website": "",
      "opening_hours": "",
      "amenity_type": "restaurant",
      "cuisine": "mediterranean"
    },
    {
      "osm_id": 13307576404,
      "osm_type": "node",
      "name": "CAVA",
      "brand": "CAVA",
      "latitude": 33.1531988,
      "longitude": -96.8412506,
      "address": "Main Street",
      "city": "",
      "state": "",
      "postcode": "",
      "phone": "",
      "website": "",
      "opening_hours": "",
      "amenity_type": "restaurant",
      "cuisine": "mediterranean"
    },
    {
      "osm_id": 13323048191,
      "osm_type": "node",
      "name": "CAVA",
      "brand": "",
      "latitude": 41.3790122,
      "longitude": -73.4762239,
      "address": "Backus Avenue",
      "city": "",
      "state": "",
      "postcode": "",
      "phone": "",
      "website": "",
      "opening_hours": "",
      "amenity_type": "restaurant",
      "cuisine": ""
    },
    {
      "osm_id": 13362126202,
      "osm_type": "node",
      "name": "CAVA",
      "brand": "CAVA",
      "latitude": 33.1749429,
      "longitude": -96.7344376,
      "address": "Eldorado Parkway",
      "city": "",
      "state": "",
      "postcode": "",
      "phone": "",
      "website": "",
      "opening_hours": "",
      "amenity_type": "restaurant",
      "cuisine": "mediterranean"
    },
    {
      "osm_id": 13368761479,
      "osm_type": "node",
      "name": "CAVA",
      "brand": "CAVA",
      "latitude": 38.9816264,
      "longitude": -76.5432488,
      "address": "Towne Centre Boulevard",
      "city": "Annapolis",
      "state": "MD",
      "postcode": "21401",
      "phone": "",
      "website": "",
      "opening_hours": "",
      "amenity_type": "restaurant",
      "cuisine": "mediterranean"
    },
    {
      "osm_id": 13424061607,
      "osm_type": "node",
      "name": "CAVA",
      "brand": "CAVA",
      "latitude": 39.7806383,
      "longitude": -86.1720926,
      "address": "",
      "city": "",
      "state": "",
      "postcode": "",
      "phone": "",
      "website": "",
      "opening_hours": "",
      "amenity_type": "restaurant",
      "cuisine": "mediterranean"
    },
    {
      "osm_id": 13451587413,
      "osm_type": "node",
      "name": "CAVA",
      "brand": "CAVA",
      "latitude": 33.9154511,
      "longitude": -117.9685932,
      "address": "",
      "city": "",
      "state": "",
      "postcode": "",
      "phone": "",
      "website": "",
      "opening_hours": "",
      "amenity_type": "restaurant",
      "cuisine": "mediterranean"
    },
    {
      "osm_id": 13455345777,
      "osm_type": "node",
      "name": "CAVA",
      "brand": "CAVA",
      "latitude": 40.4591519,
      "longitude": -79.9215371,
      "address": "",
      "city": "",
      "state": "",
      "postcode": "",
      "phone": "",
      "website": "",
      "opening_hours": "",
      "amenity_type": "restaurant",
      "cuisine": "mediterranean"
    },
    {
      "osm_id": 13465253765,
      "osm_type": "node",
      "name": "CAVA",
      "brand": "CAVA",
      "latitude": 35.5350101,
      "longitude": -97.5321147,
      "address": "Northwest Grand Boulevard",
      "city": "Oklahoma City",
      "state": "OK",
      "postcode": "73118",
      "phone": "",
      "website": "https://cava.com/locations/classen-curve-ok",
      "opening_hours": "",
      "amenity_type": "restaurant",
      "cuisine": "mediterranean"
    },
    {
      "osm_id": 13507445978,
      "osm_type": "node",
      "name": "CAVA",
      "brand": "CAVA",
      "latitude": 35.9553307,
      "longitude": -83.9352641,
      "address": "Cumberland Avenue",
      "city": "Knoxville",
      "state": "TN",
      "postcode": "37916",
      "phone": "+1 865-500-2711",
      "website": "https://cava.com/locations/Cumberland-Avenue-TN",
      "opening_hours": "Mo-Su 10:30-20:00",
      "amenity_type": "restaurant",
      "cuisine": "mediterranean"
    }
  ]
}