{
  "metadata": {
    "chain": "In-N-Out",
    "country": "US",
    "scraped_at": "2026-02-12T17:08:21.840276",
    "total_locations": 34,
    "source": "OpenStreetMap Overpass API"
  },
  "locations": [
    {
      "osm_id": 434874627,
      "osm_type": "node",
      "name": "In-N-Out Burger",
      "brand": "In-N-Out Burger",
      "latitude": 37.8077668,
      "longitude": -122.4184666,
      "address": "Jefferson Street",
      "city": "San Francisco",
      "state": "CA",
      "postcode": "94133",
      "phone": "",
      "website": "https://locations.in-n-out.com/154",
      "opening_hours": "10:30-01:00; Fr,Sa 10:30-01:30",
      "amenity_type": "fast_food",
      "cuisine": "burger"
    },
    {
      "osm_id": 2865600212,
      "osm_type": "node",
      "name": "In-N-Out Burger",
      "brand": "In-N-Out Burger",
      "latitude": 38.6702663,
      "longitude": -121.7279475,
      "address": "Bronze Star Drive",
      "city": "Woodland",
      "state": "CA",
      "postcode": "95776",
      "phone": "",
      "website": "https://locations.in-n-out.com/231",
      "opening_hours": "",
      "amenity_type": "fast_food",
      "cuisine": "burger"
    },
    {
      "osm_id": 3471659543,
      "osm_type": "node",
      "name": "In-N-Out Burger",
      "brand": "In-N-Out Burger",
      "latitude": 38.5980058,
      "longitude": -121.419456,
      "address": "Alta Arden Expressway",
      "city": "Sacramento",
      "state": "CA",
      "postcode": "95825",
      "phone": "",
      "website": "https://locations.in-n-out.com/276",
      "opening_hours": "",
      "amenity_type": "fast_food",
      "cuisine": "burger"
    },
    {
      "osm_id": 4763413921,
      "osm_type": "node",
      "name": "In-N-Out Burger",
      "brand": "In-N-Out Burger",
      "latitude": 32.8990501,
      "longitude": -97.3222868,
      "address": "North Tarrant Parkway",
      "city": "",
      "state": "",
      "postcode": "76177",
      "phone": "",
      "website": "",
      "opening_hours": "",
      "amenity_type": "fast_food",
      "cuisine": "burger"
    },
    {
      "osm_id": 4860223222,
      "osm_type": "node",
      "name": "In-N-Out Burger",
      "brand": "In-N-Out Burger",
      "latitude": 36.1174181,
      "longitude": -115.169885,
      "address": "South Las Vegas Boulevard",
      "city": "Las Vegas",
      "state": "NV",
      "postcode": "89109",
      "phone": "+1 800-786-1000",
      "website": "https://locations.in-n-out.com/320",
      "opening_hours": "Su-Th 10:30-01:00; Fr-Sa 10:30-01:30",
      "amenity_type": "fast_food",
      "cuisine": "burger"
    },
    {
      "osm_id": 5140992584,
      "osm_type": "node",
      "name": "In-N-Out Burger",
      "brand": "In-N-Out Burger",
      "latitude": 29.7303988,
      "longitude": -98.078692,
      "address": "FM 306",
      "city": "New Braunfels",
      "state": "TX",
      "postcode": "78130",
      "phone": "",
      "website": "https://locations.in-n-out.com/325",
      "opening_hours": "",
      "amenity_type": "fast_food",
      "cuisine": "burger"
    },
    {
      "osm_id": 5597560758,
      "osm_type": "node",
      "name": "In-N-Out Burger",
      "brand": "In-N-Out Burger",
      "latitude": 34.1455816,
      "longitude": -118.25526,
      "address": "South Brand Boulevard",
      "city": "Glendale",
      "state": "CA",
      "postcode": "91204",
      "phone": "+1 800-786-1000",
      "website": "https://locations.in-n-out.com/174",
      "opening_hours": "10:30-01:00; Fr,Sa 10:30-01:30",
      "amenity_type": "fast_food",
      "cuisine": "burger"
    },
    {
      "osm_id": 6536240028,
      "osm_type": "node",
      "name": "In-N-Out Burger",
      "brand": "In-N-Out Burger",
      "latitude": 38.6604251,
      "longitude": -121.3571339,
      "address": "Madison Avenue",
      "city": "Sacramento",
      "state": "CA",
      "postcode": "95841",
      "phone": "",
      "website": "https://locations.in-n-out.com/217",
      "opening_hours": "",
      "amenity_type": "fast_food",
      "cuisine": "burger"
    },
    {
      "osm_id": 6830706769,
      "osm_type": "node",
      "name": "In-N-Out Burger",
      "brand": "In-N-Out Burger",
      "latitude": 32.8288353,
      "longitude": -96.8441945,
      "address": "West Mockingbird Lane",
      "city": "Dallas",
      "state": "TX",
      "postcode": "75235",
      "phone": "",
      "website": "https://locations.in-n-out.com/341",
      "opening_hours": "Mo-Th 10:30-01:00; Fr-Sa 10:30-01:30",
      "amenity_type": "fast_food",
      "cuisine": "burger"
    },
    {
      "osm_id": 8294706900,
      "osm_type": "node",
      "name": "In-N-Out Burger",
      "brand": "In-N-Out Burger",
      "latitude": 40.1211208,
      "longitude": -111.6417598,
      "address": "East 800 North",
      "city": "Spanish Fork",
      "state": "UT",
      "postcode": "84660",
      "phone": "",
      "website": "https://locations.in-n-out.com/358",
      "opening_hours": "",
      "amenity_type": "fast_food",
      "cuisine": "burger"
    },
    {
      "osm_id": 8331633517,
      "osm_type": "node",
      "name": "In-N-Out Burger",
      "brand": "In-N-Out Burger",
      "latitude": 43.6057209,
      "longitude": -116.278641,
      "address": "North Milwaukee Street",
      "city": "Boise",
      "state": "ID",
      "postcode": "83704",
      "phone": "",
      "website": "https://locations.in-n-out.com/413",
      "opening_hours": "",
      "amenity_type": "fast_food",
      "cuisine": "burger"
    },
    {
      "osm_id": 8439169217,
      "osm_type": "node",
      "name": "In-N-Out Burger",
      "brand": "In-N-Out Burger",
      "latitude": 32.6596905,
      "longitude": -117.1066457,
      "address": "Mile of Cars Way",
      "city": "National City",
      "state": "CA",
      "postcode": "91950",
      "phone": "",
      "website": "https://locations.in-n-out.com/70",
      "opening_hours": "",
      "amenity_type": "fast_food",
      "cuisine": "burger"
    },
    {
      "osm_id": 9156015828,
      "osm_type": "node",
      "name": "In-N-Out Burger",
      "brand": "In-N-Out Burger",
      "latitude": 33.9156675,
      "longitude": -117.4420167,
      "address": "Van Buren Boulevard",
      "city": "Riverside",
      "state": "CA",
      "postcode": "92503",
      "phone": "",
      "website": "https://locations.in-n-out.com/365",
      "opening_hours": "",
      "amenity_type": "fast_food",
      "cuisine": "burger"
    },
    {
      "osm_id": 10203025597,
      "osm_type": "node",
      "name": "In-N-Out Burger",
      "brand": "In-N-Out Burger",
      "latitude": 38.4086698,
      "longitude": -121.4128061,
      "address": "Elk Grove Boulevard",
      "city": "Elk Grove",
      "state": "CA",
      "postcode": "95757",
      "phone": "",
      "website": "https://locations.in-n-out.com/388",
      "opening_hours": "",
      "amenity_type": "fast_food",
      "cuisine": "burger"
    },
    {
      "osm_id": 10676557585,
      "osm_type": "node",
      "name": "In-N-Out Burger",
      "brand": "In-N-Out Burger",
      "latitude": 33.3064175,
      "longitude": -111.891799,
      "address": "West Chandler Boulevard",
      "city": "Chandler",
      "state": "AZ",
      "postcode": "85224",
      "phone": "",
      "website": "https://locations.in-n-out.com/164",
      "opening_hours": "",
      "amenity_type": "fast_food",
      "cuisine": "burger"
    },
    {
      "osm_id": 11247323206,
      "osm_type": "node",
      "name": "In-N-Out Burger",
      "brand": "In-N-Out Burger",
      "latitude": 33.7363437,
      "longitude": -116.4076788,
      "address": "Bob Hope Drive",
      "city": "Rancho Mirage",
      "state": "CA",
      "postcode": "92270",
      "phone": "",
      "website": "https://locations.in-n-out.com/374",
      "opening_hours": "",
      "amenity_type": "fast_food",
      "cuisine": "burger"
    },
    {
      "osm_id": 11762038014,
      "osm_type": "node",
      "name": "In-N-Out Burger",
      "brand": "In-N-Out Burger",
      "latitude": 34.0745597,
      "longitude": -117.3708177,
      "address": "South Riverside Avenue",
      "city": "Rialto",
      "state": "CA",
      "postcode": "92376",
      "phone": "",
      "website": "https://locations.in-n-out.com/394",
      "opening_hours": "",
      "amenity_type": "fast_food",
      "cuisine": "burger"
    },
    {
      "osm_id": 11879184487,
      "osm_type": "node",
      "name": "In-N-Out Burger",
      "brand": "In-N-Out Burger",
      "latitude": 36.0698589,
      "longitude": -115.2418931,
      "address": "South Rainbow Boulevard",
      "city": "Las Vegas",
      "state": "NV",
      "postcode": "89118",
      "phone": "",
      "website": "https://locations.in-n-out.com/352",
      "opening_hours": "",
      "amenity_type": "fast_food",
      "cuisine": "burger"
    },
    {
      "osm_id": 11879184488,
      "osm_type": "node",
      "name": "In-N-Out Burger",
      "brand": "In-N-Out Burger",
      "latitude": 33.71257,
      "longitude": -116.29265,
      "address": "Highway 111",
      "city": "La Quinta",
      "state": "CA",
      "postcode": "92253",
      "phone": "",
      "website": "https://locations.in-n-out.com/311",
      "opening_hours": "",
      "amenity_type": "fast_food",
      "cuisine": "burger"
    },
    {
      "osm_id": 11879184489,
      "osm_type": "node",
      "name": "In-N-Out Burger",
      "brand": "In-N-Out Burger",
      "latitude": 32.5774169,
      "longitude": -117.0805352,
      "address": "Outer Road",
      "city": "San Diego",
      "state": "CA",
      "postcode": "92154",
      "phone": "",
      "website": "https://locations.in-n-out.com/383",
      "opening_hours": "",
      "amenity_type": "fast_food",
      "cuisine": "burger"
    },
    {
      "osm_id": 12117334306,
      "osm_type": "node",
      "name": "In-N-Out Burger",
      "brand": "In-N-Out Burger",
      "latitude": 38.414588,
      "longitude": -122.7129892,
      "address": "Santa Rosa Avenue",
      "city": "Santa Rosa",
      "state": "CA",
      "postcode": "95407",
      "phone": "",
      "website": "",
      "opening_hours": "",
      "amenity_type": "fast_food",
      "cuisine": "burger"
    },
    {
      "osm_id": 12564697515,
      "osm_type": "node",
      "name": "In-N-Out Burger",
      "brand": "In-N-Out Burger",
      "latitude": 40.7251167,
      "longitude": -111.8907433,
      "address": "East 2100 South",
      "city": "",
      "state": "",
      "postcode": "",
      "phone": "",
      "website": "",
      "opening_hours": "",
      "amenity_type": "fast_food",
      "cuisine": "burger"
    },
    {
      "osm_id": 12663662301,
      "osm_type": "node",
      "name": "In-N-Out Burger",
      "brand": "",
      "latitude": 29.5534203,
      "longitude": -95.1503672,
      "address": "El Dorado Boulevard",
      "city": "",
      "state": "",
      "postcode": "77598",
      "phone": "+1-800-786-1000",
      "website": "https://locations.in-n-out.com/397",
      "opening_hours": "Su-Th 10:30-01:00; Fr-Sa 10:30-01:30",
      "amenity_type": "fast_food",
      "cuisine": "burger"
    },
    {
      "osm_id": 12943790326,
      "osm_type": "node",
      "name": "In-N-Out Burger",
      "brand": "In-N-Out Burger",
      "latitude": 33.7139214,
      "longitude": -112.2718585,
      "address": "",
      "city": "",
      "state": "",
      "postcode": "",
      "phone": "",
      "website": "",
      "opening_hours": "",
      "amenity_type": "fast_food",
      "cuisine": "burger"
    },
    {
      "osm_id": 13125197648,
      "osm_type": "node",
      "name": "In-N-Out Burger",
      "brand": "In-N-Out Burger",
      "latitude": 33.258769,
      "longitude": -111.6403705,
      "address": "East Rittenhouse Road",
      "city": "Queen Creek",
      "state": "AZ",
      "postcode": "85242",
      "phone": "",
      "website": "https://locations.in-n-out.com/293",
      "opening_hours": "10:30-01:00",
      "amenity_type": "fast_food",
      "cuisine": "burger"
    },
    {
      "osm_id": 13179765548,
      "osm_type": "node",
      "name": "In-N-Out Burger",
      "brand": "In-N-Out Burger",
      "latitude": 33.5959597,
      "longitude": -112.4123591,
      "address": "West Cactus Road",
      "city": "Surprise",
      "state": "AZ",
      "postcode": "85388",
      "phone": "",
      "website": "",
      "opening_hours": "Mo-Th 10:30-13:00; Fr-Sa 10:30-13:30; Su 10:30-13:00",
      "amenity_type": "fast_food",
      "cuisine": "burger"
    },
    {
      "osm_id": 13335269326,
      "osm_type": "node",
      "name": "In-N-Out Burger",
      "brand": "In-N-Out Burger",
      "latitude": 40.1518069,
      "longitude": -105.0855669,
      "address": "",
      "city": "",
      "state": "",
      "postcode": "",
      "phone": "",
      "website": "",
      "opening_hours": "",
      "amenity_type": "fast_food",
      "cuisine": "burger"
    },
    {
      "osm_id": 13417082877,
      "osm_type": "node",
      "name": "In-N-Out Burger",
      "brand": "In-N-Out Burger",
      "latitude": 35.8602149,
      "longitude": -86.4414952,
      "address": "Medical Center Parkway",
      "city": "Murfreesboro",
      "state": "TN",
      "postcode": "37130",
      "phone": "+1 800-786-1000",
      "website": "",
      "opening_hours": "Mo-Th 10:30-01:00; Fr-Sa 10:30-01:30; Su 10:30-01:00",
      "amenity_type": "fast_food",
      "cuisine": "burger"
    },
    {
      "osm_id": 13417356106,
      "osm_type": "node",
      "name": "In-N-Out Burger",
      "brand": "In-N-Out Burger",
      "latitude": 36.0367328,
      "longitude": -86.6527213,
      "address": "Century Farms Gateway",
      "city": "Antioch",
      "state": "TN",
      "postcode": "37013",
      "phone": "+1 800-786-1000",
      "website": "",
      "opening_hours": "",
      "amenity_type": "fast_food",
      "cuisine": "burger"
    },
    {
      "osm_id": 13423804830,
      "osm_type": "node",
      "name": "In-N-Out Burger",
      "brand": "In-N-Out Burger",
      "latitude": 36.186688,
      "longitude": -86.3257647,
      "address": "South Hartman Drive",
      "city": "Lebanon",
      "state": "TN",
      "postcode": "37090",
      "phone": "+1 800-786-1000",
      "website": "",
      "opening_hours": "Mo-Th,Su 10:30-01:00; Fr-Sa 10:30-01:30",
      "amenity_type": "fast_food",
      "cuisine": "burger"
    },
    {
      "osm_id": 13438655411,
      "osm_type": "node",
      "name": "In-N-Out Burger",
      "brand": "In-N-Out Burger",
      "latitude": 34.1060339,
      "longitude": -118.1343776,
      "address": "North Atlantic Boulevard",
      "city": "Alhambra",
      "state": "CA",
      "postcode": "91801",
      "phone": "",
      "website": "https://locations.in-n-out.com/121",
      "opening_hours": "Mo-Th,Su 10:30-01:00; Fr-Sa 10:30-01:30",
      "amenity_type": "fast_food",
      "cuisine": "burger"
    },
    {
      "osm_id": 13438810216,
      "osm_type": "node",
      "name": "In-N-Out Burger",
      "brand": "In-N-Out Burger",
      "latitude": 34.1453244,
      "longitude": -118.0312041,
      "address": "North Santa Anita Avenue",
      "city": "Arcadia",
      "state": "CA",
      "postcode": "91006",
      "phone": "",
      "website": "https://locations.in-n-out.com/27-Arcadia",
      "opening_hours": "",
      "amenity_type": "fast_food",
      "cuisine": "burger"
    },
    {
      "osm_id": 13475411651,
      "osm_type": "node",
      "name": "In-N-Out Burger",
      "brand": "In-N-Out Burger",
      "latitude": 34.1495071,
      "longitude": -118.1067943,
      "address": "East Foothill Boulevard",
      "city": "Pasadena",
      "state": "CA",
      "postcode": "91107",
      "phone": "",
      "website": "https://locations.in-n-out.com/5-Pasadena",
      "opening_hours": "Mo-Th,Su 10:30-01:00; Fr-Sa 10:30-01:30",
      "amenity_type": "fast_food",
      "cuisine": "burger"
    },
    {
      "osm_id": 13527495749,
      "osm_type": "node",
      "name": "In-N-Out Burger",
      "brand": "In-N-Out Burger",
      "latitude": 34.0364893,
      "longitude": -118.0975591,
      "address": "Market Place Drive",
      "city": "Monterey Park",
      "state": "CA",
      "postcode": "91755",
      "phone": "+1 800-786-1000",
      "website": "https://locations.in-n-out.com/337",
      "opening_hours": "Su-Th 10:30-1:00, Fr-Sa 10:30-1:30",
      "amenity_type": "fast_food",
      "cuisine": "burger"
    }
  ]
}