{
  "metadata": {
    "chain": "MOD Pizza",
    "country": "US",
    "scraped_at": "2026-02-15T11:09:33.009555",
    "total_locations": 333,
    "source": "OpenStreetMap Overpass API"
  },
  "locations": [
    {
      "osm_id": 484912336,
      "osm_type": "node",
      "name": "MOD Pizza",
      "brand": "MOD Pizza",
      "latitude": 37.7562427,
      "longitude": -122.2501887,
      "address": "South Shore Center Drive",
      "city": "Alameda",
      "state": "CA",
      "postcode": "94501",
      "phone": "+1-510-227-1444",
      "website": "https://locations.modpizza.com/usa/ca/alameda/2308-south-shore-center-dr",
      "opening_hours": "10:30-22:00",
      "amenity_type": "fast_food",
      "cuisine": "pizza"
    },
    {
      "osm_id": 516472239,
      "osm_type": "node",
      "name": "MOD Pizza",
      "brand": "MOD Pizza",
      "latitude": 48.0011327,
      "longitude": -122.1052201,
      "address": "State Route 9 Northeast",
      "city": "Lake Stevens",
      "state": "WA",
      "postcode": "98258",
      "phone": "+1-425-903-5965",
      "website": "https://locations.modpizza.com/usa/wa/lake-stevens/513-sr-9-ne",
      "opening_hours": "Mo-Th 10:30-21:30; Fr-Su 10:30-22:00",
      "amenity_type": "fast_food",
      "cuisine": "pizza"
    },
    {
      "osm_id": 1748931246,
      "osm_type": "node",
      "name": "MOD Pizza",
      "brand": "MOD Pizza",
      "latitude": 47.5213673,
      "longitude": -122.3670494,
      "address": "Southwest Barton Street",
      "city": "Seattle",
      "state": "WA",
      "postcode": "98126",
      "phone": "+1-206-415-9675",
      "website": "https://locations.modpizza.com/usa/wa/seattle/2800-sw-barton-st",
      "opening_hours": "Mo-We 10:30-22:00; Th-Sa 10:30-23:00; Su 10:30-22:00",
      "amenity_type": "fast_food",
      "cuisine": "pizza"
    },
    {
      "osm_id": 2120424336,
      "osm_type": "node",
      "name": "MOD Pizza",
      "brand": "MOD Pizza",
      "latitude": 38.5897952,
      "longitude": -121.55013,
      "address": "Ikea Court",
      "city": "West Sacramento",
      "state": "CA",
      "postcode": "95605",
      "phone": "+1 916-572-0356",
      "website": "https://locations.modpizza.com/usa/ca/west-sacramento/771-ikea-court",
      "opening_hours": "Mo-Th 11:00-21:00; Fr-Sa 11:00-22:00; Su 11:00-21:00",
      "amenity_type": "fast_food",
      "cuisine": "pizza"
    },
    {
      "osm_id": 2356829156,
      "osm_type": "node",
      "name": "MOD Pizza",
      "brand": "MOD Pizza",
      "latitude": 47.6211007,
      "longitude": -122.350654,
      "address": "Harrison Street",
      "city": "Seattle",
      "state": "WA",
      "postcode": "98109",
      "phone": "+1-206-428-6315",
      "website": "https://locations.modpizza.com/usa/wa/seattle/305-harrison-st",
      "opening_hours": "10:30-22:00",
      "amenity_type": "fast_food",
      "cuisine": "pizza"
    },
    {
      "osm_id": 2638150920,
      "osm_type": "node",
      "name": "MOD Pizza",
      "brand": "MOD Pizza",
      "latitude": 38.1324646,
      "longitude": -122.2184567,
      "address": "Plaza Drive",
      "city": "Vallejo",
      "state": "CA",
      "postcode": "94591",
      "phone": "+1 707-350-9340",
      "website": "https://locations.modpizza.com/usa/ca/vallejo/163-plaza-dr",
      "opening_hours": "Mo-Th 10:30-22:00; Fr-Sa 10:30-23:00; Su 10:30-22:00",
      "amenity_type": "fast_food",
      "cuisine": "pizza"
    },
    {
      "osm_id": 2834328914,
      "osm_type": "node",
      "name": "MOD Pizza",
      "brand": "MOD Pizza",
      "latitude": 47.6814552,
      "longitude": -122.123005,
      "address": "161st Avenue Northeast",
      "city": "Redmond",
      "state": "WA",
      "postcode": "98052",
      "phone": "+1-425-497-5104",
      "website": "https://locations.modpizza.com/usa/wa/redmond/8900-161st-ave-ne",
      "opening_hours": "Mo-We 10:30-22:00; Th-Sa 10:30-23:00; Su 10:30-22:00",
      "amenity_type": "fast_food",
      "cuisine": "pizza"
    },
    {
      "osm_id": 2934799245,
      "osm_type": "node",
      "name": "MOD Pizza",
      "brand": "MOD Pizza",
      "latitude": 47.8505773,
      "longitude": -122.2184626,
      "address": "Bothell-Everett Highway",
      "city": "Mill Creek",
      "state": "",
      "postcode": "98012",
      "phone": "+1-425-582-5901",
      "website": "https://locations.modpizza.com/usa/wa/mill-creek/16330-bothell-everett-hwy",
      "opening_hours": "Su-Th 10:30-22:00; Fr-Sa 10:30-23:00",
      "amenity_type": "fast_food",
      "cuisine": "pizza"
    },
    {
      "osm_id": 3137716588,
      "osm_type": "node",
      "name": "MOD Pizza",
      "brand": "MOD Pizza",
      "latitude": 38.5947098,
      "longitude": -121.4158409,
      "address": "Arden Way",
      "city": "Sacramento",
      "state": "CA",
      "postcode": "95825",
      "phone": "+1 916-515-9834",
      "website": "https://locations.modpizza.com/usa/ca/sacramento/2100-arden-way",
      "opening_hours": "Mo-We 11:00-22:00; Th-Sa 11:00-22:30; Su 11:00-22:00",
      "amenity_type": "fast_food",
      "cuisine": "pizza"
    },
    {
      "osm_id": 3315749921,
      "osm_type": "node",
      "name": "MOD Pizza",
      "brand": "MOD Pizza",
      "latitude": 47.6094914,
      "longitude": -122.3326687,
      "address": "6th Avenue",
      "city": "Seattle",
      "state": "WA",
      "postcode": "98101",
      "phone": "+1-206-332-0200",
      "website": "https://modpizza.com/locations/downtown-seattle",
      "opening_hours": "Mo-We 10:30-22:00; Th-Sa 10:30-23:00; Su 10:30-22:00",
      "amenity_type": "fast_food",
      "cuisine": "pizza"
    },
    {
      "osm_id": 3340890293,
      "osm_type": "node",
      "name": "MOD Pizza",
      "brand": "MOD Pizza",
      "latitude": 30.1612853,
      "longitude": -97.7919106,
      "address": "9600 IH 35 C-200",
      "city": "Austin",
      "state": "TX",
      "postcode": "78748",
      "phone": "+1 512-291-5050",
      "website": "https://locations.modpizza.com/usa/tx/austin/9600-s-ih-35",
      "opening_hours": "Mo-We 10:30-22:00; Th-Sa 10:30-23:00; Su 10:30-22:00",
      "amenity_type": "fast_food",
      "cuisine": "pizza"
    },
    {
      "osm_id": 3355109585,
      "osm_type": "node",
      "name": "MOD Pizza",
      "brand": "MOD Pizza",
      "latitude": 47.6584538,
      "longitude": -122.31253,
      "address": "Northeast 42nd Street",
      "city": "Seattle",
      "state": "WA",
      "postcode": "98105",
      "phone": "+1-206-632-7111",
      "website": "https://locations.modpizza.com/usa/wa/seattle/1414-ne-42nd-st",
      "opening_hours": "Su-Th 10:30-22:00; Fr-Sa 10:30-23:00",
      "amenity_type": "fast_food",
      "cuisine": "pizza"
    },
    {
      "osm_id": 3518065402,
      "osm_type": "node",
      "name": "MOD Pizza",
      "brand": "MOD Pizza",
      "latitude": 47.8196647,
      "longitude": -122.3168536,
      "address": "Highway 99",
      "city": "Lynnwood",
      "state": "",
      "postcode": "98036",
      "phone": "+1-425-582-5392",
      "website": "https://locations.modpizza.com/usa/wa/lynnwood/19718-hwy-99",
      "opening_hours": "Mo-We,Su 10:30-22:00; Th-Sa 10:30-23:00",
      "amenity_type": "fast_food",
      "cuisine": "pizza"
    },
    {
      "osm_id": 3637834239,
      "osm_type": "node",
      "name": "MOD Pizza",
      "brand": "MOD Pizza",
      "latitude": 47.3585371,
      "longitude": -122.166841,
      "address": "Kent-Kangley Road",
      "city": "Kent",
      "state": "WA",
      "postcode": "98030",
      "phone": "+1-253-216-7025",
      "website": "https://locations.modpizza.com/usa/wa/kent/13030-kent-kangley-rd",
      "opening_hours": "Mo-We 10:30-22:00; Th-Sa 10:30-23:00; Su 10:30-22:00",
      "amenity_type": "fast_food",
      "cuisine": "pizza"
    },
    {
      "osm_id": 3722074026,
      "osm_type": "node",
      "name": "MOD Pizza",
      "brand": "MOD Pizza",
      "latitude": 47.7528271,
      "longitude": -122.280156,
      "address": "Bothell Way Northeast",
      "city": "Lake Forest Park",
      "state": "WA",
      "postcode": "98155",
      "phone": "+1-206-204-7760",
      "website": "https://locations.modpizza.com/usa/wa/lake-forest-park/17171-bothell-way-ne",
      "opening_hours": "Mo-We 10:30-22:00; Th-Sa 10:30-23:00; Su 10:30-22:00",
      "amenity_type": "fast_food",
      "cuisine": "pizza"
    },
    {
      "osm_id": 3723486120,
      "osm_type": "node",
      "name": "MOD Pizza",
      "brand": "MOD Pizza",
      "latitude": 47.6162773,
      "longitude": -122.0335647,
      "address": "Northeast 8th Street",
      "city": "Sammamish",
      "state": "WA",
      "postcode": "98074",
      "phone": "+1-425-836-7345",
      "website": "https://modpizza.com/locations/sammamish/",
      "opening_hours": "Su-Th 10:30-22:00; Fr-Sa 10:30-23:00",
      "amenity_type": "fast_food",
      "cuisine": "pizza"
    },
    {
      "osm_id": 3728512236,
      "osm_type": "node",
      "name": "MOD Pizza",
      "brand": "MOD Pizza",
      "latitude": 40.724975,
      "longitude": -111.862305,
      "address": "East 2100 South",
      "city": "Salt Lake City",
      "state": "UT",
      "postcode": "84106",
      "phone": "+1 385-393-0201",
      "website": "https://locations.modpizza.com/usa/ut/salt-lake-city/1010-e-2100-s",
      "opening_hours": "Mo-Th 10:30-22:00; Fr-Sa 10:30-23:00; Su 10:30-22:00",
      "amenity_type": "fast_food",
      "cuisine": "pizza"
    },
    {
      "osm_id": 3782331710,
      "osm_type": "node",
      "name": "MOD Pizza",
      "brand": "MOD Pizza",
      "latitude": 40.1563597,
      "longitude": -75.1411653,
      "address": "Welsh Road",
      "city": "Willow Grove",
      "state": "PA",
      "postcode": "19090",
      "phone": "+1 267-948-2180",
      "website": "https://locations.modpizza.com/usa/pa/willow-grove/4025-welsh-rd",
      "opening_hours": "Mo-Th 10:30-22:00; Fr-Sa 10:30-23:00; Su 10:30-22:00",
      "amenity_type": "fast_food",
      "cuisine": "pizza"
    },
    {
      "osm_id": 3802766482,
      "osm_type": "node",
      "name": "MOD Pizza",
      "brand": "MOD Pizza",
      "latitude": 29.7494484,
      "longitude": -95.4785691,
      "address": "San Felipe Street",
      "city": "Houston",
      "state": "TX",
      "postcode": "77057",
      "phone": "+1 713-343-4758",
      "website": "https://locations.modpizza.com/usa/tx/houston/5777-san-felipe-st",
      "opening_hours": "10:30-22:00",
      "amenity_type": "fast_food",
      "cuisine": "pizza"
    },
    {
      "osm_id": 3807360143,
      "osm_type": "node",
      "name": "MOD Pizza",
      "brand": "MOD Pizza",
      "latitude": 47.5418616,
      "longitude": -122.018669,
      "address": "Highlands Drive Northeast",
      "city": "Issaquah",
      "state": "WA",
      "postcode": "98029",
      "phone": "+1-425-313-4663",
      "website": "https://locations.modpizza.com/usa/wa/issaquah/1464-highlands-dr-ne",
      "opening_hours": "Mo-We 10:30-22:00; Th-Sa 10:30-23:00; Su 10:30-22:00",
      "amenity_type": "fast_food",
      "cuisine": "pizza"
    },
    {
      "osm_id": 3903603205,
      "osm_type": "node",
      "name": "MOD Pizza",
      "brand": "MOD Pizza",
      "latitude": 45.6161557,
      "longitude": -122.4782722,
      "address": "Southeast Mill Plain Boulevard",
      "city": "Vancouver",
      "state": "WA",
      "postcode": "98683",
      "phone": "+1-360-254-4663",
      "website": "https://locations.modpizza.com/usa/wa/vancouver/19151-se-mill-plain-blvd",
      "opening_hours": "Mo-We 10:30-22:00; Th-Sa 10:30-23:00; Su 10:30-22:00",
      "amenity_type": "fast_food",
      "cuisine": "pizza"
    },
    {
      "osm_id": 3952635871,
      "osm_type": "node",
      "name": "MOD Pizza",
      "brand": "MOD Pizza",
      "latitude": 39.2141273,
      "longitude": -76.865311,
      "address": "Town Center Avenue",
      "city": "Columbia",
      "state": "MD",
      "postcode": "21044",
      "phone": "+1 240-865-5607",
      "website": "https://locations.modpizza.com/usa/md/columbia/10000-town-center-ave",
      "opening_hours": "Su-Th 10:30-22:00; Fr-Sa 10:30-23:00",
      "amenity_type": "fast_food",
      "cuisine": "pizza"
    },
    {
      "osm_id": 3961992013,
      "osm_type": "node",
      "name": "MOD Pizza",
      "brand": "MOD Pizza",
      "latitude": 34.0272617,
      "longitude": -118.3925122,
      "address": "Venice Boulevard",
      "city": "Los Angeles",
      "state": "CA",
      "postcode": "90034",
      "phone": "+1 424-345-9282",
      "website": "https://locations.modpizza.com/usa/ca/los-angeles/8985-venice-blvd",
      "opening_hours": "10:30-22:00",
      "amenity_type": "fast_food",
      "cuisine": "pizza"
    },
    {
      "osm_id": 3968475528,
      "osm_type": "node",
      "name": "MOD Pizza",
      "brand": "MOD Pizza",
      "latitude": 38.7892165,
      "longitude": -77.6070672,
      "address": "Promenade Commons Street",
      "city": "Gainesville",
      "state": "VA",
      "postcode": "20155",
      "phone": "+1 571-222-2088",
      "website": "https://modpizza.com/locations/gainesville/",
      "opening_hours": "Su-Th 10:30-22:00; Fr,Sa 10:30-23:00",
      "amenity_type": "fast_food",
      "cuisine": "pizza"
    },
    {
      "osm_id": 4015588730,
      "osm_type": "node",
      "name": "MOD Pizza",
      "brand": "MOD Pizza",
      "latitude": 45.5888132,
      "longitude": -122.5965286,
      "address": "Northeast Airport Way",
      "city": "Portland",
      "state": "OR",
      "postcode": "97218",
      "phone": "+1-971-230-7090",
      "website": "https://locations.modpizza.com/usa/or/portland/7000-ne-airport-way",
      "opening_hours": "06:00-22:15",
      "amenity_type": "fast_food",
      "cuisine": "pizza"
    },
    {
      "osm_id": 4029528411,
      "osm_type": "node",
      "name": "MOD Pizza",
      "brand": "MOD Pizza",
      "latitude": 37.2486708,
      "longitude": -121.803014,
      "address": "Cottle Road",
      "city": "San Jose",
      "state": "CA",
      "postcode": "95123",
      "phone": "+1 669-400-5375",
      "website": "https://locations.modpizza.com/usa/ca/san-jose/5670-cottle-road",
      "opening_hours": "Mo-We 10:30-22:00; Th-Sa 10:30-23:00; Su 10:30-22:00",
      "amenity_type": "fast_food",
      "cuisine": "pizza"
    },
    {
      "osm_id": 4033114037,
      "osm_type": "node",
      "name": "MOD Pizza",
      "brand": "MOD Pizza",
      "latitude": 40.6398289,
      "longitude": -75.4346421,
      "address": "Airport Road",
      "city": "Allentown",
      "state": "PA",
      "postcode": "18109",
      "phone": "+1 484-488-3800",
      "website": "https://locations.modpizza.com/usa/pa/allentown/1878-airport-rd",
      "opening_hours": "Mo-Th 10:30-22:00; Fr-Sa 10:30-23:00; Su 10:30-22:00",
      "amenity_type": "fast_food",
      "cuisine": "pizza"
    },
    {
      "osm_id": 4122148289,
      "osm_type": "node",
      "name": "MOD Pizza",
      "brand": "MOD Pizza",
      "latitude": 30.3032221,
      "longitude": -97.6989543,
      "address": "East 51st Street",
      "city": "Austin",
      "state": "TX",
      "postcode": "78723",
      "phone": "+1 512-687-2670",
      "website": "https://modpizza.com/locations/mueller-market/",
      "opening_hours": "Su-Th 10:30-22:00; Fr-Sa 10:30-23:00",
      "amenity_type": "fast_food",
      "cuisine": "pizza"
    },
    {
      "osm_id": 4176835016,
      "osm_type": "node",
      "name": "MOD Pizza",
      "brand": "MOD Pizza",
      "latitude": 37.1547809,
      "longitude": -121.6506324,
      "address": "Cochrane Road",
      "city": "Morgan Hill",
      "state": "CA",
      "postcode": "95037",
      "phone": "+1 669-258-0000",
      "website": "https://locations.modpizza.com/usa/ca/morgan-hill/1031-cochrane-rd",
      "opening_hours": "Mo-We 10:30-22:00; Th-Sa 10:30-23:00; Su 10:30-22:00",
      "amenity_type": "fast_food",
      "cuisine": "pizza"
    },
    {
      "osm_id": 4193610905,
      "osm_type": "node",
      "name": "MOD Pizza",
      "brand": "MOD Pizza",
      "latitude": 30.2904293,
      "longitude": -97.8264868,
      "address": "Capital of Texas Highway",
      "city": "West Lake Hills",
      "state": "TX",
      "postcode": "78746",
      "phone": "+1 512-792-5423",
      "website": "https://locations.modpizza.com/usa/tx/west-lake-hills/701-s-capital-of-texas-highway",
      "opening_hours": "Mo-We 10:30-22:00; Th-Sa 10:30-23:00; Su 10:30-22:00",
      "amenity_type": "fast_food",
      "cuisine": "pizza"
    },
    {
      "osm_id": 4226228626,
      "osm_type": "node",
      "name": "MOD Pizza",
      "brand": "MOD Pizza",
      "latitude": 47.6100242,
      "longitude": -117.365161,
      "address": "East Palouse Highway",
      "city": "Spokane",
      "state": "WA",
      "postcode": "99223",
      "phone": "+1-509-570-7060",
      "website": "https://locations.modpizza.com/usa/wa/spokane/3104-e-palouse-hwy",
      "opening_hours": "Mo-We 10:30-22:00; Th-Sa 10:30-23:00; Su 10:30-22:00",
      "amenity_type": "fast_food",
      "cuisine": "pizza"
    },
    {
      "osm_id": 4251684893,
      "osm_type": "node",
      "name": "MOD Pizza",
      "brand": "MOD Pizza",
      "latitude": 47.8496483,
      "longitude": -122.2719118,
      "address": "164th Street Southwest",
      "city": "Lynnwood",
      "state": "WA",
      "postcode": "98087",
      "phone": "+1-425-745-2209",
      "website": "https://modpizza.com/locations/alderwood/",
      "opening_hours": "Mo-We 10:30-22:00; Th-Sa 10:30-23:00; Su 10:30-22:00",
      "amenity_type": "fast_food",
      "cuisine": "pizza"
    },
    {
      "osm_id": 4284768189,
      "osm_type": "node",
      "name": "MOD Pizza",
      "brand": "MOD Pizza",
      "latitude": 29.7319739,
      "longitude": -95.4661732,
      "address": "Richmond Avenue",
      "city": "Houston",
      "state": "TX",
      "postcode": "77056",
      "phone": "+1 832-290-7723",
      "website": "https://locations.modpizza.com/usa/tx/houston/5174-richmond-ave",
      "opening_hours": "Mo-We 10:30-22:00; Th-Sa 10:30-23:00; Su 10:30-22:00",
      "amenity_type": "fast_food",
      "cuisine": "pizza"
    },
    {
      "osm_id": 4314081084,
      "osm_type": "node",
      "name": "MOD Pizza",
      "brand": "MOD Pizza",
      "latitude": 47.9259238,
      "longitude": -122.22359,
      "address": "Evergreen Way",
      "city": "Everett",
      "state": "WA",
      "postcode": "98203",
      "phone": "+1-425-309-7626",
      "website": "https://locations.modpizza.com/usa/wa/everett/7909-evergreen-way",
      "opening_hours": "Mo-We 10:00-22:00; Th-Fr 10:00-23:00; Sa 10:30-23:00; Su 10:30-22:00",
      "amenity_type": "fast_food",
      "cuisine": "pizza"
    },
    {
      "osm_id": 4345274819,
      "osm_type": "node",
      "name": "MOD Pizza",
      "brand": "MOD Pizza",
      "latitude": 45.5384048,
      "longitude": -122.869823,
      "address": "Northeast 106th Avenue",
      "city": "Hillsboro",
      "state": "OR",
      "postcode": "97124",
      "phone": "+1 971-327-4379",
      "website": "https://locations.modpizza.com/usa/or/hillsboro/2540-ne-106th-ave",
      "opening_hours": "Mo-We 10:30-22:00; Th-Sa 10:30-23:00; Su 10:30-22:00",
      "amenity_type": "fast_food",
      "cuisine": "pizza"
    },
    {
      "osm_id": 4355066462,
      "osm_type": "node",
      "name": "MOD Pizza",
      "brand": "MOD Pizza",
      "latitude": 39.4108339,
      "longitude": -104.8729747,
      "address": "Factory Shops Boulevard",
      "city": "Castle Rock",
      "state": "CO",
      "postcode": "80108",
      "phone": "+1 720-616-4500",
      "website": "https://modpizza.com/locations/castle-rock/",
      "opening_hours": "Su-Th 10:30-21:00; Fr-Sa 10:30-22:00",
      "amenity_type": "fast_food",
      "cuisine": "pizza"
    },
    {
      "osm_id": 4370531741,
      "osm_type": "node",
      "name": "MOD Pizza",
      "brand": "MOD Pizza",
      "latitude": 41.7735594,
      "longitude": -88.1479963,
      "address": "South Washington Street",
      "city": "Naperville",
      "state": "IL",
      "postcode": "60540",
      "phone": "+1 630-544-3471",
      "website": "https://modpizza.com/locations/downtown-naperville/",
      "opening_hours": "Mo-Th, Su 10:30-22:00; Fr-Sa 10:30-23:00",
      "amenity_type": "fast_food",
      "cuisine": "pizza"
    },
    {
      "osm_id": 4388462875,
      "osm_type": "node",
      "name": "MOD Pizza",
      "brand": "MOD Pizza",
      "latitude": 30.4054932,
      "longitude": -97.6738353,
      "address": "West Canyon Ridge Drive",
      "city": "",
      "state": "TX",
      "postcode": "78753",
      "phone": "+1 512-975-7095",
      "website": "",
      "opening_hours": "Mo-We 10:30-22:00; Th-Sa 10:30-23:00; Su 10:30-22:00",
      "amenity_type": "fast_food",
      "cuisine": "pizza"
    },
    {
      "osm_id": 4400587383,
      "osm_type": "node",
      "name": "MOD Pizza",
      "brand": "MOD Pizza",
      "latitude": 33.5769922,
      "longitude": -117.702042,
      "address": "Moulton Parkway",
      "city": "Laguna Hills",
      "state": "CA",
      "postcode": "92653",
      "phone": "+1 949-238-4616",
      "website": "https://locations.modpizza.com/usa/ca/laguna-hills/26562-a-moulton-pkwy",
      "opening_hours": "Mo-Th 10:30-22:00; Fr-Sa 10:30-23:00; Su 10:30-22:00",
      "amenity_type": "fast_food",
      "cuisine": "pizza"
    },
    {
      "osm_id": 4423880300,
      "osm_type": "node",
      "name": "MOD Pizza",
      "brand": "MOD Pizza",
      "latitude": 38.9795114,
      "longitude": -76.5451431,
      "address": "Forest Drive",
      "city": "Annapolis",
      "state": "MD",
      "postcode": "21401",
      "phone": "+1 443-321-9892",
      "website": "https://locations.modpizza.com/usa/md/annapolis/2341-forest-dr",
      "opening_hours": "Mo-Th 10:30-22:00; Fr-Sa 10:30-23:00; Su 10:30-22:00",
      "amenity_type": "fast_food",
      "cuisine": "pizza"
    },
    {
      "osm_id": 4461363893,
      "osm_type": "node",
      "name": "MOD Pizza",
      "brand": "MOD Pizza",
      "latitude": 47.3615454,
      "longitude": -122.0223958,
      "address": "Southeast Kent-Kangley Road",
      "city": "Maple Valley",
      "state": "WA",
      "postcode": "98038",
      "phone": "+1-425-578-9093",
      "website": "https://locations.modpizza.com/usa/wa/maple-valley/23916-a-se-kent-kangley-rd",
      "opening_hours": "Mo-We,Su 10:30-22:00; Th-Sa 10:30-23:00",
      "amenity_type": "fast_food",
      "cuisine": "pizza"
    },
    {
      "osm_id": 4469024463,
      "osm_type": "node",
      "name": "MOD Pizza",
      "brand": "MOD Pizza",
      "latitude": 30.0127883,
      "longitude": -97.8620915,
      "address": "Evans Drive",
      "city": "Kyle",
      "state": "TX",
      "postcode": "78640",
      "phone": "+1-877-929-2355",
      "website": "https://modpizza.com/",
      "opening_hours": "Su-We 10:30-22:00; Th-Sa 10:30-23:00",
      "amenity_type": "fast_food",
      "cuisine": "pizza"
    },
    {
      "osm_id": 4513310619,
      "osm_type": "node",
      "name": "MOD Pizza",
      "brand": "MOD Pizza",
      "latitude": 47.7003801,
      "longitude": -117.4478558,
      "address": "West Wellesley Avenue",
      "city": "Spokane",
      "state": "WA",
      "postcode": "99205",
      "phone": "+1-509-326-1650",
      "website": "https://locations.modpizza.com/usa/wa/spokane/2503-w-wellesley-ave",
      "opening_hours": "Mo-We 10:30-22:00; Th-Sa 10:30-23:00; Su 10:30-22:00",
      "amenity_type": "fast_food",
      "cuisine": "pizza"
    },
    {
      "osm_id": 4514634689,
      "osm_type": "node",
      "name": "MOD Pizza",
      "brand": "MOD Pizza",
      "latitude": 35.8577623,
      "longitude": -78.6802651,
      "address": "West Millbrook Road",
      "city": "Raleigh",
      "state": "NC",
      "postcode": "27612",
      "phone": "+1 919-987-3668",
      "website": "https://locations.modpizza.com/usa/nc/raleigh/2071-w-millbrook-rd",
      "opening_hours": "Mo-Su 10:30-22:00",
      "amenity_type": "fast_food",
      "cuisine": "pizza"
    },
    {
      "osm_id": 4543969101,
      "osm_type": "node",
      "name": "MOD Pizza",
      "brand": "MOD Pizza",
      "latitude": 38.8996169,
      "longitude": -77.2667559,
      "address": "Maple Avenue West",
      "city": "Vienna",
      "state": "VA",
      "postcode": "22180",
      "phone": "+1 703-679-1860",
      "website": "https://locations.modpizza.com/usa/va/vienna/168-maple-ave-w",
      "opening_hours": "Mo-Th 10:30-22:00; Fr-Sa 10:30-23:00; Su 10:30-22:00",
      "amenity_type": "fast_food",
      "cuisine": "pizza"
    },
    {
      "osm_id": 4585845863,
      "osm_type": "node",
      "name": "MOD Pizza",
      "brand": "MOD Pizza",
      "latitude": 44.0636592,
      "longitude": -123.076622,
      "address": "Coburg Road",
      "city": "Eugene",
      "state": "OR",
      "postcode": "97401",
      "phone": "+1 458-205-8910",
      "website": "https://locations.modpizza.com/usa/or/eugene/203-coburg-rd",
      "opening_hours": "Su-We 10:30-22:00; Th-Sa 10:30-23:00",
      "amenity_type": "fast_food",
      "cuisine": "pizza"
    },
    {
      "osm_id": 4680620977,
      "osm_type": "node",
      "name": "MOD Pizza",
      "brand": "MOD Pizza",
      "latitude": 45.8485541,
      "longitude": -122.8304952,
      "address": "Gable Road",
      "city": "Saint Helens",
      "state": "",
      "postcode": "97051",
      "phone": "+1 503-410-5218",
      "website": "https://locations.modpizza.com/usa/or/st.-helens/2298-gable-rd",
      "opening_hours": "Su-Th 10:30-21:00, Fr,Sa 10:30-22:00",
      "amenity_type": "fast_food",
      "cuisine": "pizza"
    },
    {
      "osm_id": 4680817811,
      "osm_type": "node",
      "name": "MOD Pizza",
      "brand": "MOD Pizza",
      "latitude": 44.0264611,
      "longitude": -123.0900469,
      "address": "East 29th Avenue",
      "city": "Eugene",
      "state": "OR",
      "postcode": "97405",
      "phone": "+1 541-515-6554",
      "website": "https://locations.modpizza.com/usa/or/eugene/77-e-29th-ave",
      "opening_hours": "Mo-We 10:30-22:00; Th-Sa 10:30-23:00; Su 10:30-22:00",
      "amenity_type": "fast_food",
      "cuisine": "pizza"
    },
    {
      "osm_id": 4692944036,
      "osm_type": "node",
      "name": "MOD Pizza",
      "brand": "MOD Pizza",
      "latitude": 38.880849,
      "longitude": -77.3985331,
      "address": "Route 50",
      "city": "Chantilly",
      "state": "VA",
      "postcode": "20151",
      "phone": "+1 703-679-1825",
      "website": "https://locations.modpizza.com/usa/va/fairfax/13061-lee-jackson-memorial-hwy",
      "opening_hours": "Su-We 22:30-22:00, Th-Sa 10:30-23:00",
      "amenity_type": "fast_food",
      "cuisine": "pizza"
    },
    {
      "osm_id": 4719489865,
      "osm_type": "node",
      "name": "MOD Pizza",
      "brand": "MOD Pizza",
      "latitude": 45.6188015,
      "longitude": -122.5542299,
      "address": "Southeast Chkalov Drive",
      "city": "Vancouver",
      "state": "WA",
      "postcode": "98683",
      "phone": "+1-360-952-4915",
      "website": "https://locations.modpizza.com/usa/wa/vancouver/305-se-chkalov-dr",
      "opening_hours": "Mo-We 10:30-22:00; Th-Sa 10:30-23:00; Su 10:30-22:00",
      "amenity_type": "fast_food",
      "cuisine": "pizza"
    },
    {
      "osm_id": 4721352428,
      "osm_type": "node",
      "name": "MOD Pizza",
      "brand": "MOD Pizza",
      "latitude": 45.7701028,
      "longitude": -122.5498791,
      "address": "Southwest Scotton Way",
      "city": "Battle Ground",
      "state": "WA",
      "postcode": "98604",
      "phone": "+1-360-342-8077",
      "website": "https://locations.modpizza.com/usa/wa/battle-ground/1214-sw-scotton-way",
      "opening_hours": "Mo-We 10:30-22:00; Th-Sa 10:30-23:00; Su 10:30-22:00",
      "amenity_type": "fast_food",
      "cuisine": "pizza"
    },
    {
      "osm_id": 4792394676,
      "osm_type": "node",
      "name": "MOD Pizza",
      "brand": "MOD Pizza",
      "latitude": 42.3423647,
      "longitude": -122.8834257,
      "address": "Rossanley Drive",
      "city": "Medford",
      "state": "OR",
      "postcode": "97501",
      "phone": "+1 541-773-3561",
      "website": "https://modpizza.com/locations/north-medford/",
      "opening_hours": "Mo-Th,Su 10:30-22:00; Fr,Sa 10:30-23:00",
      "amenity_type": "fast_food",
      "cuisine": "pizza"
    },
    {
      "osm_id": 4809024488,
      "osm_type": "node",
      "name": "MOD Pizza",
      "brand": "MOD Pizza",
      "latitude": 37.9939633,
      "longitude": -122.2858932,
      "address": "Pinole Valley Road",
      "city": "Pinole",
      "state": "CA",
      "postcode": "94564",
      "phone": "+1 510-662-3172",
      "website": "https://locations.modpizza.com/usa/ca/pinole/2830-pinole-valley-rd",
      "opening_hours": "10:30-23:00",
      "amenity_type": "fast_food",
      "cuisine": "pizza"
    },
    {
      "osm_id": 4848032355,
      "osm_type": "node",
      "name": "MOD Pizza",
      "brand": "MOD Pizza",
      "latitude": 39.025269,
      "longitude": -94.2472067,
      "address": "Northeast Coronado Drive",
      "city": "Blue Springs",
      "state": "MO",
      "postcode": "64014",
      "phone": "+1 816-406-0963",
      "website": "https://locations.modpizza.com/usa/mo/blue-springs/1112-ne-coronado-dr",
      "opening_hours": "Mo-Th 11:00-21:00; Fr-Sa 11:00-22:00; Su 11:00-21:00",
      "amenity_type": "fast_food",
      "cuisine": "pizza"
    },
    {
      "osm_id": 4883897646,
      "osm_type": "node",
      "name": "MOD Pizza",
      "brand": "MOD Pizza",
      "latitude": 46.9965744,
      "longitude": -122.8171533,
      "address": "Yelm Highway Southeast",
      "city": "Lacey",
      "state": "WA",
      "postcode": "98503",
      "phone": "+1-360-918-0023",
      "website": "https://locations.modpizza.com/usa/wa/lacey/5128-yelm-hwy-se",
      "opening_hours": "Mo-We 10:30-22:00; Th-Sa 10:30-23:00; Su 10:30-22:00",
      "amenity_type": "fast_food",
      "cuisine": "pizza"
    },
    {
      "osm_id": 4893992282,
      "osm_type": "node",
      "name": "MOD Pizza",
      "brand": "MOD Pizza",
      "latitude": 47.890541,
      "longitude": -122.287064,
      "address": "Mukilteo Speedway",
      "city": "Mukilteo",
      "state": "WA",
      "postcode": "98275",
      "phone": "+1-425-553-2605",
      "website": "https://locations.modpizza.com/usa/wa/mukilteo/11706-mukilteo-speedway",
      "opening_hours": "Mo-We 10:00-22:00; Th-Fr 10:00-23:00; Sa 10:30-23:00; Su 10:30-22:00",
      "amenity_type": "fast_food",
      "cuisine": "pizza"
    },
    {
      "osm_id": 4934743863,
      "osm_type": "node",
      "name": "MOD Pizza",
      "brand": "MOD Pizza",
      "latitude": 46.5748216,
      "longitude": -120.4896247,
      "address": "South 1st Street",
      "city": "Yakima",
      "state": "WA",
      "postcode": "98903",
      "phone": "+1-509-759-7315",
      "website": "https://locations.modpizza.com/usa/wa/yakima/1905-south-1st-st",
      "opening_hours": "Mo-We 10:30-22:00; Th-Sa 10:30-23:00; Su 10:30-22:00",
      "amenity_type": "fast_food",
      "cuisine": "pizza"
    },
    {
      "osm_id": 4976388984,
      "osm_type": "node",
      "name": "MOD Pizza",
      "brand": "MOD Pizza",
      "latitude": 34.1240521,
      "longitude": -80.8728044,
      "address": "Two Notch Road",
      "city": "Columbia",
      "state": "SC",
      "postcode": "29229",
      "phone": "+1 803-400-2467",
      "website": "https://locations.modpizza.com/usa/sc/columbia/10296-two-notch-rd",
      "opening_hours": "Mo-Th,Su 11:00-21:00; Fr-Sa 11:00-22:00",
      "amenity_type": "fast_food",
      "cuisine": "pizza"
    },
    {
      "osm_id": 5030573753,
      "osm_type": "node",
      "name": "MOD Pizza",
      "brand": "MOD Pizza",
      "latitude": 35.098868,
      "longitude": -80.989033,
      "address": "RiverGate View",
      "city": "Charlotte",
      "state": "NC",
      "postcode": "28273",
      "phone": "+1 980-474-3325",
      "website": "https://locations.modpizza.com/usa/nc/charlotte/14318-rivergate-view",
      "opening_hours": "Mo-Th 10:30-22:00; Fr-Sa 10:30-23:00; Su 10:30-22:00",
      "amenity_type": "fast_food",
      "cuisine": "pizza"
    },
    {
      "osm_id": 5057441918,
      "osm_type": "node",
      "name": "MOD Pizza",
      "brand": "MOD Pizza",
      "latitude": 38.9384896,
      "longitude": -104.7974186,
      "address": "North Academy Boulevard",
      "city": "Colorado Springs",
      "state": "CO",
      "postcode": "80920",
      "phone": "+1 719-219-1912",
      "website": "https://locations.modpizza.com/usa/co/colorado-springs/7447-n-academy-blvd",
      "opening_hours": "Mo-Th 10:30-21:00; Fr-Sa 10:30-22:00; Su 10:30-21:00",
      "amenity_type": "fast_food",
      "cuisine": "pizza"
    },
    {
      "osm_id": 5107900527,
      "osm_type": "node",
      "name": "MOD Pizza",
      "brand": "MOD Pizza",
      "latitude": 41.1783423,
      "longitude": -111.9993171,
      "address": "West Riverdale Road",
      "city": "Riverdale",
      "state": "UT",
      "postcode": "84405",
      "phone": "+1 385-389-2124",
      "website": "https://locations.modpizza.com/usa/ut/riverdale/841-w-riverdale-rd",
      "opening_hours": "Mo-Th 10:30-22:00; Fr-Sa 10:30-23:00; Su 10:30-22:00",
      "amenity_type": "fast_food",
      "cuisine": "pizza"
    },
    {
      "osm_id": 5110005198,
      "osm_type": "node",
      "name": "MOD Pizza",
      "brand": "MOD Pizza",
      "latitude": 29.9281737,
      "longitude": -95.2034401,
      "address": "East Sam Houston Parkway North",
      "city": "Houston",
      "state": "TX",
      "postcode": "77044",
      "phone": "+1 346-203-4125",
      "website": "https://locations.modpizza.com/usa/tx/houston/14303-east-sam-houston-pkwy-n",
      "opening_hours": "Mo-We 10:30-22:00; Th-Sa 10:30-23:00; Su 10:30-22:00",
      "amenity_type": "fast_food",
      "cuisine": "pizza"
    },
    {
      "osm_id": 5120886271,
      "osm_type": "node",
      "name": "MOD Pizza",
      "brand": "MOD Pizza",
      "latitude": 47.663443,
      "longitude": -122.6963073,
      "address": "Pacific Crest Place Northwest",
      "city": "Silverdale",
      "state": "WA",
      "postcode": "98383",
      "phone": "+1-360-204-5641",
      "website": "https://locations.modpizza.com/usa/wa/silverdale/11065-pacific-crest-pl-nw",
      "opening_hours": "Mo-We 10:30-22:00; Th-Sa 10:30-23:00; Su 10:30-22:00",
      "amenity_type": "fast_food",
      "cuisine": "pizza"
    },
    {
      "osm_id": 5141981112,
      "osm_type": "node",
      "name": "MOD Pizza",
      "brand": "MOD Pizza",
      "latitude": 33.6503494,
      "longitude": -78.9830758,
      "address": "South Commons Drive",
      "city": "Myrtle Beach",
      "state": "SC",
      "postcode": "29588",
      "phone": "+1 843-668-2958",
      "website": "https://locations.modpizza.com/usa/sc/myrtle-beach/1370-s-commons-dr",
      "opening_hours": "Su-Th 10:30-21:00; Fr-Sa 10:30-22:00",
      "amenity_type": "fast_food",
      "cuisine": "pizza"
    },
    {
      "osm_id": 5196672725,
      "osm_type": "node",
      "name": "MOD Pizza",
      "brand": "MOD Pizza",
      "latitude": 47.2006953,
      "longitude": -121.9901251,
      "address": "Stevenson Avenue",
      "city": "Enumclaw",
      "state": "WA",
      "postcode": "98022",
      "phone": "+1-360-284-9247",
      "website": "https://locations.modpizza.com/usa/wa/enumclaw/1040-stevenson-ave",
      "opening_hours": "Mo-We 10:30-22:00; Th-Sa 10:30-23:00; Su 10:30-22:00",
      "amenity_type": "fast_food",
      "cuisine": "pizza"
    },
    {
      "osm_id": 5244644105,
      "osm_type": "node",
      "name": "MOD Pizza",
      "brand": "MOD Pizza",
      "latitude": 48.0516349,
      "longitude": -122.1774175,
      "address": "State Avenue",
      "city": "Marysville",
      "state": "WA",
      "postcode": "98270",
      "phone": "+1-360-651-2161",
      "website": "https://locations.modpizza.com/usa/wa/marysville/319-state-ave",
      "opening_hours": "Mo-We 10:30-22:00; Th-Sa 10:30-23:00; Su 10:30-22:00",
      "amenity_type": "fast_food",
      "cuisine": "pizza"
    },
    {
      "osm_id": 5256216661,
      "osm_type": "node",
      "name": "MOD Pizza",
      "brand": "MOD Pizza",
      "latitude": 29.7182429,
      "longitude": -95.8466287,
      "address": "FM 1463",
      "city": "Katy",
      "state": "TX",
      "postcode": "77494",
      "phone": "+1 346-707-8154",
      "website": "https://locations.modpizza.com/usa/tx/katy/5102-fm-1463",
      "opening_hours": "Mo-We 10:30-22:00; Th-Sa 10:30-23:00; Su 10:30-22:00",
      "amenity_type": "fast_food",
      "cuisine": "pizza"
    },
    {
      "osm_id": 5261431333,
      "osm_type": "node",
      "name": "MOD Pizza",
      "brand": "MOD Pizza",
      "latitude": 37.6967516,
      "longitude": -122.077369,
      "address": "Village Drive",
      "city": "Castro Valley",
      "state": "CA",
      "postcode": "94546",
      "phone": "+1 510-806-7650",
      "website": "https://locations.modpizza.com/usa/ca/castro-valley/3384-village-dr",
      "opening_hours": "Mo-We 10:30-22:00; Th-Sa 10:30-23:00; Su 10:30-22:00",
      "amenity_type": "fast_food",
      "cuisine": "pizza"
    },
    {
      "osm_id": 5264710594,
      "osm_type": "node",
      "name": "MOD Pizza",
      "brand": "MOD Pizza",
      "latitude": 33.2479886,
      "longitude": -111.8406976,
      "address": "South Arizona Avenue",
      "city": "Chandler",
      "state": "AZ",
      "postcode": "85248",
      "phone": "+1 602-283-2819",
      "website": "https://locations.modpizza.com/usa/az/chandler/3977-s-arizona-ave",
      "opening_hours": "Mo-Th 10:30-22:00; Fr-Sa 10:30-23:00; Su 10:30-22:00",
      "amenity_type": "fast_food",
      "cuisine": "pizza"
    },
    {
      "osm_id": 5279034137,
      "osm_type": "node",
      "name": "MOD Pizza",
      "brand": "MOD Pizza",
      "latitude": 37.9712824,
      "longitude": -122.0566544,
      "address": "Diamond Boulevard",
      "city": "Concord",
      "state": "CA",
      "postcode": "94520",
      "phone": "+1 925-452-6190",
      "website": "https://locations.modpizza.com/usa/ca/concord/2015-diamond-blvd",
      "opening_hours": "Mo-We 10:30-22:00; Th-Sa 10:30-23:00; Su 10:30-22:00",
      "amenity_type": "fast_food",
      "cuisine": "pizza"
    },
    {
      "osm_id": 5305853485,
      "osm_type": "node",
      "name": "MOD Pizza",
      "brand": "MOD Pizza",
      "latitude": 41.760231,
      "longitude": -87.944165,
      "address": "South Kingery Highway",
      "city": "Willowbrook",
      "state": "IL",
      "postcode": "60527",
      "phone": "+1 630-468-2099",
      "website": "https://locations.modpizza.com/usa/il/willowbrook/7135-s-kingery-hwy",
      "opening_hours": "Mo-Th 10:30-22:00; Fr-Sa 10:30-23:00; Su 10:30-22:00",
      "amenity_type": "fast_food",
      "cuisine": "pizza"
    },
    {
      "osm_id": 5314147083,
      "osm_type": "node",
      "name": "MOD Pizza",
      "brand": "MOD Pizza",
      "latitude": 45.5329886,
      "longitude": -122.934859,
      "address": "Northeast Cornell Road",
      "city": "Hillsboro",
      "state": "OR",
      "postcode": "97124",
      "phone": "+1 503-372-5834",
      "website": "https://locations.modpizza.com/usa/or/hillsboro/4554-ne-cornell-rd",
      "opening_hours": "Mo-Su 10:30-20:00",
      "amenity_type": "fast_food",
      "cuisine": "pizza"
    },
    {
      "osm_id": 5321096611,
      "osm_type": "node",
      "name": "MOD Pizza",
      "brand": "MOD Pizza",
      "latitude": 32.3388832,
      "longitude": -111.0463655,
      "address": "West Ina Road",
      "city": "Tucson",
      "state": "AZ",
      "postcode": "85741",
      "phone": "+1 520-800-6540",
      "website": "https://locations.modpizza.com/usa/az/tucson/3780-w-ina-rd",
      "opening_hours": "Su-Th 10:30-22:00, Fr-Sa 10:30-23:00",
      "amenity_type": "fast_food",
      "cuisine": "pizza"
    },
    {
      "osm_id": 5323036916,
      "osm_type": "node",
      "name": "MOD Pizza",
      "brand": "MOD Pizza",
      "latitude": 33.2967331,
      "longitude": -111.743688,
      "address": "South Santan Village Parkway",
      "city": "Gilbert",
      "state": "AZ",
      "postcode": "85295",
      "phone": "+1 480-214-6305",
      "website": "https://modpizza.com/locations/santan",
      "opening_hours": "Mo-Th 10:30-22:00; Fr-Sa 10:30-23:00; Su 10:30-22:00",
      "amenity_type": "fast_food",
      "cuisine": "pizza"
    },
    {
      "osm_id": 5344050183,
      "osm_type": "node",
      "name": "MOD Pizza",
      "brand": "MOD Pizza",
      "latitude": 38.9705216,
      "longitude": -76.9371085,
      "address": "Woodberry Street",
      "city": "Riverdale Park",
      "state": "MD",
      "postcode": "20737",
      "phone": "+1 240-825-4256",
      "website": "https://modpizza.com/locations/riverdale-park/",
      "opening_hours": "Su-Th 10:30-22:00; Fr,Sa 10:30-23:00",
      "amenity_type": "fast_food",
      "cuisine": "pizza"
    },
    {
      "osm_id": 5378358036,
      "osm_type": "node",
      "name": "MOD Pizza",
      "brand": "MOD Pizza",
      "latitude": 39.9314867,
      "longitude": -76.6863648,
      "address": "Pauline Drive",
      "city": "York",
      "state": "PA",
      "postcode": "17402",
      "phone": "+1 717-472-4060",
      "website": "https://locations.modpizza.com/usa/pa/york/114-pauline-dr",
      "opening_hours": "Su-Th 10:30-21:00; Fr-Sa 10:30-22:00",
      "amenity_type": "fast_food",
      "cuisine": "pizza"
    },
    {
      "osm_id": 5383814499,
      "osm_type": "node",
      "name": "MOD Pizza",
      "brand": "MOD Pizza",
      "latitude": 38.8003807,
      "longitude": -121.2038415,
      "address": "",
      "city": "",
      "state": "",
      "postcode": "",
      "phone": "+1-916-824-1052",
      "website": "",
      "opening_hours": "",
      "amenity_type": "fast_food",
      "cuisine": "pizza"
    },
    {
      "osm_id": 5387928687,
      "osm_type": "node",
      "name": "MOD Pizza",
      "brand": "MOD Pizza",
      "latitude": 48.7699375,
      "longitude": -122.443895,
      "address": "Newmarket Street",
      "city": "Bellingham",
      "state": "WA",
      "postcode": "98226",
      "phone": "+1-360-746-8563",
      "website": "https://locations.modpizza.com/usa/wa/bellingham/2925-newmarket-st",
      "opening_hours": "Su-We 10:30-22:00; Th-Sa 10:30-23:00",
      "amenity_type": "fast_food",
      "cuisine": "pizza"
    },
    {
      "osm_id": 5456913402,
      "osm_type": "node",
      "name": "MOD Pizza",
      "brand": "MOD Pizza",
      "latitude": 38.8123226,
      "longitude": -94.4932771,
      "address": "Foxwood Drive",
      "city": "Raymore",
      "state": "MO",
      "postcode": "64083",
      "phone": "+1 816-406-1787",
      "website": "https://locations.modpizza.com/usa/mo/raymore/1937-foxwood-dr",
      "opening_hours": "Mo-Th 11:00-21:00; Fr-Sa 11:00-22:00; Su 11:00-21:00",
      "amenity_type": "fast_food",
      "cuisine": "pizza"
    },
    {
      "osm_id": 5459422881,
      "osm_type": "node",
      "name": "MOD Pizza",
      "brand": "MOD Pizza",
      "latitude": 42.1402559,
      "longitude": -83.2251052,
      "address": "Allen Road",
      "city": "Woodhaven",
      "state": "MI",
      "postcode": "48183",
      "phone": "+1 734-759-1055",
      "website": "https://locations.modpizza.com/usa/mi/woodhaven/23071-allen-rd",
      "opening_hours": "10:30-23:00",
      "amenity_type": "fast_food",
      "cuisine": "pizza"
    },
    {
      "osm_id": 5519761417,
      "osm_type": "node",
      "name": "MOD Pizza",
      "brand": "MOD Pizza",
      "latitude": 34.1923559,
      "longitude": -118.937728,
      "address": "Broadbeck Drive",
      "city": "Thousand Oaks",
      "state": "CA",
      "postcode": "91320",
      "phone": "+1 805-214-7010",
      "website": "https://locations.modpizza.com/usa/ca/thousand-oaks/1015-broadbeck-dr",
      "opening_hours": "Mo-Th 10:30-22:00; Fr-Sa 10:30-23:00; Su 10:30-22:00",
      "amenity_type": "fast_food",
      "cuisine": "pizza"
    },
    {
      "osm_id": 5565105982,
      "osm_type": "node",
      "name": "MOD Pizza",
      "brand": "MOD Pizza",
      "latitude": 47.162016,
      "longitude": -122.5184342,
      "address": "Gravelly Lake Drive Southwest",
      "city": "Lakewood",
      "state": "WA",
      "postcode": "98499",
      "phone": "+1-253-584-1586",
      "website": "https://locations.modpizza.com/usa/wa/lakewood/10427-gravelly-lake-dr-sw",
      "opening_hours": "Mo-Sa 10:20-22:00",
      "amenity_type": "fast_food",
      "cuisine": "pizza"
    },
    {
      "osm_id": 5567350277,
      "osm_type": "node",
      "name": "MOD Pizza",
      "brand": "MOD Pizza",
      "latitude": 40.0666138,
      "longitude": -76.3143209,
      "address": "Fruitville Pike",
      "city": "Lancaster",
      "state": "PA",
      "postcode": "17601",
      "phone": "+1 717-219-4550",
      "website": "https://locations.modpizza.com/usa/pa/lancaster/1581-fruitville-pike",
      "opening_hours": "Mo-Th,Su 10:30-22:00; Fr-Sa 10:30-23:00",
      "amenity_type": "fast_food",
      "cuisine": "pizza"
    },
    {
      "osm_id": 5572465518,
      "osm_type": "node",
      "name": "MOD Pizza",
      "brand": "MOD Pizza",
      "latitude": 39.9604506,
      "longitude": -105.1643398,
      "address": "West Dillon Road",
      "city": "Louisville",
      "state": "CO",
      "postcode": "80027",
      "phone": "+1 303-736-2481",
      "website": "https://locations.modpizza.com/usa/co/louisville/994-w-dillon-rd",
      "opening_hours": "Mo-Th 10:30-21:00; Fr-Sa 10:30-22:00; Su 10:30-21:00",
      "amenity_type": "fast_food",
      "cuisine": "pizza"
    },
    {
      "osm_id": 5628753550,
      "osm_type": "node",
      "name": "MOD Pizza",
      "brand": "MOD Pizza",
      "latitude": 38.7445881,
      "longitude": -90.636618,
      "address": "Mid Rivers Mall Drive",
      "city": "Cottleville",
      "state": "",
      "postcode": "63304",
      "phone": "+1 636-336-9000",
      "website": "https://locations.modpizza.com/usa/mo/cottleville/6091-mid-rivers-mall-dr",
      "opening_hours": "Mo-Th 10:30-22:00; Fr-Sa 10:30-23:00; Su 10:30-22:00",
      "amenity_type": "fast_food",
      "cuisine": "pizza"
    },
    {
      "osm_id": 5659611109,
      "osm_type": "node",
      "name": "MOD Pizza",
      "brand": "MOD Pizza",
      "latitude": 30.0517006,
      "longitude": -95.1802902,
      "address": "Kingwood Drive",
      "city": "Kingwood",
      "state": "TX",
      "postcode": "77345",
      "phone": "+1 281-360-0036",
      "website": "https://locations.modpizza.com/usa/tx/kingwood/4537-kingwood-dr",
      "opening_hours": "Mo-We 10:30-22:00; Th-Sa 10:30-23:00; Su 10:30-22:00",
      "amenity_type": "fast_food",
      "cuisine": "pizza"
    },
    {
      "osm_id": 5732113633,
      "osm_type": "node",
      "name": "MOD Pizza",
      "brand": "MOD Pizza",
      "latitude": 33.7579437,
      "longitude": -78.9689777,
      "address": "Debo Drive",
      "city": "Myrtle Beach",
      "state": "SC",
      "postcode": "29579",
      "phone": "+1 843-236-0798",
      "website": "https://locations.modpizza.com/usa/sc/myrtle-beach/107-debo-dr",
      "opening_hours": "Mo-Th 10:30-21:00; Fr-Sa 10:30-22:00; Su 10:30-21:00",
      "amenity_type": "fast_food",
      "cuisine": "pizza"
    },
    {
      "osm_id": 5737030411,
      "osm_type": "node",
      "name": "MOD Pizza",
      "brand": "MOD Pizza",
      "latitude": 40.6241667,
      "longitude": -111.8602964,
      "address": "Fort Union Boulevard",
      "city": "Midvale",
      "state": "UT",
      "postcode": "84047",
      "phone": "+1 385-247-2477",
      "website": "https://locations.modpizza.com/usa/ut/midvale/1148-fort-union-blvd",
      "opening_hours": "Mo-Th 10:30-22:00; Fr-Sa 10:30-23:00; Su 10:30-22:00",
      "amenity_type": "fast_food",
      "cuisine": "pizza"
    },
    {
      "osm_id": 5778167953,
      "osm_type": "node",
      "name": "MOD Pizza",
      "brand": "MOD Pizza",
      "latitude": 47.7569466,
      "longitude": -122.1546657,
      "address": "Garden Way Northeast",
      "city": "Woodinville",
      "state": "WA",
      "postcode": "98072",
      "phone": "+1-425-471-7903",
      "website": "https://locations.modpizza.com/usa/wa/woodinville/17848-garden-way-ne",
      "opening_hours": "Mo-We 10:30-22:00; Th-Sa 10:30-23:00; Su 10:30-22:00",
      "amenity_type": "fast_food",
      "cuisine": "pizza"
    },
    {
      "osm_id": 5788273497,
      "osm_type": "node",
      "name": "MOD Pizza",
      "brand": "MOD Pizza",
      "latitude": 38.7163999,
      "longitude": -76.6588579,
      "address": "Dunkirk Way",
      "city": "Dunkirk",
      "state": "MD",
      "postcode": "20754",
      "phone": "+1 443 550 1007",
      "website": "https://modpizza.com/locations/dunkirk/",
      "opening_hours": "Mo-We,Su 10:30-22:00; Th-Sa 10:30-23:00",
      "amenity_type": "fast_food",
      "cuisine": "pizza"
    },
    {
      "osm_id": 5805096884,
      "osm_type": "node",
      "name": "MOD Pizza",
      "brand": "MOD Pizza",
      "latitude": 40.2315488,
      "longitude": -75.1366343,
      "address": "Main Street",
      "city": "Warrington",
      "state": "PA",
      "postcode": "18976",
      "phone": "+1 267-488-2169",
      "website": "https://modpizza.com/locations/warrington/",
      "opening_hours": "Su-Th 10:30-22:00; Fr-Sa 10:30-23:00",
      "amenity_type": "fast_food",
      "cuisine": "pizza"
    },
    {
      "osm_id": 5859861517,
      "osm_type": "node",
      "name": "MOD Pizza",
      "brand": "MOD Pizza",
      "latitude": 39.0266558,
      "longitude": -104.8240415,
      "address": "Bass Pro Drive",
      "city": "Colorado Springs",
      "state": "CO",
      "postcode": "80921",
      "phone": "+1-719-487-3137",
      "website": "https://locations.modpizza.com/usa/co/colorado-springs/13461-bass-pro-dr",
      "opening_hours": "Mo-Th 10:30-21:00; Fr-Sa 10:30-22:00; Su 10:30-21:00",
      "amenity_type": "fast_food",
      "cuisine": "pizza"
    },
    {
      "osm_id": 5925474930,
      "osm_type": "node",
      "name": "MOD Pizza",
      "brand": "MOD Pizza",
      "latitude": 44.0600638,
      "longitude": -122.997061,
      "address": "Olympic Street",
      "city": "Springfield",
      "state": "OR",
      "postcode": "97477",
      "phone": "+1 458-201-5438",
      "website": "https://locations.modpizza.com/usa/or/springfield/1820-olympic-st",
      "opening_hours": "Mo-We 10:30-22:00; Th-Sa 10:30-23:00; Su 10:30-22:00",
      "amenity_type": "fast_food",
      "cuisine": "pizza"
    },
    {
      "osm_id": 5929427926,
      "osm_type": "node",
      "name": "MOD Pizza",
      "brand": "MOD Pizza",
      "latitude": 40.6512322,
      "longitude": -75.2950197,
      "address": "Freemansburg Avenue",
      "city": "Easton",
      "state": "PA",
      "postcode": "18045",
      "phone": "+1 484-935-0006",
      "website": "https://modpizza.com/locations/madison-farms/",
      "opening_hours": "Su-Th 10:30-22:00; Fr-Sa 10:30-23:00",
      "amenity_type": "fast_food",
      "cuisine": "pizza"
    },
    {
      "osm_id": 5939723387,
      "osm_type": "node",
      "name": "MOD Pizza",
      "brand": "MOD Pizza",
      "latitude": 42.2231864,
      "longitude": -83.3502915,
      "address": "",
      "city": "",
      "state": "",
      "postcode": "",
      "phone": "",
      "website": "",
      "opening_hours": "",
      "amenity_type": "fast_food",
      "cuisine": "pizza"
    },
    {
      "osm_id": 6069763987,
      "osm_type": "node",
      "name": "MOD Pizza",
      "brand": "MOD Pizza",
      "latitude": 38.2157506,
      "longitude": -85.626692,
      "address": "",
      "city": "",
      "state": "",
      "postcode": "",
      "phone": "",
      "website": "",
      "opening_hours": "",
      "amenity_type": "fast_food",
      "cuisine": "pizza"
    },
    {
      "osm_id": 6083488398,
      "osm_type": "node",
      "name": "MOD Pizza",
      "brand": "MOD Pizza",
      "latitude": 39.5579129,
      "longitude": -104.7779636,
      "address": "Cottonwood Drive",
      "city": "Parker",
      "state": "CO",
      "postcode": "80138",
      "phone": "+1 720-586-8558",
      "website": "https://locations.modpizza.com/usa/co/parker/18300-cottonwood-dr",
      "opening_hours": "10:30-21:00; Fr,Sa 10:30-22:00",
      "amenity_type": "fast_food",
      "cuisine": "pizza"
    },
    {
      "osm_id": 6136375189,
      "osm_type": "node",
      "name": "MOD Pizza",
      "brand": "MOD Pizza",
      "latitude": 37.7559415,
      "longitude": -121.4636214,
      "address": "Naglee Road",
      "city": "Tracy",
      "state": "CA",
      "postcode": "95304",
      "phone": "+1 209-278-0056",
      "website": "https://locations.modpizza.com/usa/ca/tracy/2682-naglee-rd",
      "opening_hours": "10:30-22:00",
      "amenity_type": "fast_food",
      "cuisine": "pizza"
    },
    {
      "osm_id": 6136938680,
      "osm_type": "node",
      "name": "MOD Pizza",
      "brand": "MOD Pizza",
      "latitude": 47.4463536,
      "longitude": -122.261577,
      "address": "Southcenter Parkway",
      "city": "Tukwila",
      "state": "",
      "postcode": "98188",
      "phone": "+1-206-736-6157",
      "website": "https://locations.modpizza.com/usa/wa/tukwila/17430-southcenter-parkway",
      "opening_hours": "Su-We 10:30-22:00; Th-Sa 10:30-23:00",
      "amenity_type": "fast_food",
      "cuisine": "pizza"
    },
    {
      "osm_id": 6154417162,
      "osm_type": "node",
      "name": "MOD Pizza",
      "brand": "MOD Pizza",
      "latitude": 42.0022222,
      "longitude": -88.3368744,
      "address": "South Randall Road",
      "city": "Elgin",
      "state": "IL",
      "postcode": "60123",
      "phone": "+1 224-204-2970",
      "website": "https://locations.modpizza.com/usa/il/elgin/1190-s-randall-rd",
      "opening_hours": "Mo-Th 10:30-22:00; Fr-Sa 10:30-23:00; Su 10:30-22:00",
      "amenity_type": "fast_food",
      "cuisine": "pizza"
    },
    {
      "osm_id": 6240996260,
      "osm_type": "node",
      "name": "MOD Pizza",
      "brand": "MOD Pizza",
      "latitude": 45.5102358,
      "longitude": -122.4341261,
      "address": "Northwest Eastman Parkway",
      "city": "Gresham",
      "state": "OR",
      "postcode": "97030",
      "phone": "+1 503-328-3620",
      "website": "https://locations.modpizza.com/usa/or/gresham/1844-nw-eastman-pkwy",
      "opening_hours": "Mo-We 10:30-22:00; Th-Sa 10:30-23:00; Su 10:30-22:00",
      "amenity_type": "fast_food",
      "cuisine": "pizza"
    },
    {
      "osm_id": 6250121323,
      "osm_type": "node",
      "name": "MOD Pizza",
      "brand": "MOD Pizza",
      "latitude": 33.4723427,
      "longitude": -111.7017484,
      "address": "North Recker Road",
      "city": "Mesa",
      "state": "AZ",
      "postcode": "85215",
      "phone": "+1 480-210-1615",
      "website": "https://locations.modpizza.com/usa/az/mesa/3130-n-recker-rd.",
      "opening_hours": "Mo-Th 10:30-22:00; Fr-Sa 10:30-23:00; Su 10:30-22:00",
      "amenity_type": "fast_food",
      "cuisine": "pizza"
    },
    {
      "osm_id": 6258734509,
      "osm_type": "node",
      "name": "MOD Pizza",
      "brand": "MOD Pizza",
      "latitude": 39.5988765,
      "longitude": -104.7100362,
      "address": "East Smoky Hill Road",
      "city": "Aurora",
      "state": "CO",
      "postcode": "80016",
      "phone": "+1 720-508-8690",
      "website": "https://locations.modpizza.com/usa/co/aurora/23890-e-smoky-hill-rd",
      "opening_hours": "Mo-Th 10:30-21:00; Fr-Sa 10:30-22:00; Su 10:30-21:00",
      "amenity_type": "fast_food",
      "cuisine": "pizza"
    },
    {
      "osm_id": 6268264990,
      "osm_type": "node",
      "name": "MOD Pizza",
      "brand": "MOD Pizza",
      "latitude": 47.7907542,
      "longitude": -122.214613,
      "address": "Bothell Everett Highway",
      "city": "Bothell",
      "state": "WA",
      "postcode": "98021",
      "phone": "+1-425-419-5578",
      "website": "https://locations.modpizza.com/usa/wa/bothell/22833-bothell-everett-hwy",
      "opening_hours": "Mo-We 10:30-22:00; Th-Sa 10:30-23:00; Su 10:30-22:00",
      "amenity_type": "fast_food",
      "cuisine": "pizza"
    },
    {
      "osm_id": 6301193139,
      "osm_type": "node",
      "name": "MOD Pizza",
      "brand": "MOD Pizza",
      "latitude": 35.039801,
      "longitude": -80.8467591,
      "address": "Ballancroft Parkway",
      "city": "Charlotte",
      "state": "NC",
      "postcode": "28277",
      "phone": "+1 980-999-4900",
      "website": "https://locations.modpizza.com/usa/nc/charlotte/15127-ballancroft-pkwy",
      "opening_hours": "10:30-22:00",
      "amenity_type": "fast_food",
      "cuisine": "pizza"
    },
    {
      "osm_id": 6351458696,
      "osm_type": "node",
      "name": "MOD Pizza",
      "brand": "MOD Pizza",
      "latitude": 46.2563787,
      "longitude": -119.3133941,
      "address": "Queensgate Drive",
      "city": "Richland",
      "state": "WA",
      "postcode": "99352",
      "phone": "+1-509-628-1515",
      "website": "https://locations.modpizza.com/usa/wa/richland/2803-queensgate-dr",
      "opening_hours": "Su-Th 10:30-22:00; Fr-Sa 10:30-23:00; PH unknown",
      "amenity_type": "fast_food",
      "cuisine": "pizza"
    },
    {
      "osm_id": 6356649984,
      "osm_type": "node",
      "name": "MOD Pizza",
      "brand": "MOD Pizza",
      "latitude": 42.3094579,
      "longitude": -122.8514671,
      "address": "Center Drive",
      "city": "Medford",
      "state": "",
      "postcode": "97501",
      "phone": "+1 541-414-2990",
      "website": "https://locations.modpizza.com/usa/or/medford/1429-center-dr",
      "opening_hours": "Mo-Th,Su 10:30-22:00; Fr,Sa 10:30-23:00",
      "amenity_type": "fast_food",
      "cuisine": "pizza"
    },
    {
      "osm_id": 6362730369,
      "osm_type": "node",
      "name": "MOD Pizza",
      "brand": "MOD Pizza",
      "latitude": 40.004182,
      "longitude": -105.1035003,
      "address": "Diamond Circle",
      "city": "Lafayette",
      "state": "CO",
      "postcode": "80026",
      "phone": "+1 720-502-3486",
      "website": "https://locations.modpizza.com/usa/co/lafayette/1137-diamond-circle",
      "opening_hours": "Mo-Th 10:30-21:00; Fr-Sa 10:30-22:00; Su 10:30-21:00",
      "amenity_type": "fast_food",
      "cuisine": "pizza"
    },
    {
      "osm_id": 6369155125,
      "osm_type": "node",
      "name": "MOD Pizza",
      "brand": "MOD Pizza",
      "latitude": 38.2854007,
      "longitude": -122.2743238,
      "address": "Soscol Avenue",
      "city": "Napa",
      "state": "CA",
      "postcode": "94559",
      "phone": "+1 707-346-6758",
      "website": "https://locations.modpizza.com/usa/ca/napa/304-soscol-ave",
      "opening_hours": "Mo-We 10:30-22:00; Th-Sa 10:30-23:00; Su 10:30-22:00",
      "amenity_type": "fast_food",
      "cuisine": "pizza"
    },
    {
      "osm_id": 6374801587,
      "osm_type": "node",
      "name": "MOD Pizza",
      "brand": "MOD Pizza",
      "latitude": 39.9869529,
      "longitude": -75.4060407,
      "address": "West Chester Pike",
      "city": "Newtown Square",
      "state": "PA",
      "postcode": "19073",
      "phone": "+1 484-420-2895",
      "website": "https://locations.modpizza.com/usa/pa/newtown-square/3741-west-chester-pike",
      "opening_hours": "Mo-We,Su 10:30-22:00; Th-Sa 10:30-23:00",
      "amenity_type": "fast_food",
      "cuisine": "pizza"
    },
    {
      "osm_id": 6401774124,
      "osm_type": "node",
      "name": "MOD Pizza",
      "brand": "MOD Pizza",
      "latitude": 34.3494795,
      "longitude": -84.04964,
      "address": "Marketplace Boulevard",
      "city": "Dawsonville",
      "state": "GA",
      "postcode": "30534",
      "phone": "+1 706-531-0090",
      "website": "https://locations.modpizza.com/usa/ga/dawsonville/215-marketplace-blvd",
      "opening_hours": "Mo-Th 10:30-22:00; Fr-Sa 10:30-23:00; Su 10:30-22:00",
      "amenity_type": "fast_food",
      "cuisine": "pizza"
    },
    {
      "osm_id": 6408223168,
      "osm_type": "node",
      "name": "MOD Pizza",
      "brand": "MOD Pizza",
      "latitude": 42.9008506,
      "longitude": -87.9150314,
      "address": "West Town Square Way",
      "city": "Oak Creek",
      "state": "WI",
      "postcode": "53154",
      "phone": "+1 262-330-0027",
      "website": "https://locations.modpizza.com/usa/wi/oak-creek/160-w-town-square-way",
      "opening_hours": "Mo-Th 10:30-22:00; Fr-Sa 10:30-23:00; Su 10:30-22:00",
      "amenity_type": "fast_food",
      "cuisine": "pizza"
    },
    {
      "osm_id": 6416446954,
      "osm_type": "node",
      "name": "MOD Pizza",
      "brand": "MOD Pizza",
      "latitude": 36.8737407,
      "longitude": -76.4226273,
      "address": "University Boulevard",
      "city": "Suffolk",
      "state": "VA",
      "postcode": "23435",
      "phone": "+1 757-538-7590",
      "website": "https://locations.modpizza.com/usa/va/suffolk/1013-university-blvd",
      "opening_hours": "Mo-Th 10:30-22:00; Fr-Sa 10:30-23:00; Su 10:30-22:00",
      "amenity_type": "fast_food",
      "cuisine": "pizza"
    },
    {
      "osm_id": 6429063583,
      "osm_type": "node",
      "name": "MOD Pizza",
      "brand": "MOD Pizza",
      "latitude": 42.6353249,
      "longitude": -83.1323665,
      "address": "South Rochester Road",
      "city": "Rochester Hills",
      "state": "MI",
      "postcode": "48307",
      "phone": "+1 248-923-3545",
      "website": "https://locations.modpizza.com/usa/mi/rochester-hills/3058-s-rochester-rd",
      "opening_hours": "10:30-23:00",
      "amenity_type": "fast_food",
      "cuisine": "pizza"
    },
    {
      "osm_id": 6439970703,
      "osm_type": "node",
      "name": "MOD Pizza",
      "brand": "MOD Pizza",
      "latitude": 39.8744781,
      "longitude": -75.5439063,
      "address": "Wilmington Pike",
      "city": "Glen Mills",
      "state": "PA",
      "postcode": "19342",
      "phone": "+1 484-785-8145",
      "website": "https://locations.modpizza.com/usa/pa/glen-mills/1751-wilmington-pike",
      "opening_hours": "Mo-We,Su 10:30-22:00; Th-Sa 10:30-23:00",
      "amenity_type": "fast_food",
      "cuisine": "pizza"
    },
    {
      "osm_id": 6453178537,
      "osm_type": "node",
      "name": "MOD Pizza",
      "brand": "MOD Pizza",
      "latitude": 39.0775764,
      "longitude": -76.5447906,
      "address": "Ritchie Highway",
      "city": "Severna Park",
      "state": "MD",
      "postcode": "21146",
      "phone": "+1 410-544-1872",
      "website": "https://locations.modpizza.com/usa/md/severna-park/553-ritchie-hwy",
      "opening_hours": "Mo-Su 10:30-22:00",
      "amenity_type": "fast_food",
      "cuisine": "pizza"
    },
    {
      "osm_id": 6465725746,
      "osm_type": "node",
      "name": "MOD Pizza",
      "brand": "MOD Pizza",
      "latitude": 42.4370777,
      "longitude": -123.3044186,
      "address": "Northeast Terry Lane",
      "city": "Grants Pass",
      "state": "OR",
      "postcode": "97526",
      "phone": "+1 541-204-3806",
      "website": "https://locations.modpizza.com/usa/or/grants-pass/200-ne-terry-lane",
      "opening_hours": "Mo-We 10:30-22:00; Th-Sa 10:30-23:00; Su 10:30-22:00",
      "amenity_type": "fast_food",
      "cuisine": "pizza"
    },
    {
      "osm_id": 6476673188,
      "osm_type": "node",
      "name": "MOD Pizza",
      "brand": "MOD Pizza",
      "latitude": 41.9482115,
      "longitude": -87.6880475,
      "address": "North Western Avenue",
      "city": "Chicago",
      "state": "IL",
      "postcode": "60618",
      "phone": "",
      "website": "",
      "opening_hours": "Mo-Th 10:00-21:00; Fr 10:00-22:00; Sa 10:30-22:00; Su 10:30-21:00",
      "amenity_type": "fast_food",
      "cuisine": "pizza"
    },
    {
      "osm_id": 6515217964,
      "osm_type": "node",
      "name": "MOD Pizza",
      "brand": "MOD Pizza",
      "latitude": 33.3047669,
      "longitude": -111.9941896,
      "address": "East Chandler Boulevard",
      "city": "Phoenix",
      "state": "AZ",
      "postcode": "85048",
      "phone": "+1 602-422-8875",
      "website": "https://locations.modpizza.com/usa/az/phoenix/4025-e-chandler-blvd",
      "opening_hours": "Mo-Th 10:30-22:00; Fr-Sa 10:30-23:00; Su 10:30-22:00",
      "amenity_type": "fast_food",
      "cuisine": "pizza"
    },
    {
      "osm_id": 6522689877,
      "osm_type": "node",
      "name": "MOD Pizza",
      "brand": "MOD Pizza",
      "latitude": 37.6849388,
      "longitude": -77.5864254,
      "address": "Wyndham Forest Drive",
      "city": "Glen Allen",
      "state": "VA",
      "postcode": "23059",
      "phone": "+1 804-215-0974",
      "website": "https://locations.modpizza.com/usa/va/glen-allen/5466-wyndham-forest-dr",
      "opening_hours": "Mo-Th 10:30-22:00; Fr-Sa 10:30-23:00; Su 10:30-22:00",
      "amenity_type": "fast_food",
      "cuisine": "pizza"
    },
    {
      "osm_id": 6531578968,
      "osm_type": "node",
      "name": "MOD Pizza",
      "brand": "MOD Pizza",
      "latitude": 37.6119741,
      "longitude": -77.3364458,
      "address": "Mechanicsville Turnpike",
      "city": "Mechanicsville",
      "state": "VA",
      "postcode": "23111",
      "phone": "+1 804-537-0081",
      "website": "https://locations.modpizza.com/usa/va/mechanicsville/7001-mechanicsville-turnpike",
      "opening_hours": "Mo-Th 10:30-22:00; Fr-Sa 10:30-23:00; Su 10:30-22:00",
      "amenity_type": "fast_food",
      "cuisine": "pizza"
    },
    {
      "osm_id": 6573374062,
      "osm_type": "node",
      "name": "MOD Pizza",
      "brand": "MOD Pizza",
      "latitude": 39.2458488,
      "longitude": -94.4494612,
      "address": "Star Drive",
      "city": "Liberty",
      "state": "MO",
      "postcode": "64068",
      "phone": "+1 816-407-9482",
      "website": "https://locations.modpizza.com/usa/mo/liberty/1912-star-dr",
      "opening_hours": "Mo-Th 11:00-21:00; Fr-Sa 11:00-22:00; Su 11:00-21:00",
      "amenity_type": "fast_food",
      "cuisine": "pizza"
    },
    {
      "osm_id": 6655625788,
      "osm_type": "node",
      "name": "MOD Pizza",
      "brand": "MOD Pizza",
      "latitude": 29.5499212,
      "longitude": -95.5822402,
      "address": "University Boulevard",
      "city": "Sugar Land",
      "state": "TX",
      "postcode": "77479",
      "phone": "+1 281-843-4009",
      "website": "https://locations.modpizza.com/usa/tx/sugar-land/18931-university-blvd",
      "opening_hours": "Mo-We 10:30-22:00; Th-Sa 10:30-23:00; Su 10:30-22:00",
      "amenity_type": "fast_food",
      "cuisine": "pizza"
    },
    {
      "osm_id": 6672873568,
      "osm_type": "node",
      "name": "MOD Pizza",
      "brand": "MOD Pizza",
      "latitude": 40.3953568,
      "longitude": -104.7485328,
      "address": "Centerplace Drive",
      "city": "Greeley",
      "state": "CO",
      "postcode": "80634",
      "phone": "+1 970-330-1344",
      "website": "https://locations.modpizza.com/usa/co/greeley/4365-centerplace-dr",
      "opening_hours": "Su-Th 10:30-21:00; Fr-Sa 10:30-22:00",
      "amenity_type": "fast_food",
      "cuisine": "pizza"
    },
    {
      "osm_id": 6700537032,
      "osm_type": "node",
      "name": "MOD Pizza",
      "brand": "MOD Pizza",
      "latitude": 42.1519143,
      "longitude": -87.8353551,
      "address": "South Waukegan Road",
      "city": "Deerfield",
      "state": "IL",
      "postcode": "60015",
      "phone": "+1 847-770-6499",
      "website": "https://locations.modpizza.com/usa/il/deerfield/70-s-waukegan-rd",
      "opening_hours": "Mo-Th 10:30-22:00; Fr-Sa 10:30-23:00; Su 10:30-22:00",
      "amenity_type": "fast_food",
      "cuisine": "pizza"
    },
    {
      "osm_id": 6727193861,
      "osm_type": "node",
      "name": "MOD Pizza",
      "brand": "MOD Pizza",
      "latitude": 39.970248,
      "longitude": -76.7694543,
      "address": "Town Center Drive",
      "city": "York",
      "state": "PA",
      "postcode": "17408",
      "phone": "+1 717-855-2568",
      "website": "https://locations.modpizza.com/usa/pa/york/370-town-center-dr",
      "opening_hours": "Su-Th 10:30-22:00;Fr-Sa 10:30-22:00",
      "amenity_type": "fast_food",
      "cuisine": "pizza"
    },
    {
      "osm_id": 6744684857,
      "osm_type": "node",
      "name": "MOD Pizza",
      "brand": "MOD Pizza",
      "latitude": 47.7035528,
      "longitude": -116.8075682,
      "address": "N Ramsey Road",
      "city": "Coeur d'Alene",
      "state": "ID",
      "postcode": "83814",
      "phone": "+1 208-277-9500",
      "website": "https://locations.modpizza.com/usa/id/coeur-dalene/2824-n-ramsey-rd",
      "opening_hours": "Mo-Th 10:30-22:00; Fr-Sa 10:30-23:00; Su 10:30-22:00",
      "amenity_type": "fast_food",
      "cuisine": "pizza"
    },
    {
      "osm_id": 6761915605,
      "osm_type": "node",
      "name": "MOD Pizza",
      "brand": "MOD Pizza",
      "latitude": 37.4036142,
      "longitude": -77.6695767,
      "address": "Hull Street Road",
      "city": "Chesterfield",
      "state": "VA",
      "postcode": "23832",
      "phone": "+1 804-215-4966",
      "website": "https://locations.modpizza.com/usa/va/chesterfield/14201-hull-street-rd",
      "opening_hours": "Mo-Th 10:30-22:00; Fr-Sa 10:30-23:00; Su 10:30-22:00",
      "amenity_type": "fast_food",
      "cuisine": "pizza"
    },
    {
      "osm_id": 6762948961,
      "osm_type": "node",
      "name": "MOD Pizza",
      "brand": "MOD Pizza",
      "latitude": 43.0610497,
      "longitude": -89.5036929,
      "address": "Sligo Drive",
      "city": "Madison",
      "state": "WI",
      "postcode": "53717",
      "phone": "+1 608-504-3890",
      "website": "https://locations.modpizza.com/usa/wi/madison/7019-sligo-dr",
      "opening_hours": "Mo-Th 10:30-22:00; Fr-Sa 10:30-23:00; Su 10:30-22:00",
      "amenity_type": "fast_food",
      "cuisine": "pizza"
    },
    {
      "osm_id": 6779714720,
      "osm_type": "node",
      "name": "MOD Pizza",
      "brand": "MOD Pizza",
      "latitude": 29.7749406,
      "longitude": -95.3827314,
      "address": "Taylor Street",
      "city": "Houston",
      "state": "TX",
      "postcode": "77007",
      "phone": "+1 713-862-4157",
      "website": "https://locations.modpizza.com/usa/tx/houston/1911-taylor-st",
      "opening_hours": "Su-We 10:30-22:00; Th-Sa 10:30-23:00",
      "amenity_type": "fast_food",
      "cuisine": "pizza"
    },
    {
      "osm_id": 6787018485,
      "osm_type": "node",
      "name": "MOD Pizza",
      "brand": "MOD Pizza",
      "latitude": 38.0408146,
      "longitude": -84.4281383,
      "address": "Winchester Road",
      "city": "Lexington",
      "state": "",
      "postcode": "40509",
      "phone": "+1 859-263-0110",
      "website": "https://locations.modpizza.com/usa/ky/lexington/2217-war-admiral-way",
      "opening_hours": "Mo-Th 11:00-21:00; Fr-Sa 11:00-22:00; Su 11:00-21:00",
      "amenity_type": "fast_food",
      "cuisine": "pizza"
    },
    {
      "osm_id": 6828602643,
      "osm_type": "node",
      "name": "MOD Pizza",
      "brand": "MOD Pizza",
      "latitude": 42.2684631,
      "longitude": -88.9905209,
      "address": "East State Street",
      "city": "Rockford",
      "state": "IL",
      "postcode": "61108",
      "phone": "+1 815-977-8941",
      "website": "https://locations.modpizza.com/usa/il/rockford/6470-e-state-st",
      "opening_hours": "Mo-Th 10:30-22:00; Fr-Sa 10:30-23:00; Su 10:30-22:00",
      "amenity_type": "fast_food",
      "cuisine": "pizza"
    },
    {
      "osm_id": 6872437768,
      "osm_type": "node",
      "name": "MOD Pizza",
      "brand": "MOD Pizza",
      "latitude": 39.4059675,
      "longitude": -76.7927362,
      "address": "Mill Run Circle",
      "city": "Owings Mills",
      "state": "MD",
      "postcode": "21117",
      "phone": "+1 410-517-7412",
      "website": "https://locations.modpizza.com/usa/md/owings-mills/10290-mill-run-circle",
      "opening_hours": "Mo-Th 10:30-22:00; Fr-Sa 10:30-23:00; Su 10:30-22:00",
      "amenity_type": "fast_food",
      "cuisine": "pizza"
    },
    {
      "osm_id": 6919356652,
      "osm_type": "node",
      "name": "MOD Pizza",
      "brand": "MOD Pizza",
      "latitude": 38.9688883,
      "longitude": -77.3769689,
      "address": "",
      "city": "",
      "state": "",
      "postcode": "",
      "phone": "",
      "website": "",
      "opening_hours": "",
      "amenity_type": "fast_food",
      "cuisine": "pizza"
    },
    {
      "osm_id": 6923479695,
      "osm_type": "node",
      "name": "MOD Pizza",
      "brand": "MOD Pizza",
      "latitude": 46.5849857,
      "longitude": -120.5433177,
      "address": "West Nob Hill Boulevard",
      "city": "Yakima",
      "state": "WA",
      "postcode": "98902",
      "phone": "+1-509-759-7364",
      "website": "https://locations.modpizza.com/usa/wa/yakima/2550-w-nob-hill-blvd",
      "opening_hours": "Mo-We 10:30-22:00; Th-Sa 10:30-23:00; Su 10:30-22:00",
      "amenity_type": "fast_food",
      "cuisine": "pizza"
    },
    {
      "osm_id": 6933558222,
      "osm_type": "node",
      "name": "MOD Pizza",
      "brand": "MOD Pizza",
      "latitude": 47.5780372,
      "longitude": -122.1690688,
      "address": "Factoria Boulevard Southeast",
      "city": "Bellevue",
      "state": "WA",
      "postcode": "98006",
      "phone": "+1-425-312-2860",
      "website": "https://locations.modpizza.com/usa/wa/bellevue/3622-factoria-blvd-se",
      "opening_hours": "Su-We 10:30-22:00; Th-Sa 10:30-23:00",
      "amenity_type": "fast_food",
      "cuisine": "pizza"
    },
    {
      "osm_id": 6944058019,
      "osm_type": "node",
      "name": "MOD Pizza",
      "brand": "MOD Pizza",
      "latitude": 39.664014,
      "longitude": -84.1079635,
      "address": "",
      "city": "",
      "state": "",
      "postcode": "",
      "phone": "",
      "website": "",
      "opening_hours": "",
      "amenity_type": "fast_food",
      "cuisine": "pizza"
    },
    {
      "osm_id": 6980143766,
      "osm_type": "node",
      "name": "MOD Pizza",
      "brand": "MOD Pizza",
      "latitude": 25.6886478,
      "longitude": -80.3861775,
      "address": "Mills Drive",
      "city": "Kendall",
      "state": "FL",
      "postcode": "33183",
      "phone": "+1 786-353-2923",
      "website": "https://locations.modpizza.com/usa/fl/kendall/8525-mills-dr",
      "opening_hours": "Mo-We 10:30-22:00; Th-Sa 10:30-23:00; Su 10:30-22:00",
      "amenity_type": "fast_food",
      "cuisine": "pizza"
    },
    {
      "osm_id": 7045577103,
      "osm_type": "node",
      "name": "MOD Pizza",
      "brand": "MOD Pizza",
      "latitude": 29.7494397,
      "longitude": -95.478916,
      "address": "San Felipe Street",
      "city": "",
      "state": "",
      "postcode": "",
      "phone": "",
      "website": "",
      "opening_hours": "",
      "amenity_type": "fast_food",
      "cuisine": "pizza"
    },
    {
      "osm_id": 7062850780,
      "osm_type": "node",
      "name": "MOD Pizza",
      "brand": "MOD Pizza",
      "latitude": 37.2582363,
      "longitude": -121.8745929,
      "address": "Cherry Avenue",
      "city": "San Jose",
      "state": "CA",
      "postcode": "95118",
      "phone": "+1 669-400-5744",
      "website": "https://locations.modpizza.com/usa/ca/san-jose/5130-cherry-ave",
      "opening_hours": "Mo-We 10:30-22:00; Th-Sa 10:30-23:00; Su 10:30-22:00",
      "amenity_type": "fast_food",
      "cuisine": "pizza"
    },
    {
      "osm_id": 7080395363,
      "osm_type": "node",
      "name": "MOD Pizza",
      "brand": "MOD Pizza",
      "latitude": 42.3649562,
      "longitude": -89.029775,
      "address": "West Lane Road",
      "city": "Machesney Park",
      "state": "IL",
      "postcode": "61115",
      "phone": "+1 815-977-8946",
      "website": "https://locations.modpizza.com/usa/il/machesney-park/1419-west-lane-rd",
      "opening_hours": "Mo-Th 10:30-22:00; Fr-Sa 10:30-23:00; Su 10:30-22:00",
      "amenity_type": "fast_food",
      "cuisine": "pizza"
    },
    {
      "osm_id": 7108419799,
      "osm_type": "node",
      "name": "MOD Pizza",
      "brand": "MOD Pizza",
      "latitude": 38.6703798,
      "longitude": -121.7257421,
      "address": "Bronze Star Drive",
      "city": "Woodland",
      "state": "CA",
      "postcode": "95776",
      "phone": "+1 530-669-6639",
      "website": "https://locations.modpizza.com/usa/ca/woodland/2051-bronze-star-dr",
      "opening_hours": "Mo-Th 11:00-21:30; Fr-Sa 11:00-22:00; Su 11:00-21:30",
      "amenity_type": "fast_food",
      "cuisine": "pizza"
    },
    {
      "osm_id": 7115975628,
      "osm_type": "node",
      "name": "MOD Pizza",
      "brand": "MOD Pizza",
      "latitude": 47.7434589,
      "longitude": -117.4086496,
      "address": "North Newport Highway",
      "city": "Spokane",
      "state": "WA",
      "postcode": "99218",
      "phone": "+1-509-290-5465",
      "website": "https://locations.modpizza.com/usa/wa/spokane/9405-n.-newport-hwy",
      "opening_hours": "Mo-We 10:30-22:00; Th-Sa 10:30-23:00; Su 10:30-22:00",
      "amenity_type": "fast_food",
      "cuisine": "pizza"
    },
    {
      "osm_id": 7130279575,
      "osm_type": "node",
      "name": "MOD Pizza",
      "brand": "MOD Pizza",
      "latitude": 34.279736,
      "longitude": -118.739726,
      "address": "Cochran Street",
      "city": "Simi Valley",
      "state": "CA",
      "postcode": "93065",
      "phone": "+1 805-842-4442",
      "website": "https://locations.modpizza.com/usa/ca/simi-valley/2941-cochran-st",
      "opening_hours": "Mo-Th 10:30-22:00; Fr-Sa 10:30-23:00; Su 10:30-22:00",
      "amenity_type": "fast_food",
      "cuisine": "pizza"
    },
    {
      "osm_id": 7137868387,
      "osm_type": "node",
      "name": "MOD Pizza",
      "brand": "MOD Pizza",
      "latitude": 34.7558911,
      "longitude": -86.7337592,
      "address": "Highway 72 West",
      "city": "Madison",
      "state": "AL",
      "postcode": "35758",
      "phone": "+1 256-970-4441",
      "website": "https://locations.modpizza.com/usa/al/madison/7616-us-hwy-72",
      "opening_hours": "Mo-Th 10:30-21:00; Fr-Sa 10:30-22:00; Su 10:30-21:00",
      "amenity_type": "fast_food",
      "cuisine": "pizza"
    },
    {
      "osm_id": 7212052785,
      "osm_type": "node",
      "name": "MOD Pizza",
      "brand": "MOD Pizza",
      "latitude": 29.4277936,
      "longitude": -98.712372,
      "address": "West Loop 1604 South",
      "city": "San Antonio",
      "state": "TX",
      "postcode": "78245",
      "phone": "+1 726-777-8141",
      "website": "https://locations.modpizza.com/usa/tx/san-antonio/407-west-loop-1604-s",
      "opening_hours": "Mo-We 10:30-22:00; Th-Sa 10:30-23:00; Su 10:30-22:00",
      "amenity_type": "fast_food",
      "cuisine": "pizza"
    },
    {
      "osm_id": 7217353763,
      "osm_type": "node",
      "name": "MOD Pizza",
      "brand": "MOD Pizza",
      "latitude": 40.4062818,
      "longitude": -104.9828598,
      "address": "Thompson Parkway",
      "city": "Johnstown",
      "state": "CO",
      "postcode": "80534",
      "phone": "+1 970-667-3762",
      "website": "https://locations.modpizza.com/usa/co/johnstown/4938-thompson-pkwy",
      "opening_hours": "Mo-Th 10:30-21:00; Fr-Sa 10:30-22:00; Su 10:30-21:00",
      "amenity_type": "fast_food",
      "cuisine": "pizza"
    },
    {
      "osm_id": 7264114045,
      "osm_type": "node",
      "name": "MOD Pizza",
      "brand": "MOD Pizza",
      "latitude": 43.0827244,
      "longitude": -88.2280685,
      "address": "Capitol Drive",
      "city": "Pewaukee",
      "state": "WI",
      "postcode": "53072",
      "phone": "+1 262-264-8284",
      "website": "https://locations.modpizza.com/usa/wi/pewaukee/1450-capital-dr",
      "opening_hours": "Mo-Th 10:30-22:00; Fr-Sa 10:30-23:00; Su 10:30-22:00",
      "amenity_type": "fast_food",
      "cuisine": "pizza"
    },
    {
      "osm_id": 7264224122,
      "osm_type": "node",
      "name": "MOD Pizza",
      "brand": "MOD Pizza",
      "latitude": 40.5096134,
      "longitude": -112.000191,
      "address": "West Partridge Hill Lane",
      "city": "Riverton",
      "state": "UT",
      "postcode": "84096",
      "phone": "+1 385-247-1056",
      "website": "https://locations.modpizza.com/usa/ut/riverton/4578-w-partridge-hill-lane",
      "opening_hours": "Su-Th 10:30-22:00; Fr-Sa 10:00-11:00",
      "amenity_type": "fast_food",
      "cuisine": "pizza"
    },
    {
      "osm_id": 7276128860,
      "osm_type": "node",
      "name": "MOD Pizza",
      "brand": "MOD Pizza",
      "latitude": 33.3825568,
      "longitude": -111.6004821,
      "address": "South Signal Butte Road",
      "city": "Mesa",
      "state": "AZ",
      "postcode": "85209",
      "phone": "+1 602-283-9836",
      "website": "https://locations.modpizza.com/usa/az/mesa/1804-s-signal-butte-rd",
      "opening_hours": "Mo-Th 10:30-22:00; Fr-Sa 10:30-23:00; Su 10:30-22:00",
      "amenity_type": "fast_food",
      "cuisine": "pizza"
    },
    {
      "osm_id": 7287759334,
      "osm_type": "node",
      "name": "MOD Pizza",
      "brand": "MOD Pizza",
      "latitude": 40.5856292,
      "longitude": -122.3565552,
      "address": "Dana Drive",
      "city": "Redding",
      "state": "CA",
      "postcode": "96003",
      "phone": "+1 530-605-4727",
      "website": "https://locations.modpizza.com/usa/ca/redding/913-dana-dr",
      "opening_hours": "Mo-Th 11:00-22:30; Fr-Su 11:00-23:00",
      "amenity_type": "fast_food",
      "cuisine": "pizza"
    },
    {
      "osm_id": 7290836223,
      "osm_type": "node",
      "name": "MOD Pizza",
      "brand": "MOD Pizza",
      "latitude": 43.1698392,
      "longitude": -89.2698836,
      "address": "South Legacy Way",
      "city": "Sun Prairie",
      "state": "WI",
      "postcode": "53590",
      "phone": "+1 608-478-2333",
      "website": "https://locations.modpizza.com/usa/wi/sun-prairie/485-south-legacy-way",
      "opening_hours": "Mo-Th 10:30-22:00; Fr-Sa 10:30-23:00; Su 10:30-22:00",
      "amenity_type": "fast_food",
      "cuisine": "pizza"
    },
    {
      "osm_id": 7300660005,
      "osm_type": "node",
      "name": "MOD Pizza",
      "brand": "MOD Pizza",
      "latitude": 40.2360473,
      "longitude": -74.9429516,
      "address": "South Eagle Road",
      "city": "Newtown",
      "state": "PA",
      "postcode": "18940",
      "phone": "+1 267-291-0247",
      "website": "https://locations.modpizza.com/usa/pa/newtown/2938-s-eagle-rd",
      "opening_hours": "Mo-Th,Su 10:30-22:00; Fr-Sa 10:30-23:00",
      "amenity_type": "fast_food",
      "cuisine": "pizza"
    },
    {
      "osm_id": 7307534771,
      "osm_type": "node",
      "name": "MOD Pizza",
      "brand": "MOD Pizza",
      "latitude": 37.3824301,
      "longitude": -121.8969727,
      "address": "East Brokaw Road",
      "city": "San Jose",
      "state": "CA",
      "postcode": "95131",
      "phone": "+1 669-242-8805",
      "website": "https://locations.modpizza.com/usa/ca/san-jose/1068-e-brokaw-rd",
      "opening_hours": "Mo-We 10:30-22:00; Th-Sa 10:30-23:00; Su 10:30-22:00",
      "amenity_type": "fast_food",
      "cuisine": "pizza"
    },
    {
      "osm_id": 7386169266,
      "osm_type": "node",
      "name": "MOD Pizza",
      "brand": "MOD Pizza",
      "latitude": 37.6027286,
      "longitude": -77.5669078,
      "address": "Quioccasin Road",
      "city": "Richmond",
      "state": "VA",
      "postcode": "23229",
      "phone": "+1 804-293-3844",
      "website": "https://locations.modpizza.com/usa/va/richmond/8671-quioccasin-rd",
      "opening_hours": "Su-We 10:30-22:00; Th-Sa 10:30-23:00",
      "amenity_type": "fast_food",
      "cuisine": "pizza"
    },
    {
      "osm_id": 7483118010,
      "osm_type": "node",
      "name": "MOD Pizza",
      "brand": "MOD Pizza",
      "latitude": 47.1845467,
      "longitude": -122.2566892,
      "address": "Shaw Road East",
      "city": "Puyallup",
      "state": "WA",
      "postcode": "98372",
      "phone": "+1-253-648-0370",
      "website": "https://locations.modpizza.com/usa/wa/puyallup/732-shaw-rd-e",
      "opening_hours": "Su-We 10:30-22:00; Th-Sa 10:30-23:00",
      "amenity_type": "fast_food",
      "cuisine": "pizza"
    },
    {
      "osm_id": 7580289618,
      "osm_type": "node",
      "name": "MOD Pizza",
      "brand": "MOD Pizza",
      "latitude": 35.1616983,
      "longitude": -80.9717809,
      "address": "Berewick Town Center Drive",
      "city": "Charlotte",
      "state": "NC",
      "postcode": "28278",
      "phone": "+1 704-910-1220",
      "website": "https://locations.modpizza.com/usa/nc/charlotte/4830-berewick-town-center-dr",
      "opening_hours": "Mo-Th 10:30-22:00; Fr-Sa 10:30-23:00; Su 10:30-22:00",
      "amenity_type": "fast_food",
      "cuisine": "pizza"
    },
    {
      "osm_id": 7654782036,
      "osm_type": "node",
      "name": "MOD Pizza",
      "brand": "MOD Pizza",
      "latitude": 31.9089071,
      "longitude": -110.9811836,
      "address": "South Nogales Highway",
      "city": "Sahuarita",
      "state": "AZ",
      "postcode": "85614",
      "phone": "+1 520-214-9914",
      "website": "https://locations.modpizza.com/usa/az/sahuarita/18767-s-nogales-hwy",
      "opening_hours": "Mo-We,Su 10:30-22:00; Th-Sa 10:30-23:00",
      "amenity_type": "fast_food",
      "cuisine": "pizza"
    },
    {
      "osm_id": 7761614115,
      "osm_type": "node",
      "name": "MOD Pizza",
      "brand": "MOD Pizza",
      "latitude": 38.9244107,
      "longitude": -104.71843,
      "address": "Dublin Boulevard",
      "city": "Colorado Springs",
      "state": "CO",
      "postcode": "80923",
      "phone": "+1 719-638-2247",
      "website": "https://locations.modpizza.com/usa/co/colorado-springs/5925-dublin-blvd",
      "opening_hours": "Mo-Th 10:30-21:00; Fr-Sa 10:30-22:00; Su 10:30-21:00",
      "amenity_type": "fast_food",
      "cuisine": "pizza"
    },
    {
      "osm_id": 7771714748,
      "osm_type": "node",
      "name": "MOD Pizza",
      "brand": "MOD Pizza",
      "latitude": 37.3517998,
      "longitude": -121.9598853,
      "address": "El Camino Real",
      "city": "Santa Clara",
      "state": "CA",
      "postcode": "95050",
      "phone": "+1 669-292-2900",
      "website": "https://locations.modpizza.com/usa/ca/santa-clara/2000-el-camino-real",
      "opening_hours": "Su-We 10:30-22:00; Th-Sa 10:30-23:00",
      "amenity_type": "fast_food",
      "cuisine": "pizza"
    },
    {
      "osm_id": 7791908179,
      "osm_type": "node",
      "name": "MOD Pizza",
      "brand": "MOD Pizza",
      "latitude": 43.0775748,
      "longitude": -88.4700556,
      "address": "Old Schoolhouse Road",
      "city": "Oconomowoc",
      "state": "WI",
      "postcode": "53066",
      "phone": "+1 262-295-2770",
      "website": "https://locations.modpizza.com/usa/wi/oconomowoc/1676-old-school-house-rd",
      "opening_hours": "Mo-Th 10:30-22:00; Fr-Sa 10:30-23:00; Su 10:30-22:00",
      "amenity_type": "fast_food",
      "cuisine": "pizza"
    },
    {
      "osm_id": 7824742046,
      "osm_type": "node",
      "name": "MOD Pizza",
      "brand": "MOD Pizza",
      "latitude": 42.3845057,
      "longitude": -87.962461,
      "address": "Grand Avenue",
      "city": "Gurnee",
      "state": "IL",
      "postcode": "60031",
      "phone": "+1 224-610-0766",
      "website": "https://locations.modpizza.com/usa/il/gurnee/6447-grand-ave",
      "opening_hours": "Mo-Th 10:30-22:00; Fr-Sa 10:30-23:00; Su 10:30-22:00",
      "amenity_type": "fast_food",
      "cuisine": "pizza"
    },
    {
      "osm_id": 7914081326,
      "osm_type": "node",
      "name": "MOD Pizza",
      "brand": "MOD Pizza",
      "latitude": 31.0799643,
      "longitude": -97.366009,
      "address": "South 31st Street",
      "city": "Temple",
      "state": "TX",
      "postcode": "76504",
      "phone": "+1 254-598-2054",
      "website": "https://locations.modpizza.com/usa/tx/temple/2102-s-31st-st",
      "opening_hours": "Mo-We 10:30-22:00; Th-Sa 10:30-23:00; Su 10:30-22:00",
      "amenity_type": "fast_food",
      "cuisine": "pizza"
    },
    {
      "osm_id": 7929626680,
      "osm_type": "node",
      "name": "MOD Pizza",
      "brand": "MOD Pizza",
      "latitude": 35.0639929,
      "longitude": -78.9690281,
      "address": "Skibo Road",
      "city": "Fayetteville",
      "state": "NC",
      "postcode": "28314",
      "phone": "+1 910-354-2607",
      "website": "https://locations.modpizza.com/usa/nc/fayetteville/1950-skibo-rd",
      "opening_hours": "Mo-Th 10:30-22:00; Fr-Sa 10:30-23:00; Su 10:30-22:00",
      "amenity_type": "fast_food",
      "cuisine": "pizza"
    },
    {
      "osm_id": 7958040299,
      "osm_type": "node",
      "name": "MOD Pizza",
      "brand": "MOD Pizza",
      "latitude": 33.2552402,
      "longitude": -111.636497,
      "address": "South Ellsworth Loop Road",
      "city": "Queen Creek",
      "state": "AZ",
      "postcode": "85142",
      "phone": "+1 602-483-5075",
      "website": "https://locations.modpizza.com/usa/az/queen-creek/21295-s-ellsworth-loop-rd",
      "opening_hours": "Mo-Th 10:30-22:00; Fr-Sa 10:30-23:00; Su 10:30-22:00",
      "amenity_type": "fast_food",
      "cuisine": "pizza"
    },
    {
      "osm_id": 7963644892,
      "osm_type": "node",
      "name": "MOD Pizza",
      "brand": "MOD Pizza",
      "latitude": 39.1366056,
      "longitude": -77.692574,
      "address": "Purcellville Gateway Drive",
      "city": "Purcellville",
      "state": "VA",
      "postcode": "20132",
      "phone": "+1 540-208-2090",
      "website": "https://locations.modpizza.com/usa/va/purcellville/150-purcellville-gateway-dr",
      "opening_hours": "Mo-Th 10:30-22:00; Fr-Sa 10:30-23:00; Su 10:30-22:00",
      "amenity_type": "fast_food",
      "cuisine": "pizza"
    },
    {
      "osm_id": 8109175575,
      "osm_type": "node",
      "name": "MOD Pizza",
      "brand": "MOD Pizza",
      "latitude": 42.9596291,
      "longitude": -88.023619,
      "address": "Sura Lane",
      "city": "Greenfield",
      "state": "WI",
      "postcode": "53228",
      "phone": "+1 262-330-0028",
      "website": "https://locations.modpizza.com/usa/wi/greenfield/8833-west-sura-lane",
      "opening_hours": "Mo-Th 10:30-22:00; Fr-Sa 10:30-23:00; Su 10:30-22:00",
      "amenity_type": "fast_food",
      "cuisine": "pizza"
    },
    {
      "osm_id": 8140889172,
      "osm_type": "node",
      "name": "MOD Pizza",
      "brand": "MOD Pizza",
      "latitude": 32.7475247,
      "longitude": -96.4486967,
      "address": "Marketplace Boulevard",
      "city": "Forney",
      "state": "TX",
      "postcode": "75126",
      "phone": "",
      "website": "",
      "opening_hours": "",
      "amenity_type": "fast_food",
      "cuisine": "pizza"
    },
    {
      "osm_id": 8180717423,
      "osm_type": "node",
      "name": "MOD Pizza",
      "brand": "MOD Pizza",
      "latitude": 48.2305464,
      "longitude": -114.331227,
      "address": "Highway 93 North",
      "city": "Kalispell",
      "state": "",
      "postcode": "59901",
      "phone": "+1 406-300-5737",
      "website": "https://locations.modpizza.com/usa/mt/kalispell/2244-hwy-93-n",
      "opening_hours": "Mo-Su 10:30-22:00",
      "amenity_type": "fast_food",
      "cuisine": "pizza"
    },
    {
      "osm_id": 8244016279,
      "osm_type": "node",
      "name": "MOD Pizza",
      "brand": "MOD Pizza",
      "latitude": 37.9280955,
      "longitude": -122.0158433,
      "address": "Oak Grove Road",
      "city": "Walnut Creek",
      "state": "CA",
      "postcode": "94598",
      "phone": "+1 925-378-6435",
      "website": "https://locations.modpizza.com/usa/ca/walnut-creek/2353-oak-grove-rd",
      "opening_hours": "Mo-We 10:30-22:00; Th-Sa 10:30-23:00; Su 10:30-22:00",
      "amenity_type": "fast_food",
      "cuisine": "pizza"
    },
    {
      "osm_id": 8246289169,
      "osm_type": "node",
      "name": "MOD Pizza",
      "brand": "MOD Pizza",
      "latitude": 34.0741783,
      "longitude": -117.2049068,
      "address": "San Bernardino Avenue",
      "city": "Redlands",
      "state": "CA",
      "postcode": "92374",
      "phone": "+1 909-748-0200",
      "website": "https://locations.modpizza.com/usa/ca/redlands/27511-san-bernardino-ave",
      "opening_hours": "10:30-22:00",
      "amenity_type": "fast_food",
      "cuisine": "pizza"
    },
    {
      "osm_id": 8307089565,
      "osm_type": "node",
      "name": "MOD Pizza",
      "brand": "MOD Pizza",
      "latitude": 30.1308657,
      "longitude": -95.2335527,
      "address": "North Grand Parkway East",
      "city": "New Caney",
      "state": "TX",
      "postcode": "77357",
      "phone": "+1 346-301-1943",
      "website": "https://modpizza.com/locations/valley-ranch/",
      "opening_hours": "Mo-Th 10:30-22:00; Fr-Sa 10:30-23:00; Su 10:30-22:00",
      "amenity_type": "fast_food",
      "cuisine": "pizza"
    },
    {
      "osm_id": 8317305212,
      "osm_type": "node",
      "name": "MOD Pizza",
      "brand": "MOD Pizza",
      "latitude": 39.3754451,
      "longitude": -77.4128947,
      "address": "Buckeystown Pike",
      "city": "Frederick",
      "state": "MD",
      "postcode": "21704",
      "phone": "+1 240-877-7967",
      "website": "https://locations.modpizza.com/usa/md/frederick/5265-buckeystown-pike",
      "opening_hours": "Mo-Th,Su 10:30-22:00; Fr-Sa 10:30-23:00",
      "amenity_type": "fast_food",
      "cuisine": "pizza"
    },
    {
      "osm_id": 8331537870,
      "osm_type": "node",
      "name": "MOD Pizza",
      "brand": "MOD Pizza",
      "latitude": 43.6107087,
      "longitude": -116.283821,
      "address": "North Milwaukee Street",
      "city": "Boise",
      "state": "ID",
      "postcode": "83704",
      "phone": "+1 208-314-5394",
      "website": "https://locations.modpizza.com/usa/id/boise/600-n-milwaukee-st",
      "opening_hours": "Mo-Th 10:30-22:00; Fr-Sa 10:30-23:00; Su 10:30-22:00",
      "amenity_type": "fast_food",
      "cuisine": "pizza"
    },
    {
      "osm_id": 8381523833,
      "osm_type": "node",
      "name": "MOD Pizza",
      "brand": "MOD Pizza",
      "latitude": 33.4871877,
      "longitude": -112.084064,
      "address": "North 7th Avenue",
      "city": "Phoenix",
      "state": "AZ",
      "postcode": "85013",
      "phone": "+1 602-600-6163",
      "website": "https://locations.modpizza.com/usa/az/phoenix/3350-north-7th-ave",
      "opening_hours": "Mo-Th 10:30-22:00; Fr-Sa 10:30-23:00; Su 10:30-22:00",
      "amenity_type": "fast_food",
      "cuisine": "pizza"
    },
    {
      "osm_id": 8421640648,
      "osm_type": "node",
      "name": "MOD Pizza",
      "brand": "MOD Pizza",
      "latitude": 30.243325,
      "longitude": -97.7282732,
      "address": "East Riverside Drive",
      "city": "Austin",
      "state": "TX",
      "postcode": "78741",
      "phone": "+1 512-792-5554",
      "website": "https://modpizza.com/locations/south-shore/",
      "opening_hours": "Su-Th 10:30-22:00; Fr-Sa 10:30-23:00",
      "amenity_type": "fast_food",
      "cuisine": "pizza"
    },
    {
      "osm_id": 8479122972,
      "osm_type": "node",
      "name": "MOD Pizza",
      "brand": "MOD Pizza",
      "latitude": 28.1908365,
      "longitude": -82.3954789,
      "address": "Sun Vista Drive",
      "city": "Lutz",
      "state": "FL",
      "postcode": "33559",
      "phone": "+1 813-777-5524",
      "website": "https://locations.modpizza.com/usa/fl/lutz/2227-sun-vista-dr",
      "opening_hours": "Mo-We 10:30-22:00; Th-Sa 10:30-23:00; Su 10:30-22:00",
      "amenity_type": "fast_food",
      "cuisine": "pizza"
    },
    {
      "osm_id": 8483374226,
      "osm_type": "node",
      "name": "MOD Pizza",
      "brand": "MOD Pizza",
      "latitude": 32.398227,
      "longitude": -110.956357,
      "address": "North Oracle Road",
      "city": "Oro Valley",
      "state": "AZ",
      "postcode": "85737",
      "phone": "+1 520-407-6870",
      "website": "https://locations.modpizza.com/usa/az/oro-valley/10580-n-oracle-rd",
      "opening_hours": "Mo-Th 10:30-22:00; Fr-Sa 10:30-23:00; Su 10:30-22:00",
      "amenity_type": "fast_food",
      "cuisine": "pizza"
    },
    {
      "osm_id": 8487619915,
      "osm_type": "node",
      "name": "MOD Pizza",
      "brand": "MOD Pizza",
      "latitude": 30.4690605,
      "longitude": -97.5955353,
      "address": "Limestone Commercial Drive",
      "city": "Pflugerville",
      "state": "TX",
      "postcode": "78660",
      "phone": "+1 512-668-1278",
      "website": "https://locations.modpizza.com/usa/tx/pflugerville/18817-limestone-commercial-dr",
      "opening_hours": "Mo-We 10:30-22:00; Th-Sa 10:30-23:00; Su 10:30-22:00",
      "amenity_type": "fast_food",
      "cuisine": "pizza"
    },
    {
      "osm_id": 8515655746,
      "osm_type": "node",
      "name": "MOD Pizza",
      "brand": "MOD Pizza",
      "latitude": 37.7576048,
      "longitude": -87.0732177,
      "address": "Heartland Crossing Boulevard",
      "city": "Owensboro",
      "state": "",
      "postcode": "42303",
      "phone": "+1 270-240-2646",
      "website": "https://locations.modpizza.com/usa/ky/owensboro/2710-heartland-crossing-blvd",
      "opening_hours": "Mo-Su 11:00-21:00; Fr,Sa 11:00-22:00",
      "amenity_type": "fast_food",
      "cuisine": "pizza"
    },
    {
      "osm_id": 8522844124,
      "osm_type": "node",
      "name": "MOD Pizza",
      "brand": "MOD Pizza",
      "latitude": 45.8154014,
      "longitude": -122.7014397,
      "address": "South 47th Avenue",
      "city": "Ridgefield",
      "state": "WA",
      "postcode": "98642",
      "phone": "+1-360-857-6860",
      "website": "https://locations.modpizza.com/usa/wa/ridgefield/11-s-47th-ave",
      "opening_hours": "Mo-We 10:30-22:00; Th-Sa 10:30-23:00; Su 10:30-22:00",
      "amenity_type": "fast_food",
      "cuisine": "pizza"
    },
    {
      "osm_id": 8581404148,
      "osm_type": "node",
      "name": "MOD Pizza",
      "brand": "MOD Pizza",
      "latitude": 29.8086238,
      "longitude": -95.4556285,
      "address": "Dacoma Street",
      "city": "Houston",
      "state": "TX",
      "postcode": "77092",
      "phone": "+1 346-766-0324",
      "website": "https://locations.modpizza.com/usa/tx/houston/4500-dacoma-st",
      "opening_hours": "Mo-We 10:30-22:00; Th-Sa 10:30-23:00; Su 10:30-22:00",
      "amenity_type": "fast_food",
      "cuisine": "pizza"
    },
    {
      "osm_id": 8663722717,
      "osm_type": "node",
      "name": "MOD Pizza",
      "brand": "MOD Pizza",
      "latitude": 39.9161331,
      "longitude": -82.7810781,
      "address": "Hill Road North",
      "city": "Pickerington",
      "state": "OH",
      "postcode": "43147",
      "phone": "+1 614-682-7454",
      "website": "https://locations.modpizza.com/usa/oh/pickerington/1301-hill-rd-n",
      "opening_hours": "Mo-Th 11:00-21:00; Fr-Sa 11:00-22:00; Su 11:00-21:00",
      "amenity_type": "fast_food",
      "cuisine": "pizza"
    },
    {
      "osm_id": 8707156876,
      "osm_type": "node",
      "name": "MOD Pizza",
      "brand": "MOD Pizza",
      "latitude": 42.6281689,
      "longitude": -82.9765247,
      "address": "Hall Road",
      "city": "Shelby Charter Township",
      "state": "MI",
      "postcode": "48315",
      "phone": "+1 586-486-3041",
      "website": "https://locations.modpizza.com/usa/mi/shelby-charter-township/15089-hall-rd",
      "opening_hours": "10:30-23:00",
      "amenity_type": "fast_food",
      "cuisine": "pizza"
    },
    {
      "osm_id": 8720243255,
      "osm_type": "node",
      "name": "MOD Pizza",
      "brand": "MOD Pizza",
      "latitude": 37.9612004,
      "longitude": -121.7498288,
      "address": "Lone Tree Way",
      "city": "Brentwood",
      "state": "CA",
      "postcode": "94513",
      "phone": "+1 925-626-2020",
      "website": "https://locations.modpizza.com/usa/ca/brentwood/5411-lone-tree-way",
      "opening_hours": "Mo-We 10:30-22:00; Th-Sa 10:30-23:00; Su 10:30-22:00",
      "amenity_type": "fast_food",
      "cuisine": "pizza"
    },
    {
      "osm_id": 8747866123,
      "osm_type": "node",
      "name": "MOD Pizza",
      "brand": "MOD Pizza",
      "latitude": 28.3941462,
      "longitude": -81.4845851,
      "address": "Regency Village Drive",
      "city": "Orlando",
      "state": "FL",
      "postcode": "32821",
      "phone": "+1 407-239-4116",
      "website": "https://locations.modpizza.com/usa/fl/orlando/11549-regency-village-dr",
      "opening_hours": "Mo-We 10:30-22:00; Th-Sa 10:30-23:00; Su 10:30-22:00",
      "amenity_type": "fast_food",
      "cuisine": "pizza"
    },
    {
      "osm_id": 8819396232,
      "osm_type": "node",
      "name": "MOD Pizza",
      "brand": "MOD Pizza",
      "latitude": 44.939947,
      "longitude": -122.983779,
      "address": "Lancaster Drive Northeast",
      "city": "Salem",
      "state": "OR",
      "postcode": "97301",
      "phone": "+1 971-900-4151",
      "website": "https://locations.modpizza.com/usa/or/salem/707-lancaster-dr-ne",
      "opening_hours": "Mo-We 10:30-22:00; Th-Sa 10:30-23:00; Su 10:30-22:00",
      "amenity_type": "fast_food",
      "cuisine": "pizza"
    },
    {
      "osm_id": 8852995004,
      "osm_type": "node",
      "name": "MOD Pizza",
      "brand": "MOD Pizza",
      "latitude": 43.4747365,
      "longitude": -111.9821825,
      "address": "South 25th East",
      "city": "Ammon",
      "state": "ID",
      "postcode": "83406",
      "phone": "+12086562337",
      "website": "https://locations.modpizza.com/usa/id/ammon/2555-s-25th-e",
      "opening_hours": "Su-Th 10:30-22:00; Fr-Sa 10:30-23:00",
      "amenity_type": "fast_food",
      "cuisine": "pizza"
    },
    {
      "osm_id": 8864500688,
      "osm_type": "node",
      "name": "MOD Pizza",
      "brand": "MOD Pizza",
      "latitude": 48.4710763,
      "longitude": -122.3376292,
      "address": "Haggen Drive",
      "city": "Burlington",
      "state": "",
      "postcode": "98233",
      "phone": "+1-360-707-0800",
      "website": "https://locations.modpizza.com/usa/wa/burlington/626-haggen-dr",
      "opening_hours": "Mo-Su 10:30-22:00; Th-Sa 10:30-23:00",
      "amenity_type": "fast_food",
      "cuisine": "pizza"
    },
    {
      "osm_id": 8870056905,
      "osm_type": "node",
      "name": "MOD Pizza",
      "brand": "MOD Pizza",
      "latitude": 38.7852143,
      "longitude": -89.9489265,
      "address": "Troy Road",
      "city": "Edwardsville",
      "state": "IL",
      "postcode": "62025",
      "phone": "",
      "website": "https://locations.modpizza.com/usa/il/edwardsville/2300a-troy-rd",
      "opening_hours": "",
      "amenity_type": "fast_food",
      "cuisine": "pizza"
    },
    {
      "osm_id": 8899210382,
      "osm_type": "node",
      "name": "MOD Pizza",
      "brand": "MOD Pizza",
      "latitude": 42.5168257,
      "longitude": -83.1867581,
      "address": "Woodward Avenue",
      "city": "Royal Oak",
      "state": "MI",
      "postcode": "48073",
      "phone": "+1 248-965-9002",
      "website": "https://locations.modpizza.com/usa/mi/royal-oak/30955-woodward-ave",
      "opening_hours": "11:00-23:00",
      "amenity_type": "fast_food",
      "cuisine": "pizza"
    },
    {
      "osm_id": 8910610600,
      "osm_type": "node",
      "name": "MOD Pizza",
      "brand": "MOD Pizza",
      "latitude": 33.6398803,
      "longitude": -112.2194983,
      "address": "West Bell Road",
      "city": "Glendale",
      "state": "AZ",
      "postcode": "85308",
      "phone": "+1 602-476-5575",
      "website": "https://locations.modpizza.com/usa/az/glendale/7480-w-bell-rd",
      "opening_hours": "Mo-Th 10:30-22:00; Fr-Sa 10:30-23:00; Su 10:30-22:00",
      "amenity_type": "fast_food",
      "cuisine": "pizza"
    },
    {
      "osm_id": 8912920963,
      "osm_type": "node",
      "name": "MOD Pizza",
      "brand": "MOD Pizza",
      "latitude": 47.4945347,
      "longitude": -111.2874739,
      "address": "10th Avenue South",
      "city": "Great Falls",
      "state": "MT",
      "postcode": "59405",
      "phone": "+1 406-540-7251",
      "website": "https://locations.modpizza.com/usa/mt/great-falls/1125-10th-ave-s",
      "opening_hours": "Mo-Th 10:30-22:00; Fr-Sa 10:30-23:00; Su 10:30-22:00",
      "amenity_type": "fast_food",
      "cuisine": "pizza"
    },
    {
      "osm_id": 8977279585,
      "osm_type": "node",
      "name": "MOD Pizza",
      "brand": "MOD Pizza",
      "latitude": 34.0041078,
      "longitude": -81.2078744,
      "address": "Sunset Boulevard",
      "city": "Lexington",
      "state": "SC",
      "postcode": "29072",
      "phone": "+1 803-520-0229",
      "website": "https://modpizza.com/locations/lexington/",
      "opening_hours": "Mo-Th 10:30-21:00; Fr-Sa 10:30-22:00; Su 10:30-21:00",
      "amenity_type": "fast_food",
      "cuisine": "pizza"
    },
    {
      "osm_id": 8978438542,
      "osm_type": "node",
      "name": "MOD Pizza",
      "brand": "MOD Pizza",
      "latitude": 39.4055922,
      "longitude": -76.607102,
      "address": "York Road",
      "city": "Towson",
      "state": "MD",
      "postcode": "21204",
      "phone": "+1 443-901-3669",
      "website": "https://locations.modpizza.com/usa/md/towson/740-york-rd",
      "opening_hours": "Su-Th 10:30-22:00; Fr,Sa 10:30-23:00",
      "amenity_type": "fast_food",
      "cuisine": "pizza"
    },
    {
      "osm_id": 9040895217,
      "osm_type": "node",
      "name": "MOD Pizza",
      "brand": "MOD Pizza",
      "latitude": 42.2383106,
      "longitude": -87.94344,
      "address": "Milwaukee Avenue",
      "city": "Vernon Hills",
      "state": "IL",
      "postcode": "60061",
      "phone": "+1 847-281-0177",
      "website": "https://locations.modpizza.com/usa/il/vernon-hills/701-n-milwaukee-ave",
      "opening_hours": "Mo-Th 10:30-22:00; Fr-Sa 10:30-23:00; Su 10:30-22:00",
      "amenity_type": "fast_food",
      "cuisine": "pizza"
    },
    {
      "osm_id": 9069668126,
      "osm_type": "node",
      "name": "MOD Pizza",
      "brand": "MOD Pizza",
      "latitude": 44.8896586,
      "longitude": -123.034637,
      "address": "Commercial Street Southeast",
      "city": "Salem",
      "state": "OR",
      "postcode": "97302",
      "phone": "+1 971-209-4198",
      "website": "https://locations.modpizza.com/usa/or/salem/4425-commercial-st-se",
      "opening_hours": "Mo-We 10:30-22:00; Th-Sa 10:30-23:00; Su 10:30-22:00",
      "amenity_type": "fast_food",
      "cuisine": "pizza"
    },
    {
      "osm_id": 9104346379,
      "osm_type": "node",
      "name": "MOD Pizza",
      "brand": "MOD Pizza",
      "latitude": 33.3497893,
      "longitude": -111.901687,
      "address": "East Elliot Road",
      "city": "Tempe",
      "state": "AZ",
      "postcode": "85283",
      "phone": "+1 602-314-8166",
      "website": "https://locations.modpizza.com/usa/az/tempe/2020-e-elliot-rd",
      "opening_hours": "Mo-Th 10:30-22:00; Fr-Sa 10:30-23:00; Su 10:30-22:00",
      "amenity_type": "fast_food",
      "cuisine": "pizza"
    },
    {
      "osm_id": 9118885114,
      "osm_type": "node",
      "name": "MOD Pizza",
      "brand": "MOD Pizza",
      "latitude": 33.4953086,
      "longitude": -111.9894363,
      "address": "East Indian School Road",
      "city": "Phoenix",
      "state": "AZ",
      "postcode": "85018",
      "phone": "+1 602-314-8379",
      "website": "https://locations.modpizza.com/usa/az/phoenix/4280-e-indian-school-rd",
      "opening_hours": "Mo-Th 10:30-22:00; Fr-Sa 10:30-23:00; Su 10:30-22:00",
      "amenity_type": "fast_food",
      "cuisine": "pizza"
    },
    {
      "osm_id": 9120439117,
      "osm_type": "node",
      "name": "MOD Pizza",
      "brand": "MOD Pizza",
      "latitude": 47.5438096,
      "longitude": -122.164046,
      "address": "Newcastle Commons Drive",
      "city": "Newcastle",
      "state": "WA",
      "postcode": "98059",
      "phone": "+1-425-448-6602",
      "website": "https://locations.modpizza.com/usa/wa/newcastle/13156-newcastle-commons-dr",
      "opening_hours": "Mo-We 10:30-22:00; Th-Sa 10:30-23:00; Su 10:30-22:00",
      "amenity_type": "fast_food",
      "cuisine": "pizza"
    },
    {
      "osm_id": 9146898592,
      "osm_type": "node",
      "name": "MOD Pizza",
      "brand": "MOD Pizza",
      "latitude": 34.122402,
      "longitude": -117.691741,
      "address": "Base Line Road",
      "city": "Upland",
      "state": "CA",
      "postcode": "91784",
      "phone": "+1 909-536-1885",
      "website": "https://locations.modpizza.com/usa/ca/upland/2085-base-line-road",
      "opening_hours": "Mo-Th 10:30-22:00; Fr-Sa 10:30-23:00; Su 10:30-22:00",
      "amenity_type": "fast_food",
      "cuisine": "pizza"
    },
    {
      "osm_id": 9170746253,
      "osm_type": "node",
      "name": "MOD Pizza",
      "brand": "MOD Pizza",
      "latitude": 40.0008203,
      "longitude": -105.00627,
      "address": "Sheridan Parkway",
      "city": "Broomfield",
      "state": "CO",
      "postcode": "80023",
      "phone": "+1 720-328-8197",
      "website": "https://locations.modpizza.com/usa/co/broomfield/16818-sheridan-pkwy",
      "opening_hours": "Mo-Th 10:30-21:00; Fr-Sa 10:30-22:00; Su 10:30-21:00",
      "amenity_type": "fast_food",
      "cuisine": "pizza"
    },
    {
      "osm_id": 9217128840,
      "osm_type": "node",
      "name": "MOD Pizza",
      "brand": "MOD Pizza",
      "latitude": 32.9150449,
      "longitude": -97.3115289,
      "address": "Heritage Trace Parkway",
      "city": "Fort Worth",
      "state": "TX",
      "postcode": "76177",
      "phone": "+1 817-612-5440",
      "website": "https://locations.modpizza.com/usa/tx/fort-worth/3101-heritage-trace-pkwy",
      "opening_hours": "Mo-We 10:30-22:00; Th-Sa 10:30-23:00; Su 10:30-22:00",
      "amenity_type": "fast_food",
      "cuisine": "pizza"
    },
    {
      "osm_id": 9233415518,
      "osm_type": "node",
      "name": "MOD Pizza",
      "brand": "MOD Pizza",
      "latitude": 32.8812679,
      "longitude": -97.3930946,
      "address": "West Bailey Boswell Road",
      "city": "Fort Worth",
      "state": "TX",
      "postcode": "76179",
      "phone": "+1 214-972-1589",
      "website": "https://locations.modpizza.com/usa/tx/fort-worth/4540-w-bailey-boswell-rd",
      "opening_hours": "Mo-We 10:30-22:00; Th-Sa 10:30-23:00; Su 10:30-22:00",
      "amenity_type": "fast_food",
      "cuisine": "pizza"
    },
    {
      "osm_id": 9274001459,
      "osm_type": "node",
      "name": "MOD Pizza",
      "brand": "MOD Pizza",
      "latitude": 42.0839402,
      "longitude": -87.9363566,
      "address": "North Elmhurst Road",
      "city": "Mount Prospect",
      "state": "IL",
      "postcode": "60056",
      "phone": "+1 224-877-7234",
      "website": "https://locations.modpizza.com/usa/il/mount-prospect/1021-n-elmhurst-rd",
      "opening_hours": "Mo-Th 10:30-22:00; Fr-Sa 10:30-23:00; Su 10:30-22:00",
      "amenity_type": "fast_food",
      "cuisine": "pizza"
    },
    {
      "osm_id": 9279177692,
      "osm_type": "node",
      "name": "MOD Pizza",
      "brand": "MOD Pizza",
      "latitude": 30.2783156,
      "longitude": -95.4656799,
      "address": "South Loop 336 West",
      "city": "Conroe",
      "state": "TX",
      "postcode": "77304",
      "phone": "+1 936-828-4618",
      "website": "https://locations.modpizza.com/usa/tx/conroe/381-s-loop-336-w",
      "opening_hours": "Mo-We 10:30-22:00; Th-Sa 10:30-23:00; Su 10:30-22:00",
      "amenity_type": "fast_food",
      "cuisine": "pizza"
    },
    {
      "osm_id": 9315958265,
      "osm_type": "node",
      "name": "MOD Pizza",
      "brand": "MOD Pizza",
      "latitude": 41.5243461,
      "longitude": -87.470502,
      "address": "Indianapolis Boulevard",
      "city": "Highland",
      "state": "IN",
      "postcode": "46322",
      "phone": "+1 219-301-7915",
      "website": "https://locations.modpizza.com/usa/in/highland/10441b-indianapolis-blvd",
      "opening_hours": "Mo-Th 10:30-22:00; Fr-Sa 10:30-23:00; Su 10:30-22:00",
      "amenity_type": "fast_food",
      "cuisine": "pizza"
    },
    {
      "osm_id": 9325521638,
      "osm_type": "node",
      "name": "MOD Pizza",
      "brand": "MOD Pizza",
      "latitude": 42.379466,
      "longitude": -83.3341989,
      "address": "Middlebelt Road",
      "city": "Livonia",
      "state": "MI",
      "postcode": "48150",
      "phone": "+1 734-245-0710",
      "website": "https://locations.modpizza.com/usa/mi/livonia/13229-middlebelt-rd",
      "opening_hours": "10:30-23:00",
      "amenity_type": "fast_food",
      "cuisine": "pizza"
    },
    {
      "osm_id": 9336055902,
      "osm_type": "node",
      "name": "MOD Pizza",
      "brand": "MOD Pizza",
      "latitude": 34.3923069,
      "longitude": -118.5730061,
      "address": "The Old Road",
      "city": "Stevenson Ranch",
      "state": "CA",
      "postcode": "91381",
      "phone": "+1 661-288-1590",
      "website": "https://locations.modpizza.com/usa/ca/stevenson-ranch/25910-the-old-road",
      "opening_hours": "Mo-Th 10:30-22:00; Fr-Sa 10:30-23:00; Su 10:30-22:00",
      "amenity_type": "fast_food",
      "cuisine": "pizza"
    },
    {
      "osm_id": 9341259070,
      "osm_type": "node",
      "name": "MOD Pizza",
      "brand": "MOD Pizza",
      "latitude": 47.3205225,
      "longitude": -122.2223981,
      "address": "15th Street Northeast",
      "city": "Auburn",
      "state": "WA",
      "postcode": "98002",
      "phone": "+1-253-793-0750",
      "website": "https://locations.modpizza.com/usa/wa/auburn/502-15th-st-ne",
      "opening_hours": "Mo-We 10:30-22:00; Th-Sa 10:30-23:00; Su 10:30-22:00",
      "amenity_type": "fast_food",
      "cuisine": "pizza"
    },
    {
      "osm_id": 9348527226,
      "osm_type": "node",
      "name": "MOD Pizza",
      "brand": "MOD Pizza",
      "latitude": 33.5813837,
      "longitude": -112.1262513,
      "address": "West Peoria Avenue",
      "city": "Phoenix",
      "state": "",
      "postcode": "85029",
      "phone": "+1-623-243-9724",
      "website": "https://locations.modpizza.com/usa/az/phoenix/3121-w-peoria-ave",
      "opening_hours": "Mo-Su 10:30-22:00; Fr 10:30-18:00; Sa 10:30-23:00",
      "amenity_type": "fast_food",
      "cuisine": "pizza"
    },
    {
      "osm_id": 9362460811,
      "osm_type": "node",
      "name": "MOD Pizza",
      "brand": "MOD Pizza",
      "latitude": 33.8509182,
      "longitude": -117.551106,
      "address": "East Ontario Avenue",
      "city": "Corona",
      "state": "CA",
      "postcode": "92881",
      "phone": "+1 909-312-7850",
      "website": "https://locations.modpizza.com/usa/ca/corona/924-e-ontario-ave",
      "opening_hours": "Mo-Th 10:30-22:00; Fr-Sa 10:30-23:00; Su 10:30-22:00",
      "amenity_type": "fast_food",
      "cuisine": "pizza"
    },
    {
      "osm_id": 9403720050,
      "osm_type": "node",
      "name": "MOD Pizza",
      "brand": "MOD Pizza",
      "latitude": 35.9532659,
      "longitude": -78.5249073,
      "address": "Rogers Road",
      "city": "Wake Forest",
      "state": "NC",
      "postcode": "27587",
      "phone": "+1 919-299-2492",
      "website": "https://locations.modpizza.com/usa/nc/wake-forest/2815-rogers-rd",
      "opening_hours": "Mo-Th 10:30-22:00; Fr-Sa 10:30-23:00; Su 10:30-22:00",
      "amenity_type": "fast_food",
      "cuisine": "pizza"
    },
    {
      "osm_id": 9418842625,
      "osm_type": "node",
      "name": "MOD Pizza",
      "brand": "MOD Pizza",
      "latitude": 47.4452446,
      "longitude": -122.150686,
      "address": "Southeast Petrovitsky Road",
      "city": "Renton",
      "state": "WA",
      "postcode": "98058",
      "phone": "+1-425-517-0001",
      "website": "https://locations.modpizza.com/usa/wa/renton/14210-se-petrovitsky-rd",
      "opening_hours": "Su-We 10:30-22:00; Th-Sa 10:30-23:00",
      "amenity_type": "fast_food",
      "cuisine": "pizza"
    },
    {
      "osm_id": 9429690911,
      "osm_type": "node",
      "name": "MOD Pizza",
      "brand": "MOD Pizza",
      "latitude": 32.8009441,
      "longitude": -80.0198557,
      "address": "Sam Rittenberg Boulevard",
      "city": "Charleston",
      "state": "SC",
      "postcode": "29407",
      "phone": "+1 854-999-1872",
      "website": "https://locations.modpizza.com/usa/sc/charleston/1812-sam-rittenberg-blvd",
      "opening_hours": "Mo-Th 10:30-21:00; Fr-Sa 10:30-22:00; Su 10:30-21:00",
      "amenity_type": "fast_food",
      "cuisine": "pizza"
    },
    {
      "osm_id": 9448430894,
      "osm_type": "node",
      "name": "MOD Pizza",
      "brand": "MOD Pizza",
      "latitude": 37.0427181,
      "longitude": -76.3906986,
      "address": "Kilgore Avenue",
      "city": "Hampton",
      "state": "VA",
      "postcode": "23666",
      "phone": "+1 757-504-3860",
      "website": "https://locations.modpizza.com/usa/va/hampton/2878-kilgore-ave",
      "opening_hours": "Mo-Th 10:30-22:00; Fr-Sa 10:30-23:00; Su 10:30-22:00",
      "amenity_type": "fast_food",
      "cuisine": "pizza"
    },
    {
      "osm_id": 9451283237,
      "osm_type": "node",
      "name": "MOD Pizza",
      "brand": "MOD Pizza",
      "latitude": 30.3345325,
      "longitude": -95.4768588,
      "address": "North Loop 336 West",
      "city": "Conroe",
      "state": "TX",
      "postcode": "77301",
      "phone": "+1 936-441-0054",
      "website": "https://locations.modpizza.com/usa/tx/conroe/1240-n-loop-336-w",
      "opening_hours": "Mo-We 10:30-22:00; Th-Sa 10:30-23:00; Su 10:30-22:00",
      "amenity_type": "fast_food",
      "cuisine": "pizza"
    },
    {
      "osm_id": 9536073312,
      "osm_type": "node",
      "name": "MOD Pizza",
      "brand": "MOD Pizza",
      "latitude": 29.7696485,
      "longitude": -95.6051832,
      "address": "Memorial Drive",
      "city": "Houston",
      "state": "TX",
      "postcode": "77079",
      "phone": "+1 832-775-0134",
      "website": "https://locations.modpizza.com/usa/tx/houston/14555-memorial-dr",
      "opening_hours": "Mo-We 10:30-22:00; Th-Sa 10:30-23:00; Su 10:30-22:00",
      "amenity_type": "fast_food",
      "cuisine": "pizza"
    },
    {
      "osm_id": 9556765334,
      "osm_type": "node",
      "name": "MOD Pizza",
      "brand": "MOD Pizza",
      "latitude": 38.5555532,
      "longitude": -76.5955636,
      "address": "Harrow Lane",
      "city": "Prince Frederick",
      "state": "MD",
      "postcode": "20678",
      "phone": "+1 443-432-4376",
      "website": "https://locations.modpizza.com/usa/md/prince-frederick/65-harrow-lane",
      "opening_hours": "Mo-Th,Su 10:30-22:00; Fr-Sa 10:30-23:00; Nov 28 off; Dec 24 10:30-20:00; Dec 25 off; Dec 31 10:30-20:00",
      "amenity_type": "fast_food",
      "cuisine": "pizza"
    },
    {
      "osm_id": 9659711480,
      "osm_type": "node",
      "name": "MOD Pizza",
      "brand": "MOD Pizza",
      "latitude": 29.8280743,
      "longitude": -94.8482577,
      "address": "Eagle Drive",
      "city": "Mont Belvieu",
      "state": "TX",
      "postcode": "77523",
      "phone": "+1 346-321-5709",
      "website": "https://locations.modpizza.com/usa/tx/mont-belvieu/9115-eagle-dr",
      "opening_hours": "Mo-We 10:30-22:00; Th-Sa 10:30-23:00; Su 10:30-22:00",
      "amenity_type": "fast_food",
      "cuisine": "pizza"
    },
    {
      "osm_id": 9672160600,
      "osm_type": "node",
      "name": "MOD Pizza",
      "brand": "MOD Pizza",
      "latitude": 33.9143535,
      "longitude": -84.3802532,
      "address": "Roswell Road",
      "city": "Sandy Springs",
      "state": "GA",
      "postcode": "30342",
      "phone": "+1 404-975-3455",
      "website": "https://locations.modpizza.com/usa/ga/sandy-springs/5840-roswell-rd",
      "opening_hours": "Mo-Th 10:30-22:00; Fr-Sa 10:30-23:00; Su 10:30-22:00",
      "amenity_type": "fast_food",
      "cuisine": "pizza"
    },
    {
      "osm_id": 9701590983,
      "osm_type": "node",
      "name": "MOD Pizza",
      "brand": "MOD Pizza",
      "latitude": 29.7884958,
      "longitude": -95.7184402,
      "address": "North Fry Road",
      "city": "Katy",
      "state": "TX",
      "postcode": "77084",
      "phone": "+1 346-348-1175",
      "website": "https://locations.modpizza.com/usa/tx/houston/1330-fry-rd",
      "opening_hours": "Mo-We,Su 10:30-22:00; Th-Sa 10:30-23:00; PH closed",
      "amenity_type": "fast_food",
      "cuisine": "pizza"
    },
    {
      "osm_id": 9704163943,
      "osm_type": "node",
      "name": "MOD Pizza",
      "brand": "MOD Pizza",
      "latitude": 29.7374499,
      "longitude": -95.5616287,
      "address": "Citywest Boulevard",
      "city": "Houston",
      "state": "TX",
      "postcode": "77042",
      "phone": "+1 832-975-8848",
      "website": "https://locations.modpizza.com/usa/tx/houston/2550-citywest-blvd",
      "opening_hours": "Mo-We 10:30-22:00; Th-Sa 10:30-23:00; Su 10:30-22:00",
      "amenity_type": "fast_food",
      "cuisine": "pizza"
    },
    {
      "osm_id": 9753000695,
      "osm_type": "node",
      "name": "MOD Pizza",
      "brand": "MOD Pizza",
      "latitude": 40.7285093,
      "longitude": -111.548592,
      "address": "North Landmark Drive",
      "city": "Park City",
      "state": "UT",
      "postcode": "84098",
      "phone": "+1 435-255-6300",
      "website": "https://locations.modpizza.com/usa/ut/park-city/6622-n-landmark-dr",
      "opening_hours": "Mo-Th 10:30-22:00; Fr-Sa 10:30-23:00; Su 10:30-22:00",
      "amenity_type": "fast_food",
      "cuisine": "pizza"
    },
    {
      "osm_id": 9793395210,
      "osm_type": "node",
      "name": "MOD Pizza",
      "brand": "MOD Pizza",
      "latitude": 39.7865208,
      "longitude": -104.8821078,
      "address": "East Northfield Boulevard",
      "city": "Denver",
      "state": "CO",
      "postcode": "80230",
      "phone": "+1 720-242-6046",
      "website": "https://locations.modpizza.com/usa/co/denver/9135-e-northfield-blvd",
      "opening_hours": "Mo-Th 10:30-21:00; Fr-Sa 10:30-22:00; Su 10:30-21:00",
      "amenity_type": "fast_food",
      "cuisine": "pizza"
    },
    {
      "osm_id": 9883952207,
      "osm_type": "node",
      "name": "MOD Pizza",
      "brand": "MOD Pizza",
      "latitude": 39.5678695,
      "longitude": -104.8804949,
      "address": "South Chester Street",
      "city": "Centennial",
      "state": "CO",
      "postcode": "80112",
      "phone": "+1 720-214-5360",
      "website": "https://locations.modpizza.com/usa/co/centennial/8225-s-chester-st",
      "opening_hours": "Mo-Th 10:30-21:00; Fr-Sa 10:30-22:00; Su 10:30-21:00",
      "amenity_type": "fast_food",
      "cuisine": "pizza"
    },
    {
      "osm_id": 9926257080,
      "osm_type": "node",
      "name": "MOD Pizza",
      "brand": "MOD Pizza",
      "latitude": 47.6436472,
      "longitude": -117.5481056,
      "address": "West Sunset Highway",
      "city": "Spokane",
      "state": "WA",
      "postcode": "99224",
      "phone": "+1-509-385-0699",
      "website": "https://locations.modpizza.com/usa/wa/spokane/9746-w-sunset-hwy",
      "opening_hours": "Mo-We 10:30-22:00; Th-Sa 10:30-23:00; Su 10:30-22:00",
      "amenity_type": "fast_food",
      "cuisine": "pizza"
    },
    {
      "osm_id": 9978733659,
      "osm_type": "node",
      "name": "MOD Pizza",
      "brand": "MOD Pizza",
      "latitude": 30.0850824,
      "longitude": -95.4497207,
      "address": "Spring Stuebner Road",
      "city": "Spring",
      "state": "TX",
      "postcode": "77389",
      "phone": "+1 281-288-9144",
      "website": "https://locations.modpizza.com/usa/tx/spring/2168-spring-stuebner-rd",
      "opening_hours": "Mo-We 10:30-22:00; Th-Sa 10:30-23:00; Su 10:30-22:00",
      "amenity_type": "fast_food",
      "cuisine": "pizza"
    },
    {
      "osm_id": 9982475231,
      "osm_type": "node",
      "name": "MOD Pizza",
      "brand": "MOD Pizza",
      "latitude": 42.9128973,
      "longitude": -85.5796133,
      "address": "28th Street Southeast",
      "city": "Grand Rapids",
      "state": "MI",
      "postcode": "49512",
      "phone": "+1 616-827-7235",
      "website": "https://locations.modpizza.com/usa/mi/grand-rapids/3565-28th-st-se",
      "opening_hours": "11:00-22:00",
      "amenity_type": "fast_food",
      "cuisine": "pizza"
    },
    {
      "osm_id": 10002951311,
      "osm_type": "node",
      "name": "MOD Pizza",
      "brand": "MOD Pizza",
      "latitude": 35.1551778,
      "longitude": -80.7951153,
      "address": "Old Sardis Road",
      "city": "Charlotte",
      "state": "NC",
      "postcode": "28211",
      "phone": "+1 704-412-7448",
      "website": "https://locations.modpizza.com/usa/nc/charlotte/4914-old-sardis-rd",
      "opening_hours": "Mo-Th 10:30-22:00; Fr-Sa 10:30-23:00; Su 10:30-22:00",
      "amenity_type": "fast_food",
      "cuisine": "pizza"
    },
    {
      "osm_id": 10006922971,
      "osm_type": "node",
      "name": "MOD Pizza",
      "brand": "",
      "latitude": 45.3241388,
      "longitude": -122.5796409,
      "address": "Molalla Avenue",
      "city": "Oregon City",
      "state": "",
      "postcode": "97045",
      "phone": "",
      "website": "",
      "opening_hours": "",
      "amenity_type": "restaurant",
      "cuisine": ""
    },
    {
      "osm_id": 10012432173,
      "osm_type": "node",
      "name": "MOD Pizza",
      "brand": "MOD Pizza",
      "latitude": 30.0888114,
      "longitude": -95.5204563,
      "address": "North Grand Parkway West",
      "city": "Spring",
      "state": "TX",
      "postcode": "77389",
      "phone": "+1 832-410-1997",
      "website": "https://locations.modpizza.com/usa/tx/houston/6535-n-grand-pkwy-w",
      "opening_hours": "Mo-We 10:30-22:00; Th-Sa 10:30-23:00; Su 10:30-22:00",
      "amenity_type": "fast_food",
      "cuisine": "pizza"
    },
    {
      "osm_id": 10028625509,
      "osm_type": "node",
      "name": "MOD Pizza",
      "brand": "MOD Pizza",
      "latitude": 40.7844748,
      "longitude": -124.1839761,
      "address": "Broadway Street",
      "city": "Eureka",
      "state": "CA",
      "postcode": "95501",
      "phone": "+1 707-268-5540",
      "website": "https://locations.modpizza.com/usa/ca/eureka/2626-broadway-st",
      "opening_hours": "11:00-22:00",
      "amenity_type": "fast_food",
      "cuisine": "pizza"
    },
    {
      "osm_id": 10087772590,
      "osm_type": "node",
      "name": "MOD Pizza",
      "brand": "MOD Pizza",
      "latitude": 38.439171,
      "longitude": -90.375565,
      "address": "Water Tower Place",
      "city": "Arnold",
      "state": "MO",
      "postcode": "63010",
      "phone": "+1 314-582-7707",
      "website": "https://locations.modpizza.com/usa/mo/arnold/1261-water-tower-pl",
      "opening_hours": "10:30-21:00",
      "amenity_type": "fast_food",
      "cuisine": "pizza"
    },
    {
      "osm_id": 10122770164,
      "osm_type": "node",
      "name": "MOD Pizza",
      "brand": "MOD Pizza",
      "latitude": 32.1639694,
      "longitude": -110.9906939,
      "address": "West Irvington Road",
      "city": "Tucson",
      "state": "AZ",
      "postcode": "85714",
      "phone": "+1 520-214-0700",
      "website": "https://locations.modpizza.com/usa/az/tucson/1218-w-irvington-rd",
      "opening_hours": "Mo-Th 10:30-22:00; Fr-Sa 10:30-23:00; Su 10:30-22:00",
      "amenity_type": "fast_food",
      "cuisine": "pizza"
    },
    {
      "osm_id": 10138642216,
      "osm_type": "node",
      "name": "MOD Pizza",
      "brand": "MOD Pizza",
      "latitude": 33.3768358,
      "longitude": -112.1855564,
      "address": "South 59th Avenue",
      "city": "Phoenix",
      "state": "AZ",
      "postcode": "85339",
      "phone": "+1 602-609-5503",
      "website": "https://locations.modpizza.com/usa/az/phoenix/7620-s-59th-ave",
      "opening_hours": "Mo-Th 10:30-22:00; Fr-Sa 10:30-23:00; Su 10:30-22:00",
      "amenity_type": "fast_food",
      "cuisine": "pizza"
    },
    {
      "osm_id": 10153363569,
      "osm_type": "node",
      "name": "MOD Pizza",
      "brand": "MOD Pizza",
      "latitude": 33.173771,
      "longitude": -96.7323376,
      "address": "South Custer Road",
      "city": "McKinney",
      "state": "TX",
      "postcode": "75070",
      "phone": "+1 254-267-4376",
      "website": "https://locations.modpizza.com/usa/tx/mckinney/3009-s-custer-rd",
      "opening_hours": "Mo-We 10:30-22:00; Th-Sa 10:30-23:00; Su 10:30-22:00",
      "amenity_type": "fast_food",
      "cuisine": "pizza"
    },
    {
      "osm_id": 10220471891,
      "osm_type": "node",
      "name": "MOD Pizza",
      "brand": "MOD Pizza",
      "latitude": 42.1610753,
      "longitude": -88.0493114,
      "address": "North Rand Road",
      "city": "Kildeer",
      "state": "IL",
      "postcode": "60047",
      "phone": "+1 847-307-4030",
      "website": "https://locations.modpizza.com/usa/il/kildeer/20505-n-rand-rd",
      "opening_hours": "Mo-Th 10:30-22:00; Fr-Sa 10:30-23:00; Su 10:30-22:00",
      "amenity_type": "fast_food",
      "cuisine": "pizza"
    },
    {
      "osm_id": 10299573565,
      "osm_type": "node",
      "name": "MOD Pizza",
      "brand": "MOD Pizza",
      "latitude": 29.6041464,
      "longitude": -95.1271329,
      "address": "Clear Lake City Boulevard",
      "city": "Houston",
      "state": "TX",
      "postcode": "77059",
      "phone": "+1 832-284-4290",
      "website": "https://locations.modpizza.com/usa/tx/houston/3351-clear-lake-city-blvd",
      "opening_hours": "Mo-We 10:30-22:00; Th-Sa 10:30-23:00; Su 10:30-22:00",
      "amenity_type": "fast_food",
      "cuisine": "pizza"
    },
    {
      "osm_id": 10313687997,
      "osm_type": "node",
      "name": "MOD Pizza",
      "brand": "MOD Pizza",
      "latitude": 29.998908,
      "longitude": -95.1722018,
      "address": "FM 1960 East",
      "city": "Humble",
      "state": "TX",
      "postcode": "77346",
      "phone": "+1 832-995-1475",
      "website": "https://locations.modpizza.com/usa/tx/humble/7011-fm-1960-rd-e",
      "opening_hours": "Mo-We 10:30-22:00; Th-Sa 10:30-23:00; Su 10:30-22:00",
      "amenity_type": "fast_food",
      "cuisine": "pizza"
    },
    {
      "osm_id": 10594875197,
      "osm_type": "node",
      "name": "MOD Pizza",
      "brand": "MOD Pizza",
      "latitude": 46.2756572,
      "longitude": -119.186469,
      "address": "Road 68",
      "city": "Pasco",
      "state": "WA",
      "postcode": "99301",
      "phone": "+1-509-302-2023",
      "website": "https://locations.modpizza.com/usa/wa/pasco/5326-road-68",
      "opening_hours": "Mo-We 10:30-22:00; Th-Sa 10:30-23:00; Su 10:30-22:00",
      "amenity_type": "fast_food",
      "cuisine": "pizza"
    },
    {
      "osm_id": 10609275730,
      "osm_type": "node",
      "name": "MOD Pizza",
      "brand": "MOD Pizza",
      "latitude": 39.0374108,
      "longitude": -76.6798194,
      "address": "Main Chapel Way",
      "city": "Gambrills",
      "state": "MD",
      "postcode": "21054",
      "phone": "+1 443-494-5949",
      "website": "https://locations.modpizza.com/usa/md/gambrills/1350-main-chapel-way",
      "opening_hours": "Mo-Th 10:30-22:00; Fr-Sa 10:30-23:00; Su 10:30-22:00",
      "amenity_type": "fast_food",
      "cuisine": "pizza"
    },
    {
      "osm_id": 10642651383,
      "osm_type": "node",
      "name": "MOD Pizza",
      "brand": "MOD Pizza",
      "latitude": 29.7856722,
      "longitude": -95.5359765,
      "address": "Katy Freeway",
      "city": "Houston",
      "state": "TX",
      "postcode": "77055",
      "phone": "+1 832-852-7614",
      "website": "https://locations.modpizza.com/usa/tx/houston/9770-katy-fwy",
      "opening_hours": "Mo-We 10:30-22:00; Th-Sa 10:30-23:00; Su 10:30-22:00",
      "amenity_type": "fast_food",
      "cuisine": "pizza"
    },
    {
      "osm_id": 10672123639,
      "osm_type": "node",
      "name": "MOD Pizza",
      "brand": "MOD Pizza",
      "latitude": 39.7173406,
      "longitude": -104.9045912,
      "address": "North Quebec Street",
      "city": "Denver",
      "state": "CO",
      "postcode": "80224",
      "phone": "+1-720-693-9448",
      "website": "https://locations.modpizza.com/usa/co/denver/63-n-quebec-st",
      "opening_hours": "Su-Th 10:30-21:00; Fr-Sa 10:30-22:00",
      "amenity_type": "fast_food",
      "cuisine": "pizza"
    },
    {
      "osm_id": 10688662406,
      "osm_type": "node",
      "name": "MOD Pizza",
      "brand": "MOD Pizza",
      "latitude": 34.1825245,
      "longitude": -118.3951977,
      "address": "Laurel Canyon Boulevard",
      "city": "North Hollywood",
      "state": "CA",
      "postcode": "91606",
      "phone": "+1 747-205-4248",
      "website": "https://locations.modpizza.com/usa/ca/north-hollywood/6160-c-laurel-canyon-blvd",
      "opening_hours": "10:30-22:00",
      "amenity_type": "fast_food",
      "cuisine": "pizza"
    },
    {
      "osm_id": 10707532943,
      "osm_type": "node",
      "name": "MOD Pizza",
      "brand": "MOD Pizza",
      "latitude": 43.0927642,
      "longitude": -87.8877186,
      "address": "North Oakland Avenue",
      "city": "Shorewood",
      "state": "WI",
      "postcode": "53211",
      "phone": "+1 414-509-8350",
      "website": "https://locations.modpizza.com/usa/wi/shorewood/4151-n-oakland-ave",
      "opening_hours": "Mo-Th 10:30-22:00; Fr-Sa 10:30-23:00; Su 10:30-22:00",
      "amenity_type": "fast_food",
      "cuisine": "pizza"
    },
    {
      "osm_id": 10728476909,
      "osm_type": "node",
      "name": "MOD Pizza",
      "brand": "MOD Pizza",
      "latitude": 38.30371,
      "longitude": -76.5233338,
      "address": "Saint Andrews Church Road",
      "city": "California",
      "state": "MD",
      "postcode": "20619",
      "phone": "+1 301-245-7590",
      "website": "https://locations.modpizza.com/usa/md/california/44940-st-andrews-church-rd",
      "opening_hours": "Su-We 10:30-22:00; Th-Sa 10:30-23:00",
      "amenity_type": "fast_food",
      "cuisine": "pizza"
    },
    {
      "osm_id": 10753967028,
      "osm_type": "node",
      "name": "MOD Pizza",
      "brand": "MOD Pizza",
      "latitude": 29.6099209,
      "longitude": -98.5144934,
      "address": "North Loop 1604 West",
      "city": "San Antonio",
      "state": "TX",
      "postcode": "78258",
      "phone": "+1 210-610-8850",
      "website": "https://locations.modpizza.com/usa/tx/san-antonio/1435-n-loop-1604-w",
      "opening_hours": "Th-Sa 10:30-23:00; Su-We 10:30-22:00",
      "amenity_type": "fast_food",
      "cuisine": "pizza"
    },
    {
      "osm_id": 10779807670,
      "osm_type": "node",
      "name": "MOD Pizza",
      "brand": "MOD Pizza",
      "latitude": 30.6324538,
      "longitude": -97.6932054,
      "address": "West University Avenue",
      "city": "Georgetown",
      "state": "",
      "postcode": "78628",
      "phone": "+1 512-229-1712",
      "website": "https://locations.modpizza.com/usa/tx/georgetown/1003-w-university-ave",
      "opening_hours": "Mo-We,Su 10:30-22:00; Th-Sa 10:30-23:00",
      "amenity_type": "fast_food",
      "cuisine": "pizza"
    },
    {
      "osm_id": 10785153037,
      "osm_type": "node",
      "name": "MOD Pizza",
      "brand": "MOD Pizza",
      "latitude": 33.7760717,
      "longitude": -118.3762872,
      "address": "",
      "city": "Rolling Hills Estates",
      "state": "CA",
      "postcode": "90274",
      "phone": "+1 310-265-0100",
      "website": "https://locations.modpizza.com/usa/ca/rolling-hills-estates/3a-peninsula-center",
      "opening_hours": "Mo-Th 10:30-22:00; Fr-Sa 10:30-23:00; Su 10:30-22:00",
      "amenity_type": "fast_food",
      "cuisine": "pizza"
    },
    {
      "osm_id": 10801957200,
      "osm_type": "node",
      "name": "MOD Pizza",
      "brand": "MOD Pizza",
      "latitude": 29.5322138,
      "longitude": -95.5080446,
      "address": "Highway 6",
      "city": "Missouri City",
      "state": "TX",
      "postcode": "77459",
      "phone": "+1 346-509-8970",
      "website": "https://locations.modpizza.com/usa/tx/missouri-city/10407-highway-6",
      "opening_hours": "Mo-We 10:30-22:00; Th-Sa 10:30-23:00; Su 10:30-22:00",
      "amenity_type": "fast_food",
      "cuisine": "pizza"
    },
    {
      "osm_id": 10806535406,
      "osm_type": "node",
      "name": "MOD Pizza",
      "brand": "MOD Pizza",
      "latitude": 29.5520227,
      "longitude": -98.6644942,
      "address": "Bandera Road",
      "city": "San Antonio",
      "state": "",
      "postcode": "78250",
      "phone": "+1 726-207-4115",
      "website": "https://locations.modpizza.com/usa/tx/san-antonio/11646-bandera-rd-suite-102",
      "opening_hours": "Su-We 10:30-22:00; Th-Sa 10:30-23:00",
      "amenity_type": "fast_food",
      "cuisine": "pizza"
    },
    {
      "osm_id": 10807888424,
      "osm_type": "node",
      "name": "MOD Pizza",
      "brand": "MOD Pizza",
      "latitude": 32.8415338,
      "longitude": -97.2393142,
      "address": "Rufe Snow Drive",
      "city": "North Richland Hills",
      "state": "TX",
      "postcode": "76180",
      "phone": "+1 682-257-0012",
      "website": "https://locations.modpizza.com/usa/tx/north-richland-hills/5121-rufe-snow-dr",
      "opening_hours": "Mo-We 10:30-22:00; Th-Sa 10:30-23:00; Su 10:30-22:00",
      "amenity_type": "fast_food",
      "cuisine": "pizza"
    },
    {
      "osm_id": 10966501103,
      "osm_type": "node",
      "name": "MOD Pizza",
      "brand": "MOD Pizza",
      "latitude": 39.089124,
      "longitude": -108.552041,
      "address": "Wellington Avenue",
      "city": "Grand Junction",
      "state": "CO",
      "postcode": "81501",
      "phone": "+1-970-609-0355",
      "website": "https://locations.modpizza.com/usa/co/grand-junction/1201-wellington-ave",
      "opening_hours": "Su-Th 10:30-21:00; Fr-Sa 10:30-22:00",
      "amenity_type": "fast_food",
      "cuisine": "pizza"
    },
    {
      "osm_id": 10985529482,
      "osm_type": "node",
      "name": "MOD Pizza",
      "brand": "MOD Pizza",
      "latitude": 38.6538496,
      "longitude": -90.3521378,
      "address": "Ladue Road",
      "city": "Ladue",
      "state": "MO",
      "postcode": "63124",
      "phone": "+1 314-354-8120",
      "website": "https://locations.modpizza.com/usa/mo/ladue/8855k-ladue-rd",
      "opening_hours": "Mo-Th 10:30-22:00; Fr-Sa 10:30-23:00; Su 10:30-22:00",
      "amenity_type": "fast_food",
      "cuisine": "pizza"
    },
    {
      "osm_id": 11040492114,
      "osm_type": "node",
      "name": "MOD Pizza",
      "brand": "MOD Pizza",
      "latitude": 38.7671054,
      "longitude": -104.784346,
      "address": "Venetucci Boulevard",
      "city": "Colorado Springs",
      "state": "CO",
      "postcode": "80906",
      "phone": "+1 719-576-0168",
      "website": "https://locations.modpizza.com/usa/co/colorado-springs/4465-venetucci-blvd",
      "opening_hours": "Mo-Th 10:30-21:00; Fr-Sa 10:30-22:00; Su 10:30-21:00",
      "amenity_type": "fast_food",
      "cuisine": "pizza"
    },
    {
      "osm_id": 11045720133,
      "osm_type": "node",
      "name": "MOD Pizza",
      "brand": "MOD Pizza",
      "latitude": 33.6084488,
      "longitude": -112.414883,
      "address": "North Prasada Parkway",
      "city": "Surprise",
      "state": "AZ",
      "postcode": "85388",
      "phone": "+1 623-336-7360",
      "website": "https://locations.modpizza.com/usa/az/surprise/13668-n-prasada-parkway",
      "opening_hours": "Mo-Th 10:30-22:00; Fr-Sa 10:30-23:00; Su 10:30-22:00",
      "amenity_type": "fast_food",
      "cuisine": "pizza"
    },
    {
      "osm_id": 11047514490,
      "osm_type": "node",
      "name": "MOD Pizza",
      "brand": "MOD Pizza",
      "latitude": 29.4670733,
      "longitude": -95.0942619,
      "address": "South Gulf Freeway",
      "city": "League City",
      "state": "",
      "postcode": "77573",
      "phone": "+1 281-678-8097",
      "website": "https://locations.modpizza.com/usa/tx/league-city/2945-gulf-freeway-s",
      "opening_hours": "Mo-We,Su 10:30-22:00; Th-Sa 10:30-23:00",
      "amenity_type": "fast_food",
      "cuisine": "pizza"
    },
    {
      "osm_id": 11049644073,
      "osm_type": "node",
      "name": "MOD Pizza",
      "brand": "MOD Pizza",
      "latitude": 30.3873929,
      "longitude": -95.6804213,
      "address": "Eva Street",
      "city": "Montgomery",
      "state": "TX",
      "postcode": "77356",
      "phone": "+1 936-297-2155",
      "website": "https://locations.modpizza.com/usa/tx/montgomery/20175-eva-st.",
      "opening_hours": "Mo-We 10:30-22:00; Th-Sa 10:30-23:00; Su 10:30-22:00",
      "amenity_type": "fast_food",
      "cuisine": "pizza"
    },
    {
      "osm_id": 11088494153,
      "osm_type": "node",
      "name": "MOD Pizza",
      "brand": "MOD Pizza",
      "latitude": 46.2276411,
      "longitude": -119.2246303,
      "address": "North Columbia Center Boulevard",
      "city": "Kennewick",
      "state": "WA",
      "postcode": "99336",
      "phone": "+1-509-572-9964",
      "website": "https://locations.modpizza.com/usa/wa/kennewick/1659-n-columbia-center-blvd",
      "opening_hours": "Mo-We 10:30-22:00; Th-Sa 10:30-23:00; Su 10:30-22:00",
      "amenity_type": "fast_food",
      "cuisine": "pizza"
    },
    {
      "osm_id": 11124474559,
      "osm_type": "node",
      "name": "MOD Pizza",
      "brand": "MOD Pizza",
      "latitude": 42.167238,
      "longitude": -87.9230945,
      "address": "Deerfield Parkway",
      "city": "Buffalo Grove",
      "state": "IL",
      "postcode": "60089",
      "phone": "+1 847-425-4515",
      "website": "https://locations.modpizza.com/usa/il/buffalo-grove/1555-deerfield-pkwy",
      "opening_hours": "Mo-Th 10:30-22:00; Fr-Sa 10:30-23:00; Su 10:30-22:00",
      "amenity_type": "fast_food",
      "cuisine": "pizza"
    },
    {
      "osm_id": 11244655629,
      "osm_type": "node",
      "name": "MOD Pizza",
      "brand": "MOD Pizza",
      "latitude": 29.9814535,
      "longitude": -95.5092518,
      "address": "Farm",
      "city": "Houston",
      "state": "TX",
      "postcode": "77069",
      "phone": "+1 281-768-3532",
      "website": "https://locations.modpizza.com/usa/tx/houston/5203-farm-to-market-1960-rd-w",
      "opening_hours": "Mo-We 10:30-22:00; Th-Sa 10:30-23:00; Su 10:30-22:00",
      "amenity_type": "fast_food",
      "cuisine": "pizza"
    },
    {
      "osm_id": 11284348430,
      "osm_type": "node",
      "name": "MOD Pizza",
      "brand": "MOD Pizza",
      "latitude": 47.2255492,
      "longitude": -122.5365423,
      "address": "Market Place West",
      "city": "University Place",
      "state": "WA",
      "postcode": "98466",
      "phone": "+1-253-234-1432",
      "website": "https://locations.modpizza.com/usa/wa/university-place/3626-market-place-w",
      "opening_hours": "Mo-We 10:30-22:00; Th-Sa 10:30-23:00; Su 10:30-22:00",
      "amenity_type": "fast_food",
      "cuisine": "pizza"
    },
    {
      "osm_id": 11287307168,
      "osm_type": "node",
      "name": "MOD Pizza",
      "brand": "MOD Pizza",
      "latitude": 33.4905815,
      "longitude": -82.0800141,
      "address": "Robert C Daniel Parkway",
      "city": "Augusta",
      "state": "GA",
      "postcode": "30909",
      "phone": "+1 706-738-6748",
      "website": "https://locations.modpizza.com/usa/ga/augusta/229-robert-c-daniel-pkwy",
      "opening_hours": "Mo-Th 10:30-21:00; Fr-Sa 10:30-22:00; Su 10:30-21:00",
      "amenity_type": "fast_food",
      "cuisine": "pizza"
    },
    {
      "osm_id": 11295900989,
      "osm_type": "node",
      "name": "MOD Pizza",
      "brand": "MOD Pizza",
      "latitude": 40.0182559,
      "longitude": -75.6771083,
      "address": "East Lancaster Avenue",
      "city": "Downingtown",
      "state": "PA",
      "postcode": "19335",
      "phone": "+1 484-593-1017",
      "website": "https://locations.modpizza.com/usa/pa/downingtown/1090-e-lancaster-ave",
      "opening_hours": "12:00-20:00",
      "amenity_type": "fast_food",
      "cuisine": "pizza"
    },
    {
      "osm_id": 11301189258,
      "osm_type": "node",
      "name": "MOD Pizza",
      "brand": "MOD Pizza",
      "latitude": 47.0676622,
      "longitude": -122.7685351,
      "address": "Marvin Road Northeast",
      "city": "Lacey",
      "state": "WA",
      "postcode": "98516",
      "phone": "+1-360-507-8551",
      "website": "https://locations.modpizza.com/usa/wa/lacey/2370-marvin-road-ne",
      "opening_hours": "Mo-We 10:30-22:00; Th-Sa 10:30-23:00; Su 10:30-22:00",
      "amenity_type": "fast_food",
      "cuisine": "pizza"
    },
    {
      "osm_id": 11393318151,
      "osm_type": "node",
      "name": "MOD Pizza",
      "brand": "MOD Pizza",
      "latitude": 29.7051242,
      "longitude": -95.4690945,
      "address": "Bellaire Boulevard",
      "city": "Bellaire",
      "state": "TX",
      "postcode": "77401",
      "phone": "+1 346-340-6024",
      "website": "https://locations.modpizza.com/usa/tx/bellaire/5103-bellaire-blvd",
      "opening_hours": "Mo-We 10:30-22:00; Th-Sa 10:30-23:00; Su 10:30-22:00",
      "amenity_type": "fast_food",
      "cuisine": "pizza"
    },
    {
      "osm_id": 11440010595,
      "osm_type": "node",
      "name": "MOD Pizza",
      "brand": "MOD Pizza",
      "latitude": 33.8841543,
      "longitude": -84.3153937,
      "address": "",
      "city": "",
      "state": "",
      "postcode": "",
      "phone": "",
      "website": "",
      "opening_hours": "",
      "amenity_type": "fast_food",
      "cuisine": "pizza"
    },
    {
      "osm_id": 11493060744,
      "osm_type": "node",
      "name": "MOD Pizza",
      "brand": "MOD Pizza",
      "latitude": 30.0055335,
      "longitude": -95.2803812,
      "address": "FM 1960 Bypass Road",
      "city": "Humble",
      "state": "TX",
      "postcode": "77338",
      "phone": "+1 346-323-7432",
      "website": "https://locations.modpizza.com/usa/tx/humble/9509-fm-1960-bypass-rd",
      "opening_hours": "Mo-We 10:30-22:00; Th-Sa 10:30-23:00; Su 10:30-22:00",
      "amenity_type": "fast_food",
      "cuisine": "pizza"
    },
    {
      "osm_id": 11575726664,
      "osm_type": "node",
      "name": "MOD Pizza",
      "brand": "MOD Pizza",
      "latitude": 30.5837839,
      "longitude": -96.3234627,
      "address": "Wellborn Road",
      "city": "College Station",
      "state": "TX",
      "postcode": "77840",
      "phone": "+1 979-639-5540",
      "website": "https://locations.modpizza.com/usa/tx/college-station/11655-fm-2154",
      "opening_hours": "Mo-We 10:30-22:00; Th-Sa 10:30-23:00; Su 10:30-22:00",
      "amenity_type": "fast_food",
      "cuisine": "pizza"
    },
    {
      "osm_id": 11592610841,
      "osm_type": "node",
      "name": "MOD Pizza",
      "brand": "MOD Pizza",
      "latitude": 47.0467775,
      "longitude": -122.9407941,
      "address": "Cooper Point Road Southwest",
      "city": "Olympia",
      "state": "WA",
      "postcode": "98502",
      "phone": "+1-360-634-2070",
      "website": "https://locations.modpizza.com/usa/wa/olympia/410-cooper-point-rd-sw",
      "opening_hours": "",
      "amenity_type": "fast_food",
      "cuisine": "pizza"
    },
    {
      "osm_id": 11658306671,
      "osm_type": "node",
      "name": "MOD Pizza",
      "brand": "MOD Pizza",
      "latitude": 33.84156,
      "longitude": -78.6615984,
      "address": "US Highway 17 North",
      "city": "North Myrtle Beach",
      "state": "SC",
      "postcode": "29582",
      "phone": "+1 843-281-0686",
      "website": "https://modpizza.com/locations/north-myrtle-beach/",
      "opening_hours": "Su-Th 10:30-21:00; Fr-Sa 10:30-22:00",
      "amenity_type": "fast_food",
      "cuisine": "pizza"
    },
    {
      "osm_id": 11772926050,
      "osm_type": "node",
      "name": "MOD Pizza",
      "brand": "MOD Pizza",
      "latitude": 39.7605531,
      "longitude": -121.8447755,
      "address": "East Avenue",
      "city": "Chico",
      "state": "CA",
      "postcode": "95926",
      "phone": "+1 530-636-4862",
      "website": "https://locations.modpizza.com/usa/ca/chico/851-east-ave",
      "opening_hours": "Mo-Th 11:00-22:30; Fr-Su 11:00-23:00",
      "amenity_type": "fast_food",
      "cuisine": "pizza"
    },
    {
      "osm_id": 11787663734,
      "osm_type": "node",
      "name": "MOD Pizza",
      "brand": "MOD Pizza",
      "latitude": 47.0396151,
      "longitude": -122.8347147,
      "address": "Pacific Avenue Southeast",
      "city": "Lacey",
      "state": "WA",
      "postcode": "98503",
      "phone": "+1-360-489-3052",
      "website": "https://locations.modpizza.com/usa/wa/lacey/4022-pacific-ave-se",
      "opening_hours": "Mo-We 10:30-22:00; Th-Sa 10:30-23:00; Su 10:30-22:00",
      "amenity_type": "fast_food",
      "cuisine": "pizza"
    },
    {
      "osm_id": 11804212637,
      "osm_type": "node",
      "name": "MOD Pizza",
      "brand": "MOD Pizza",
      "latitude": 38.7835721,
      "longitude": -90.5025354,
      "address": "First Capitol Drive",
      "city": "Saint Charles",
      "state": "",
      "postcode": "63301",
      "phone": "+1 636-669-0540",
      "website": "https://locations.modpizza.com/usa/mo/st.-charles/1988-1st-capitol-dr",
      "opening_hours": "Mo-Th 10:30-22:00; Fr-Sa 10:30-23:00; Su 10:30-22:00",
      "amenity_type": "fast_food",
      "cuisine": "pizza"
    },
    {
      "osm_id": 11836134041,
      "osm_type": "node",
      "name": "MOD Pizza",
      "brand": "MOD Pizza",
      "latitude": 33.3242404,
      "longitude": -111.6864249,
      "address": "South Power Road",
      "city": "Mesa",
      "state": "AZ",
      "postcode": "85212",
      "phone": "+1 480-903-2528",
      "website": "https://locations.modpizza.com/usa/az/mesa/5021-s.-power-rd.",
      "opening_hours": "Mo-Th 10:30-22:00; Fr-Sa 10:30-23:00; Su 10:30-22:00",
      "amenity_type": "fast_food",
      "cuisine": "pizza"
    },
    {
      "osm_id": 11841787692,
      "osm_type": "node",
      "name": "MOD Pizza",
      "brand": "MOD Pizza",
      "latitude": 42.1728536,
      "longitude": -88.3359716,
      "address": "South Randall Road",
      "city": "Algonquin",
      "state": "IL",
      "postcode": "60102",
      "phone": "+1 224-246-8178",
      "website": "https://locations.modpizza.com/usa/il/algonquin/228-s-randall-rd",
      "opening_hours": "Mo-Th 10:30-22:00; Fr-Sa 10:30-23:00; Su 10:30-22:00",
      "amenity_type": "fast_food",
      "cuisine": "pizza"
    },
    {
      "osm_id": 11888645440,
      "osm_type": "node",
      "name": "MOD Pizza",
      "brand": "MOD Pizza",
      "latitude": 45.3105138,
      "longitude": -122.9352613,
      "address": "East Crestview Drive",
      "city": "Newberg",
      "state": "OR",
      "postcode": "97132",
      "phone": "+1 971-385-4139",
      "website": "https://locations.modpizza.com/usa/or/newberg/4105-e.-crestview-dr.",
      "opening_hours": "Mo-We 10:30-22:00; Th-Sa 10:30-23:00; Su 10:30-22:00",
      "amenity_type": "fast_food",
      "cuisine": "pizza"
    },
    {
      "osm_id": 11917031878,
      "osm_type": "node",
      "name": "MOD Pizza",
      "brand": "MOD Pizza",
      "latitude": 38.9789112,
      "longitude": -76.7332551,
      "address": "Annapolis Road",
      "city": "Bowie",
      "state": "MD",
      "postcode": "20715",
      "phone": "+1 301-464-0912",
      "website": "https://locations.modpizza.com/usa/md/bowie/15511-annapolis-rd",
      "opening_hours": "Mo-Th 10:30-22:00; Fr-Sa 10:30-23:00; Su 10:30-22:00",
      "amenity_type": "fast_food",
      "cuisine": "pizza"
    },
    {
      "osm_id": 11948389226,
      "osm_type": "node",
      "name": "MOD Pizza",
      "brand": "MOD Pizza",
      "latitude": 45.6722511,
      "longitude": -122.523741,
      "address": "Northeast Fourth Plain Boulevard",
      "city": "Vancouver",
      "state": "WA",
      "postcode": "98682",
      "phone": "+1-360-295-6976",
      "website": "https://locations.modpizza.com/usa/wa/vancouver/14405-ne-fourth-plain-blvd",
      "opening_hours": "Mo-We 10:30-22:00; Th-Sa 10:30-23:00; Su 10:30-22:00",
      "amenity_type": "fast_food",
      "cuisine": "pizza"
    },
    {
      "osm_id": 11974193625,
      "osm_type": "node",
      "name": "MOD Pizza",
      "brand": "MOD Pizza",
      "latitude": 40.8619375,
      "longitude": -111.8990367,
      "address": "South Wildcat Way",
      "city": "Woods Cross",
      "state": "UT",
      "postcode": "84087",
      "phone": "+1 801-683-8258",
      "website": "https://locations.modpizza.com/usa/ut/woods-cross/2577-s-wildcat-way",
      "opening_hours": "Mo-Th 10:30-22:00; Fr-Sa 10:30-23:00; Su 10:30-22:00",
      "amenity_type": "fast_food",
      "cuisine": "pizza"
    },
    {
      "osm_id": 11974193654,
      "osm_type": "node",
      "name": "MOD Pizza",
      "brand": "MOD Pizza",
      "latitude": 40.3733641,
      "longitude": -111.916912,
      "address": "North Redwood Road",
      "city": "Saratoga Springs",
      "state": "UT",
      "postcode": "84045",
      "phone": "+1 385-247-1051",
      "website": "https://locations.modpizza.com/usa/ut/saratoga-springs/617-n-redwood-rd",
      "opening_hours": "Mo-Th 10:30-22:00; Fr-Sa 10:30-23:00; Su 10:30-22:00",
      "amenity_type": "fast_food",
      "cuisine": "pizza"
    },
    {
      "osm_id": 11974255175,
      "osm_type": "node",
      "name": "MOD Pizza",
      "brand": "MOD Pizza",
      "latitude": 40.1239522,
      "longitude": -111.6452769,
      "address": "East 1000 North",
      "city": "Spanish Fork",
      "state": "UT",
      "postcode": "84660",
      "phone": "+1 801-515-4019",
      "website": "https://locations.modpizza.com/usa/ut/spanish-fork/521-e-1000-n",
      "opening_hours": "Mo-Th 10:30-22:00; Fr-Sa 10:30-23:00; Su 10:30-22:00",
      "amenity_type": "fast_food",
      "cuisine": "pizza"
    },
    {
      "osm_id": 11979251868,
      "osm_type": "node",
      "name": "MOD Pizza",
      "brand": "MOD Pizza",
      "latitude": 29.9033615,
      "longitude": -95.6326751,
      "address": "Highway 6 North",
      "city": "Houston",
      "state": "TX",
      "postcode": "77095",
      "phone": "+1 281-858-2911",
      "website": "https://locations.modpizza.com/usa/tx/houston/8552-highway-6-n",
      "opening_hours": "Mo-We 10:30-22:00; Th-Sa 10:30-23:00; Su 10:30-22:00",
      "amenity_type": "fast_food",
      "cuisine": "pizza"
    },
    {
      "osm_id": 11980077754,
      "osm_type": "node",
      "name": "MOD Pizza",
      "brand": "MOD Pizza",
      "latitude": 47.6938,
      "longitude": -117.365588,
      "address": "North Market",
      "city": "Spokane",
      "state": "WA",
      "postcode": "99207",
      "phone": "+1-509-413-0155",
      "website": "https://locations.modpizza.com/usa/wa/spokane/3907-n-market",
      "opening_hours": "Mo-We 10:30-22:00; Th-Sa 10:30-23:00; Su 10:30-22:00",
      "amenity_type": "fast_food",
      "cuisine": "pizza"
    },
    {
      "osm_id": 11980077756,
      "osm_type": "node",
      "name": "MOD Pizza",
      "brand": "MOD Pizza",
      "latitude": 47.6588707,
      "longitude": -117.4223057,
      "address": "West Main Avenue",
      "city": "Spokane",
      "state": "WA",
      "postcode": "99201",
      "phone": "+1-509-570-0433",
      "website": "https://locations.modpizza.com/usa/wa/spokane/707-w-main-ave",
      "opening_hours": "Mo-We 10:30-22:00; Th-Sa 10:30-23:00; Su 10:30-22:00",
      "amenity_type": "fast_food",
      "cuisine": "pizza"
    },
    {
      "osm_id": 11980084107,
      "osm_type": "node",
      "name": "MOD Pizza",
      "brand": "MOD Pizza",
      "latitude": 36.7656991,
      "longitude": -76.2511408,
      "address": "North Battlefield Boulevard",
      "city": "Chesapeake",
      "state": "VA",
      "postcode": "23320",
      "phone": "+1 757-366-2354",
      "website": "https://locations.modpizza.com/usa/va/chesapeake/1329-n-battlefield-blvd",
      "opening_hours": "Mo-Th 10:30-22:00; Fr-Sa 10:30-23:00; Su 10:30-22:00",
      "amenity_type": "fast_food",
      "cuisine": "pizza"
    },
    {
      "osm_id": 11980084115,
      "osm_type": "node",
      "name": "MOD Pizza",
      "brand": "MOD Pizza",
      "latitude": 36.8785748,
      "longitude": -76.1940686,
      "address": "Premium Outlets Boulevard",
      "city": "Norfolk",
      "state": "VA",
      "postcode": "23502",
      "phone": "+1 757-901-0348",
      "website": "https://locations.modpizza.com/usa/va/norfolk/1541-premium-outlets-blvd",
      "opening_hours": "Su-We 10:30-22:00; Th-Sa 10:30-23:00",
      "amenity_type": "fast_food",
      "cuisine": "pizza"
    },
    {
      "osm_id": 11980084119,
      "osm_type": "node",
      "name": "MOD Pizza",
      "brand": "MOD Pizza",
      "latitude": 36.9435689,
      "longitude": -76.3104029,
      "address": "Mall Drive",
      "city": "Norfolk",
      "state": "VA",
      "postcode": "23511",
      "phone": "+1 757-734-7334",
      "website": "https://locations.modpizza.com/usa/va/norfolk/1560-mall-drive-cd-13",
      "opening_hours": "Mo-Fr 09:00-19:00; Sa 09:00-18:00; Su 09:00-17:00",
      "amenity_type": "fast_food",
      "cuisine": "pizza"
    },
    {
      "osm_id": 11980089297,
      "osm_type": "node",
      "name": "MOD Pizza",
      "brand": "MOD Pizza",
      "latitude": 47.0968048,
      "longitude": -122.3571385,
      "address": "Canyon Parkway East",
      "city": "Tacoma",
      "state": "WA",
      "postcode": "98446",
      "phone": "+1-253-532-5448",
      "website": "https://locations.modpizza.com/usa/wa/tacoma/17513-canyon-parkway-e",
      "opening_hours": "Mo-We 10:30-22:00; Th-Sa 10:30-23:00; Su 10:30-22:00",
      "amenity_type": "fast_food",
      "cuisine": "pizza"
    },
    {
      "osm_id": 11980094610,
      "osm_type": "node",
      "name": "MOD Pizza",
      "brand": "MOD Pizza",
      "latitude": 47.0447447,
      "longitude": -122.9408301,
      "address": "Cooper Point Road Southwest",
      "city": "Olympia",
      "state": "WA",
      "postcode": "98502",
      "phone": "+1-360-634-2070",
      "website": "https://locations.modpizza.com/usa/wa/olympia/410-cooper-point-rd-sw",
      "opening_hours": "Mo-We 10:30-22:00; Th-Sa 10:30-23:00; Su 10:30-22:00",
      "amenity_type": "fast_food",
      "cuisine": "pizza"
    },
    {
      "osm_id": 11980117013,
      "osm_type": "node",
      "name": "MOD Pizza",
      "brand": "MOD Pizza",
      "latitude": 38.6532477,
      "longitude": -77.3062733,
      "address": "Smoketown Road",
      "city": "Woodbridge",
      "state": "VA",
      "postcode": "22192",
      "phone": "+1 571-260-0066",
      "website": "https://locations.modpizza.com/usa/va/woodbridge/13800-smoketown-rd",
      "opening_hours": "Mo-Th 10:30-22:00; Fr-Sa 10:30-23:00; Su 10:30-22:00",
      "amenity_type": "fast_food",
      "cuisine": "pizza"
    },
    {
      "osm_id": 11980126838,
      "osm_type": "node",
      "name": "MOD Pizza",
      "brand": "MOD Pizza",
      "latitude": 47.6992885,
      "longitude": -122.0279943,
      "address": "Northeast Novelty Hill Road",
      "city": "Redmond",
      "state": "WA",
      "postcode": "98053",
      "phone": "+1-425-307-1150",
      "website": "https://locations.modpizza.com/usa/wa/redmond/23423-ne-novelty-hill-rd",
      "opening_hours": "Mo-We 10:30-22:00; Th-Sa 10:30-23:00; Su 10:30-22:00",
      "amenity_type": "fast_food",
      "cuisine": "pizza"
    },
    {
      "osm_id": 11980138707,
      "osm_type": "node",
      "name": "MOD Pizza",
      "brand": "MOD Pizza",
      "latitude": 32.9358049,
      "longitude": -80.0408835,
      "address": "Ashley Phosphate Road",
      "city": "North Charleston",
      "state": "SC",
      "postcode": "29406",
      "phone": "+1 854-444-5100",
      "website": "https://locations.modpizza.com/usa/sc/north-charleston/2135-ashley-phosphate-rd",
      "opening_hours": "Mo-Th 10:30-21:00; Fr-Sa 10:30-22:00; Su 10:30-21:00",
      "amenity_type": "fast_food",
      "cuisine": "pizza"
    },
    {
      "osm_id": 11980533010,
      "osm_type": "node",
      "name": "MOD Pizza",
      "brand": "MOD Pizza",
      "latitude": 32.6052953,
      "longitude": -97.4099199,
      "address": "Ten Gallon Drive",
      "city": "Fort Worth",
      "state": "TX",
      "postcode": "76123",
      "phone": "+1 682-268-5057",
      "website": "https://locations.modpizza.com/usa/tx/fort-worth/9605-ten-gallon-dr",
      "opening_hours": "Mo-We 10:30-22:00; Th-Sa 10:30-23:00; Su 10:30-22:00",
      "amenity_type": "fast_food",
      "cuisine": "pizza"
    },
    {
      "osm_id": 11980571225,
      "osm_type": "node",
      "name": "MOD Pizza",
      "brand": "MOD Pizza",
      "latitude": 33.9221261,
      "longitude": -118.1315359,
      "address": "Apollo Way",
      "city": "Downey",
      "state": "CA",
      "postcode": "90242",
      "phone": "+1 562-299-0344",
      "website": "https://locations.modpizza.com/usa/ca/downey/8896-apollo-way",
      "opening_hours": "Mo-Th 10:30-22:00; Fr-Sa 10:30-23:00; Su 10:30-22:00",
      "amenity_type": "fast_food",
      "cuisine": "pizza"
    },
    {
      "osm_id": 11981731038,
      "osm_type": "node",
      "name": "MOD Pizza",
      "brand": "MOD Pizza",
      "latitude": 33.1293367,
      "longitude": -96.6642023,
      "address": "West Stacy Road",
      "city": "Allen",
      "state": "TX",
      "postcode": "75013",
      "phone": "+1 469-393-0011",
      "website": "https://locations.modpizza.com/usa/tx/allen/845-w-stacy-rd",
      "opening_hours": "Mo-We 10:30-22:00; Th-Sa 10:30-23:00; Su 10:30-22:00",
      "amenity_type": "fast_food",
      "cuisine": "pizza"
    },
    {
      "osm_id": 11981731039,
      "osm_type": "node",
      "name": "MOD Pizza",
      "brand": "MOD Pizza",
      "latitude": 33.2169779,
      "longitude": -96.6828637,
      "address": "North Lake Forest Drive",
      "city": "McKinney",
      "state": "TX",
      "postcode": "75071",
      "phone": "+1 469-545-0615",
      "website": "https://locations.modpizza.com/usa/tx/mckinney/1871-n-lake-forest-dr",
      "opening_hours": "Mo-We 10:30-22:00; Th-Sa 10:30-23:00; Su 10:30-22:00",
      "amenity_type": "fast_food",
      "cuisine": "pizza"
    },
    {
      "osm_id": 11981748328,
      "osm_type": "node",
      "name": "MOD Pizza",
      "brand": "MOD Pizza",
      "latitude": 32.890929,
      "longitude": -96.471122,
      "address": "Ridge Road",
      "city": "Rockwall",
      "state": "TX",
      "postcode": "75032",
      "phone": "+1 469-887-4056",
      "website": "https://locations.modpizza.com/usa/tx/rockwall/2901-ridge-rd-suite-100",
      "opening_hours": "Mo-We 10:30-22:00; Th-Sa 10:30-23:00; Su 10:30-22:00",
      "amenity_type": "fast_food",
      "cuisine": "pizza"
    },
    {
      "osm_id": 11983795897,
      "osm_type": "node",
      "name": "MOD Pizza",
      "brand": "MOD Pizza",
      "latitude": 41.5972118,
      "longitude": -88.0175205,
      "address": "West 159th Street",
      "city": "Lockport",
      "state": "IL",
      "postcode": "60441",
      "phone": "",
      "website": "",
      "opening_hours": "",
      "amenity_type": "fast_food",
      "cuisine": "pizza"
    },
    {
      "osm_id": 11991117917,
      "osm_type": "node",
      "name": "MOD Pizza",
      "brand": "MOD Pizza",
      "latitude": 41.9385994,
      "longitude": -88.1126942,
      "address": "West Army Trail Road",
      "city": "Bloomingdale",
      "state": "IL",
      "postcode": "60108",
      "phone": "+1 630-523-5296",
      "website": "https://locations.modpizza.com/usa/il/bloomingdale/370-w-army-trail-rd",
      "opening_hours": "Mo-Th 10:30-22:00; Fr-Sa 10:30-23:00; Su 10:30-22:00",
      "amenity_type": "fast_food",
      "cuisine": "pizza"
    },
    {
      "osm_id": 11991117954,
      "osm_type": "node",
      "name": "MOD Pizza",
      "brand": "MOD Pizza",
      "latitude": 41.8091456,
      "longitude": -88.0122876,
      "address": "West Ogden Avenue",
      "city": "Downers Grove",
      "state": "IL",
      "postcode": "60515",
      "phone": "+1 630-286-6775",
      "website": "https://locations.modpizza.com/usa/il/downers-grove/1022-w-ogden-ave",
      "opening_hours": "Mo-Th 10:30-22:00; Fr-Sa 10:30-23:00; Su 10:30-22:00",
      "amenity_type": "fast_food",
      "cuisine": "pizza"
    },
    {
      "osm_id": 11991121630,
      "osm_type": "node",
      "name": "MOD Pizza",
      "brand": "MOD Pizza",
      "latitude": 41.721277,
      "longitude": -88.037948,
      "address": "Janes Avenue",
      "city": "Bolingbrook",
      "state": "IL",
      "postcode": "60440",
      "phone": "+1 630-283-8740",
      "website": "https://locations.modpizza.com/usa/il/bolingbrook/750-janes-ave",
      "opening_hours": "Mo-Th 10:30-22:00; Fr-Sa 10:30-23:00; Su 10:30-22:00",
      "amenity_type": "fast_food",
      "cuisine": "pizza"
    },
    {
      "osm_id": 12021327650,
      "osm_type": "node",
      "name": "MOD Pizza",
      "brand": "MOD Pizza",
      "latitude": 43.2314629,
      "longitude": -123.3717178,
      "address": "Northwest Garden Valley Boulevard",
      "city": "Roseburg",
      "state": "OR",
      "postcode": "97471",
      "phone": "",
      "website": "",
      "opening_hours": "",
      "amenity_type": "fast_food",
      "cuisine": "pizza"
    },
    {
      "osm_id": 12043766745,
      "osm_type": "node",
      "name": "MOD Pizza",
      "brand": "MOD Pizza",
      "latitude": 33.0107774,
      "longitude": -96.5892732,
      "address": "FM 544",
      "city": "Wylie",
      "state": "TX",
      "postcode": "75098",
      "phone": "+1-469-409-3203",
      "website": "https://locations.modpizza.com/usa/tx/wylie/3100-fm-544",
      "opening_hours": "Su-We 10:30-22:00; Th-Sa 10:30-23:00",
      "amenity_type": "fast_food",
      "cuisine": "pizza"
    },
    {
      "osm_id": 12044710831,
      "osm_type": "node",
      "name": "MOD Pizza",
      "brand": "MOD Pizza",
      "latitude": 29.6979046,
      "longitude": -95.2966145,
      "address": "Gulfgate Center Mall",
      "city": "Houston",
      "state": "TX",
      "postcode": "77087",
      "phone": "+1 713-405-7251",
      "website": "https://locations.modpizza.com/usa/tx/houston/920-gulfgate-center-mall",
      "opening_hours": "Mo-We 10:30-22:00; Th-Sa 10:30-23:00; Su 10:30-22:00",
      "amenity_type": "fast_food",
      "cuisine": "pizza"
    },
    {
      "osm_id": 12044710841,
      "osm_type": "node",
      "name": "MOD Pizza",
      "brand": "MOD Pizza",
      "latitude": 29.7095198,
      "longitude": -95.4016465,
      "address": "Fannin Street",
      "city": "Houston",
      "state": "TX",
      "postcode": "77030",
      "phone": "+1 832-919-8863",
      "website": "https://locations.modpizza.com/usa/tx/houston/6622-fannin-st",
      "opening_hours": "10:00-22:00",
      "amenity_type": "fast_food",
      "cuisine": "pizza"
    },
    {
      "osm_id": 12044710863,
      "osm_type": "node",
      "name": "MOD Pizza",
      "brand": "MOD Pizza",
      "latitude": 29.7866696,
      "longitude": -95.4103366,
      "address": "North Shepherd Drive",
      "city": "Houston",
      "state": "TX",
      "postcode": "77008",
      "phone": "",
      "website": "https://locations.modpizza.com/usa/tx/houston/915-n.-shepherd-drive",
      "opening_hours": "",
      "amenity_type": "fast_food",
      "cuisine": "pizza"
    },
    {
      "osm_id": 12044717574,
      "osm_type": "node",
      "name": "MOD Pizza",
      "brand": "MOD Pizza",
      "latitude": 29.8163225,
      "longitude": -95.1655718,
      "address": "East Sam Houston Parkway North",
      "city": "Houston",
      "state": "TX",
      "postcode": "77049",
      "phone": "+1 346-214-5120",
      "website": "https://locations.modpizza.com/usa/tx/houston/6125-e-sam-houston-pkwy-n",
      "opening_hours": "Mo-We 10:30-22:00; Th-Sa 10:30-23:00; Su 10:30-22:00",
      "amenity_type": "fast_food",
      "cuisine": "pizza"
    },
    {
      "osm_id": 12050368491,
      "osm_type": "node",
      "name": "MOD Pizza",
      "brand": "MOD Pizza",
      "latitude": 29.5581811,
      "longitude": -95.2622464,
      "address": "Pearland Parkway",
      "city": "Pearland",
      "state": "TX",
      "postcode": "77581",
      "phone": "+1 281-810-5998",
      "website": "https://locations.modpizza.com/usa/tx/pearland/2682-pearland-pkwy",
      "opening_hours": "Mo-We 10:30-22:00; Th-Sa 10:30-23:00; Su 10:30-22:00",
      "amenity_type": "fast_food",
      "cuisine": "pizza"
    },
    {
      "osm_id": 12050368510,
      "osm_type": "node",
      "name": "MOD Pizza",
      "brand": "MOD Pizza",
      "latitude": 29.5575684,
      "longitude": -95.3922888,
      "address": "Business Center Drive",
      "city": "Pearland",
      "state": "TX",
      "postcode": "77584",
      "phone": "+1 346-353-7606",
      "website": "https://locations.modpizza.com/usa/tx/pearland/2810-business-center-dr",
      "opening_hours": "Mo-We 10:30-22:00; Th-Sa 10:30-23:00; Su 10:30-22:00",
      "amenity_type": "fast_food",
      "cuisine": "pizza"
    },
    {
      "osm_id": 12050368552,
      "osm_type": "node",
      "name": "MOD Pizza",
      "brand": "MOD Pizza",
      "latitude": 38.9514802,
      "longitude": -77.3484691,
      "address": "Plaza America Drive",
      "city": "Reston",
      "state": "VA",
      "postcode": "20190",
      "phone": "+1 703-674-3599",
      "website": "https://locations.modpizza.com/usa/va/reston/11642-plaza-america-dr",
      "opening_hours": "Mo-Th 10:30-22:00; Fr-Sa 10:30-23:00; Su 10:30-22:00",
      "amenity_type": "fast_food",
      "cuisine": "pizza"
    },
    {
      "osm_id": 12051803000,
      "osm_type": "node",
      "name": "MOD Pizza",
      "brand": "MOD Pizza",
      "latitude": 30.6353717,
      "longitude": -97.826131,
      "address": "Ronald W Reagan Boulevard",
      "city": "Georgetown",
      "state": "TX",
      "postcode": "78628",
      "phone": "",
      "website": "",
      "opening_hours": "",
      "amenity_type": "fast_food",
      "cuisine": "pizza"
    },
    {
      "osm_id": 12141049211,
      "osm_type": "node",
      "name": "MOD Pizza",
      "brand": "MOD Pizza",
      "latitude": 29.9438631,
      "longitude": -93.9895757,
      "address": "",
      "city": "",
      "state": "",
      "postcode": "",
      "phone": "",
      "website": "",
      "opening_hours": "",
      "amenity_type": "fast_food",
      "cuisine": "pizza"
    },
    {
      "osm_id": 12192793808,
      "osm_type": "node",
      "name": "MOD Pizza",
      "brand": "MOD Pizza",
      "latitude": 27.710969,
      "longitude": -97.3688986,
      "address": "S Staples St",
      "city": "Corpus Christi",
      "state": "TX",
      "postcode": "78411",
      "phone": "+13616002168",
      "website": "https://locations.modpizza.com/usa/tx/corpus-christi/4938-s-staples-st",
      "opening_hours": "Mo-Su 10:30-22:00",
      "amenity_type": "fast_food",
      "cuisine": "pizza"
    },
    {
      "osm_id": 12223097778,
      "osm_type": "node",
      "name": "MOD Pizza",
      "brand": "MOD Pizza",
      "latitude": 29.794324,
      "longitude": -94.9795505,
      "address": "Garth Road",
      "city": "",
      "state": "",
      "postcode": "",
      "phone": "",
      "website": "",
      "opening_hours": "",
      "amenity_type": "fast_food",
      "cuisine": "pizza"
    },
    {
      "osm_id": 12313718857,
      "osm_type": "node",
      "name": "MOD Pizza",
      "brand": "MOD Pizza",
      "latitude": 38.9600631,
      "longitude": -92.3720923,
      "address": "",
      "city": "",
      "state": "",
      "postcode": "",
      "phone": "",
      "website": "",
      "opening_hours": "",
      "amenity_type": "fast_food",
      "cuisine": "pizza"
    },
    {
      "osm_id": 12450298829,
      "osm_type": "node",
      "name": "MOD Pizza",
      "brand": "MOD Pizza",
      "latitude": 32.2860132,
      "longitude": -110.9749405,
      "address": "",
      "city": "",
      "state": "",
      "postcode": "",
      "phone": "",
      "website": "",
      "opening_hours": "",
      "amenity_type": "fast_food",
      "cuisine": "pizza"
    },
    {
      "osm_id": 12551361538,
      "osm_type": "node",
      "name": "MOD Pizza",
      "brand": "MOD Pizza",
      "latitude": 33.4942435,
      "longitude": -112.4800991,
      "address": "West Indian School Road",
      "city": "Buckeye",
      "state": "AZ",
      "postcode": "85340",
      "phone": "",
      "website": "",
      "opening_hours": "",
      "amenity_type": "fast_food",
      "cuisine": "pizza"
    },
    {
      "osm_id": 12580348289,
      "osm_type": "node",
      "name": "MOD Pizza",
      "brand": "MOD Pizza",
      "latitude": 31.5551768,
      "longitude": -110.254495,
      "address": "E Hwy 90",
      "city": "Sierra Vista",
      "state": "AZ",
      "postcode": "85635",
      "phone": "+1-520-462-0495",
      "website": "",
      "opening_hours": "",
      "amenity_type": "fast_food",
      "cuisine": "pizza"
    },
    {
      "osm_id": 12602237882,
      "osm_type": "node",
      "name": "MOD Pizza",
      "brand": "MOD Pizza",
      "latitude": 32.5696258,
      "longitude": -97.1150293,
      "address": "East Broad Street",
      "city": "Mansfield",
      "state": "TX",
      "postcode": "76063",
      "phone": "",
      "website": "",
      "opening_hours": "",
      "amenity_type": "fast_food",
      "cuisine": "pizza"
    },
    {
      "osm_id": 12712269708,
      "osm_type": "node",
      "name": "MOD Pizza",
      "brand": "MOD Pizza",
      "latitude": 33.7950637,
      "longitude": -84.2869025,
      "address": "",
      "city": "",
      "state": "",
      "postcode": "",
      "phone": "",
      "website": "",
      "opening_hours": "",
      "amenity_type": "fast_food",
      "cuisine": "pizza"
    },
    {
      "osm_id": 12872226542,
      "osm_type": "node",
      "name": "MOD Pizza",
      "brand": "MOD Pizza",
      "latitude": 33.6799694,
      "longitude": -117.6649676,
      "address": "",
      "city": "",
      "state": "",
      "postcode": "",
      "phone": "",
      "website": "",
      "opening_hours": "Th-Sa 10:30-23:00; Su-We 10:30-22:00",
      "amenity_type": "fast_food",
      "cuisine": "pizza"
    },
    {
      "osm_id": 13089127190,
      "osm_type": "node",
      "name": "MOD Pizza",
      "brand": "",
      "latitude": 30.1826884,
      "longitude": -95.4515508,
      "address": "I-45",
      "city": "",
      "state": "",
      "postcode": "",
      "phone": "+12815031560",
      "website": "https://locations.modpizza.com/usa/tx/shenandoah/19075-ih-45-s?utm_source=google&utm_medium=yext",
      "opening_hours": "",
      "amenity_type": "restaurant",
      "cuisine": ""
    },
    {
      "osm_id": 13143595701,
      "osm_type": "node",
      "name": "MOD Pizza",
      "brand": "MOD Pizza",
      "latitude": 40.3564531,
      "longitude": -75.9806585,
      "address": "North Meridian Boulevard",
      "city": "Wyomissing",
      "state": "PA",
      "postcode": "19610",
      "phone": "+1 610-572-5380",
      "website": "https://locations.modpizza.com/usa/pa/wyomissing/2715-n-meridian-blvd",
      "opening_hours": "Mo-We,Su 10:30-22:00; Th-Sa 10:30-23:00",
      "amenity_type": "fast_food",
      "cuisine": "pizza"
    },
    {
      "osm_id": 13242232827,
      "osm_type": "node",
      "name": "MOD Pizza",
      "brand": "MOD Pizza",
      "latitude": 38.7940493,
      "longitude": -121.3251847,
      "address": "",
      "city": "",
      "state": "",
      "postcode": "",
      "phone": "",
      "website": "",
      "opening_hours": "",
      "amenity_type": "fast_food",
      "cuisine": "pizza"
    },
    {
      "osm_id": 13325221558,
      "osm_type": "node",
      "name": "MOD Pizza",
      "brand": "MOD Pizza",
      "latitude": 37.5149166,
      "longitude": -120.8784319,
      "address": "Countryside Drive",
      "city": "Turlock",
      "state": "CA",
      "postcode": "95380",
      "phone": "+1 209 410 5962",
      "website": "https://locations.modpizza.com/usa/ca/turlock/2677-countryside-dr",
      "opening_hours": "Su-We 10:30-22:00; Th-Sa 10:30-23:00",
      "amenity_type": "fast_food",
      "cuisine": "pizza"
    },
    {
      "osm_id": 13329682805,
      "osm_type": "node",
      "name": "MOD Pizza",
      "brand": "MOD Pizza",
      "latitude": 33.0641844,
      "longitude": -112.0485135,
      "address": "",
      "city": "",
      "state": "",
      "postcode": "",
      "phone": "",
      "website": "",
      "opening_hours": "",
      "amenity_type": "fast_food",
      "cuisine": "pizza"
    },
    {
      "osm_id": 13374668612,
      "osm_type": "node",
      "name": "MOD Pizza",
      "brand": "MOD Pizza",
      "latitude": 40.5396869,
      "longitude": -122.3485368,
      "address": "",
      "city": "",
      "state": "",
      "postcode": "",
      "phone": "",
      "website": "",
      "opening_hours": "",
      "amenity_type": "fast_food",
      "cuisine": "pizza"
    },
    {
      "osm_id": 13403180816,
      "osm_type": "node",
      "name": "MOD Pizza",
      "brand": "MOD Pizza",
      "latitude": 32.085135,
      "longitude": -110.7740011,
      "address": "",
      "city": "",
      "state": "",
      "postcode": "",
      "phone": "",
      "website": "",
      "opening_hours": "",
      "amenity_type": "fast_food",
      "cuisine": "pizza"
    },
    {
      "osm_id": 13451845692,
      "osm_type": "node",
      "name": "MOD Pizza",
      "brand": "MOD Pizza",
      "latitude": 30.1417019,
      "longitude": -96.38168,
      "address": "US Highway 290 East",
      "city": "Brenham",
      "state": "TX",
      "postcode": "77833",
      "phone": "+1 979-290-4218",
      "website": "https://locations.modpizza.com/usa/tx/brenham/934-hwy-290-e",
      "opening_hours": "Su-We 10:30-22:00; Th-Sa 10:30-23:00",
      "amenity_type": "fast_food",
      "cuisine": "pizza"
    },
    {
      "osm_id": 13513581001,
      "osm_type": "node",
      "name": "MOD pizza",
      "brand": "",
      "latitude": 42.5407698,
      "longitude": -83.7856116,
      "address": "",
      "city": "",
      "state": "",
      "postcode": "",
      "phone": "",
      "website": "",
      "opening_hours": "",
      "amenity_type": "fast_food",
      "cuisine": ""
    },
    {
      "osm_id": 13527495741,
      "osm_type": "node",
      "name": "MOD Pizza",
      "brand": "MOD Pizza",
      "latitude": 34.0357734,
      "longitude": -118.104295,
      "address": "Market Place Drive",
      "city": "Monterey Park",
      "state": "CA",
      "postcode": "91755",
      "phone": "+1 323-597-4402",
      "website": "https://locations.modpizza.com/usa/ca/monterey-park/2200-market-place-dr",
      "opening_hours": "Mo-Su 11:00-22:00",
      "amenity_type": "fast_food",
      "cuisine": "pizza"
    }
  ]
}