{
  "metadata": {
    "chain": "Raising Cane",
    "country": "US",
    "scraped_at": "2026-02-15T11:09:03.139300",
    "total_locations": 188,
    "source": "OpenStreetMap Overpass API"
  },
  "locations": [
    {
      "osm_id": 415414880,
      "osm_type": "node",
      "name": "Raising Cane's",
      "brand": "Raising Cane's",
      "latitude": 44.7323845,
      "longitude": -93.2187463,
      "address": "",
      "city": "",
      "state": "",
      "postcode": "",
      "phone": "",
      "website": "",
      "opening_hours": "Su-Th 10:00-24:00, Fr,Sa 10:00-01:00",
      "amenity_type": "fast_food",
      "cuisine": "chicken"
    },
    {
      "osm_id": 503832641,
      "osm_type": "node",
      "name": "Raising Cane's",
      "brand": "Raising Cane's",
      "latitude": 39.9949045,
      "longitude": -83.006791,
      "address": "",
      "city": "",
      "state": "",
      "postcode": "",
      "phone": "",
      "website": "",
      "opening_hours": "Su-We 10:00-23:00, Th-Sa 10:00-03:30",
      "amenity_type": "fast_food",
      "cuisine": "chicken"
    },
    {
      "osm_id": 738212122,
      "osm_type": "node",
      "name": "Raising Cane's",
      "brand": "Raising Cane's",
      "latitude": 38.8992191,
      "longitude": -77.0220985,
      "address": "7th Street Northwest",
      "city": "",
      "state": "",
      "postcode": "",
      "phone": "",
      "website": "",
      "opening_hours": "",
      "amenity_type": "fast_food",
      "cuisine": "chicken"
    },
    {
      "osm_id": 815754376,
      "osm_type": "node",
      "name": "Raising Cane's",
      "brand": "Raising Cane's",
      "latitude": 42.3517837,
      "longitude": -71.1187216,
      "address": "Commonwealth Avenue",
      "city": "",
      "state": "",
      "postcode": "",
      "phone": "",
      "website": "https://raisingcanes.com/",
      "opening_hours": "",
      "amenity_type": "fast_food",
      "cuisine": "chicken"
    },
    {
      "osm_id": 1330363470,
      "osm_type": "node",
      "name": "Raising Cane's",
      "brand": "Raising Cane's",
      "latitude": 42.734732,
      "longitude": -84.481391,
      "address": "",
      "city": "",
      "state": "",
      "postcode": "",
      "phone": "",
      "website": "",
      "opening_hours": "",
      "amenity_type": "fast_food",
      "cuisine": "chicken"
    },
    {
      "osm_id": 1494886585,
      "osm_type": "node",
      "name": "Raising Cane's",
      "brand": "Raising Cane's",
      "latitude": 44.9737557,
      "longitude": -93.2258232,
      "address": "Southeast Washington Avenue",
      "city": "Minneapolis",
      "state": "MN",
      "postcode": "55414",
      "phone": "+1-612-378-3243",
      "website": "https://raisingcanes.com/",
      "opening_hours": "Mo-Th 10:30-22:00; Fr-Sa 10:30-24:00; Su 11:00-21:00",
      "amenity_type": "fast_food",
      "cuisine": "chicken"
    },
    {
      "osm_id": 1720016522,
      "osm_type": "node",
      "name": "Raising Cane's",
      "brand": "Raising Cane's",
      "latitude": 41.9490961,
      "longitude": -87.6582546,
      "address": "",
      "city": "",
      "state": "",
      "postcode": "",
      "phone": "",
      "website": "",
      "opening_hours": "",
      "amenity_type": "fast_food",
      "cuisine": "chicken"
    },
    {
      "osm_id": 1953895794,
      "osm_type": "node",
      "name": "Raising Cane's",
      "brand": "Raising Cane's",
      "latitude": 35.2118068,
      "longitude": -97.4435672,
      "address": "Asp Avenue",
      "city": "Norman",
      "state": "OK",
      "postcode": "73069",
      "phone": "+1-405-254-1996",
      "website": "https://locations.raisingcanes.com/ok/norman/765-asp-ave",
      "opening_hours": "Su-Th 10:00-01:00, Fr-Sa 10:00-03:30",
      "amenity_type": "fast_food",
      "cuisine": "chicken"
    },
    {
      "osm_id": 2149928178,
      "osm_type": "node",
      "name": "Raising Cane's",
      "brand": "Raising Cane's",
      "latitude": 40.8149032,
      "longitude": -96.7014377,
      "address": "North 14th Street",
      "city": "Lincoln",
      "state": "NE",
      "postcode": "68508",
      "phone": "+1-402-477-9844",
      "website": "https://www.raisingcanes.com/locations/",
      "opening_hours": "Su-We 10:00-24:00; Th-Sa 10:00-03:00",
      "amenity_type": "fast_food",
      "cuisine": "chicken"
    },
    {
      "osm_id": 2578978127,
      "osm_type": "node",
      "name": "Raising Cane's",
      "brand": "Raising Cane's",
      "latitude": 41.882248,
      "longitude": -87.6247084,
      "address": "South Michigan Avenue",
      "city": "Chicago",
      "state": "IL",
      "postcode": "60602",
      "phone": "",
      "website": "",
      "opening_hours": "",
      "amenity_type": "fast_food",
      "cuisine": "chicken"
    },
    {
      "osm_id": 2588212777,
      "osm_type": "node",
      "name": "Raising Cane's",
      "brand": "",
      "latitude": 38.6007226,
      "longitude": -121.4307272,
      "address": "Arden Way",
      "city": "Sacramento",
      "state": "",
      "postcode": "95815",
      "phone": "",
      "website": "https://locations.raisingcanes.com/ca/sacramento/1500-arden-way",
      "opening_hours": "Mo-We,Su 09:00-02:00; Th-Sa 09:00-03:30",
      "amenity_type": "restaurant",
      "cuisine": "american;chicken"
    },
    {
      "osm_id": 2612292461,
      "osm_type": "node",
      "name": "Raising Cane's",
      "brand": "Raising Cane's",
      "latitude": 31.6202453,
      "longitude": -94.6529959,
      "address": "North Street",
      "city": "",
      "state": "",
      "postcode": "75965",
      "phone": "+1-936-569-1700",
      "website": "https://www.raisingcanes.com/",
      "opening_hours": "Th-Sa 09:00-01:00; Su-We 09:00-00:00",
      "amenity_type": "fast_food",
      "cuisine": "chicken"
    },
    {
      "osm_id": 2706255890,
      "osm_type": "node",
      "name": "Raising Cane's",
      "brand": "Raising Cane's",
      "latitude": 40.7958698,
      "longitude": -77.8594843,
      "address": "East College Avenue",
      "city": "State College",
      "state": "PA",
      "postcode": "16801",
      "phone": "+1-814-651-9095",
      "website": "https://locations.raisingcanes.com/pa/state-college/228-east-college-avenue",
      "opening_hours": "Su-Th 10:00-23:00; Fr-Sa 10:00-01:00",
      "amenity_type": "fast_food",
      "cuisine": "chicken"
    },
    {
      "osm_id": 2707983903,
      "osm_type": "node",
      "name": "Raising Cane's",
      "brand": "Raising Cane's",
      "latitude": 40.8044959,
      "longitude": -73.9661283,
      "address": "Broadway",
      "city": "New York",
      "state": "",
      "postcode": "10025",
      "phone": "+1-212-389-9970",
      "website": "https://locations.raisingcanes.com/ny/new-york/2850-broadway",
      "opening_hours": "",
      "amenity_type": "fast_food",
      "cuisine": "chicken"
    },
    {
      "osm_id": 2849878526,
      "osm_type": "node",
      "name": "Raising Cane's",
      "brand": "Raising Cane's",
      "latitude": 34.1404964,
      "longitude": -118.0199866,
      "address": "West Huntington Drive",
      "city": "Monrovia",
      "state": "CA",
      "postcode": "91016",
      "phone": "+1 626-804-6915",
      "website": "https://locations.raisingcanes.com/ca/monrovia/945-west-huntington-drive",
      "opening_hours": "10:00-02:00",
      "amenity_type": "fast_food",
      "cuisine": "chicken"
    },
    {
      "osm_id": 3003503468,
      "osm_type": "node",
      "name": "Raising Cane's",
      "brand": "Raising Cane's",
      "latitude": 39.1663861,
      "longitude": -86.5288166,
      "address": "",
      "city": "",
      "state": "",
      "postcode": "",
      "phone": "",
      "website": "",
      "opening_hours": "Mo-Su 10:00-03:00",
      "amenity_type": "fast_food",
      "cuisine": "chicken"
    },
    {
      "osm_id": 3097690529,
      "osm_type": "node",
      "name": "Raising Cane's",
      "brand": "Raising Cane's",
      "latitude": 36.9433434,
      "longitude": -76.3093518,
      "address": "",
      "city": "",
      "state": "",
      "postcode": "",
      "phone": "",
      "website": "",
      "opening_hours": "",
      "amenity_type": "fast_food",
      "cuisine": "chicken"
    },
    {
      "osm_id": 3316380634,
      "osm_type": "node",
      "name": "Raising Cane's",
      "brand": "Raising Cane's",
      "latitude": 35.9133706,
      "longitude": -79.0556864,
      "address": "East Franklin Street",
      "city": "Chapel Hill",
      "state": "NC",
      "postcode": "27514",
      "phone": "",
      "website": "",
      "opening_hours": "Mo-Th 11:00-21:30; Fr-Sa 11:00-00:30; Su 11:00-21:30",
      "amenity_type": "fast_food",
      "cuisine": "chicken"
    },
    {
      "osm_id": 3356714991,
      "osm_type": "node",
      "name": "Raising Cane's",
      "brand": "Raising Cane's",
      "latitude": 29.9394037,
      "longitude": -90.0749388,
      "address": "Saint Charles Avenue",
      "city": "",
      "state": "",
      "postcode": "",
      "phone": "",
      "website": "",
      "opening_hours": "",
      "amenity_type": "fast_food",
      "cuisine": "chicken"
    },
    {
      "osm_id": 3596942955,
      "osm_type": "node",
      "name": "Raising Cane's",
      "brand": "Raising Cane's",
      "latitude": 33.1109794,
      "longitude": -96.8050091,
      "address": "Preston Road",
      "city": "Frisco",
      "state": "",
      "postcode": "",
      "phone": "",
      "website": "",
      "opening_hours": "Su-Th 10:00-23:00, Fr-Sa 10:00-24:00",
      "amenity_type": "fast_food",
      "cuisine": "chicken"
    },
    {
      "osm_id": 3938865917,
      "osm_type": "node",
      "name": "Raising Cane's",
      "brand": "Raising Cane's",
      "latitude": 29.9440256,
      "longitude": -90.0621627,
      "address": "",
      "city": "",
      "state": "",
      "postcode": "",
      "phone": "",
      "website": "",
      "opening_hours": "",
      "amenity_type": "fast_food",
      "cuisine": "chicken"
    },
    {
      "osm_id": 4460125402,
      "osm_type": "node",
      "name": "Raising Cane's",
      "brand": "Raising Cane's",
      "latitude": 40.0047712,
      "longitude": -86.1263463,
      "address": "Thatcher Lane",
      "city": "Carmel",
      "state": "IN",
      "postcode": "46032",
      "phone": "",
      "website": "",
      "opening_hours": "24/7",
      "amenity_type": "fast_food",
      "cuisine": "chicken"
    },
    {
      "osm_id": 4559312806,
      "osm_type": "node",
      "name": "Raising Cane's",
      "brand": "",
      "latitude": 40.6915182,
      "longitude": -73.987151,
      "address": "Fulton Street",
      "city": "",
      "state": "",
      "postcode": "11201",
      "phone": "",
      "website": "",
      "opening_hours": "Mo-Su 09:00-24:00",
      "amenity_type": "fast_food",
      "cuisine": "chicken"
    },
    {
      "osm_id": 4576277514,
      "osm_type": "node",
      "name": "Raising Cane's",
      "brand": "Raising Cane's",
      "latitude": 30.0053931,
      "longitude": -90.1575463,
      "address": "",
      "city": "",
      "state": "",
      "postcode": "",
      "phone": "",
      "website": "",
      "opening_hours": "",
      "amenity_type": "fast_food",
      "cuisine": "chicken"
    },
    {
      "osm_id": 4610760709,
      "osm_type": "node",
      "name": "Raising Cane's",
      "brand": "Raising Cane's",
      "latitude": 30.4180077,
      "longitude": -91.1763911,
      "address": "Highland Road",
      "city": "Baton Rouge",
      "state": "LA",
      "postcode": "",
      "phone": "",
      "website": "",
      "opening_hours": "",
      "amenity_type": "fast_food",
      "cuisine": "chicken"
    },
    {
      "osm_id": 4796040909,
      "osm_type": "node",
      "name": "Raising Cane's",
      "brand": "Raising Cane's",
      "latitude": 30.0668614,
      "longitude": -90.4819916,
      "address": "",
      "city": "",
      "state": "",
      "postcode": "",
      "phone": "",
      "website": "",
      "opening_hours": "",
      "amenity_type": "fast_food",
      "cuisine": "chicken"
    },
    {
      "osm_id": 4989083160,
      "osm_type": "node",
      "name": "Raising Cane's",
      "brand": "Raising Cane's",
      "latitude": 39.0532418,
      "longitude": -94.5938561,
      "address": "",
      "city": "",
      "state": "",
      "postcode": "",
      "phone": "",
      "website": "",
      "opening_hours": "Mo-Su 10:00-22:00",
      "amenity_type": "fast_food",
      "cuisine": "chicken"
    },
    {
      "osm_id": 5031189643,
      "osm_type": "node",
      "name": "Raising Cane's",
      "brand": "Raising Cane's",
      "latitude": 34.0692526,
      "longitude": -83.9861597,
      "address": "Buford Drive",
      "city": "Buford",
      "state": "GA",
      "postcode": "30519",
      "phone": "+1-770-871-2171",
      "website": "https://raisingcanes.com",
      "opening_hours": "Mo-Fr 10:00-24:00; Sa,Su 00:00-01:00,10:00-24:00",
      "amenity_type": "fast_food",
      "cuisine": "chicken"
    },
    {
      "osm_id": 5280020788,
      "osm_type": "node",
      "name": "Raising Cane's",
      "brand": "Raising Cane's",
      "latitude": 40.0667672,
      "longitude": -83.0189523,
      "address": "",
      "city": "",
      "state": "",
      "postcode": "",
      "phone": "",
      "website": "",
      "opening_hours": "",
      "amenity_type": "fast_food",
      "cuisine": "chicken"
    },
    {
      "osm_id": 5312054484,
      "osm_type": "node",
      "name": "Raising Cane's",
      "brand": "Raising Cane's",
      "latitude": 30.0175768,
      "longitude": -95.4398686,
      "address": "",
      "city": "",
      "state": "",
      "postcode": "",
      "phone": "",
      "website": "",
      "opening_hours": "",
      "amenity_type": "fast_food",
      "cuisine": "chicken"
    },
    {
      "osm_id": 5447367341,
      "osm_type": "node",
      "name": "Raising Cane's",
      "brand": "Raising Cane's",
      "latitude": 33.9193289,
      "longitude": -117.967269,
      "address": "South Beach Boulevard",
      "city": "La Habra",
      "state": "CA",
      "postcode": "90631",
      "phone": "+1-562-266-1890",
      "website": "https://raisingcanes.com/locations/c272/",
      "opening_hours": "Su-We 09:00-02:00,Th-Sa 09:00-03:30",
      "amenity_type": "fast_food",
      "cuisine": "chicken"
    },
    {
      "osm_id": 5453170015,
      "osm_type": "node",
      "name": "Raising Cane's",
      "brand": "Raising Cane's",
      "latitude": 40.759063,
      "longitude": -73.8301067,
      "address": "Main Street",
      "city": "Flushing",
      "state": "NY",
      "postcode": "11354",
      "phone": "+1 718-749-9975",
      "website": "https://locations.raisingcanes.com/ny/flushing/39-20-main-street",
      "opening_hours": "Mo-Su 09:00-02:00",
      "amenity_type": "fast_food",
      "cuisine": "chicken"
    },
    {
      "osm_id": 5453193323,
      "osm_type": "node",
      "name": "Raising Cane's Chicken Fingers",
      "brand": "",
      "latitude": 40.7597,
      "longitude": -73.8303874,
      "address": "Main Street",
      "city": "Flushing",
      "state": "NY",
      "postcode": "11354",
      "phone": "",
      "website": "",
      "opening_hours": "09:00-02:00",
      "amenity_type": "fast_food",
      "cuisine": "chicken"
    },
    {
      "osm_id": 5532174730,
      "osm_type": "node",
      "name": "Raising Cane's",
      "brand": "Raising Cane's",
      "latitude": 40.9311755,
      "longitude": -98.381629,
      "address": "",
      "city": "",
      "state": "",
      "postcode": "",
      "phone": "",
      "website": "",
      "opening_hours": "",
      "amenity_type": "fast_food",
      "cuisine": "chicken"
    },
    {
      "osm_id": 5703176545,
      "osm_type": "node",
      "name": "Raising Cane's",
      "brand": "Raising Cane's",
      "latitude": 44.9790346,
      "longitude": -93.2348857,
      "address": "Southeast 15th Avenue",
      "city": "Minneapolis",
      "state": "MN",
      "postcode": "55414",
      "phone": "+1-612-331-4279",
      "website": "https://www.raisingcanes.com",
      "opening_hours": "",
      "amenity_type": "fast_food",
      "cuisine": "chicken"
    },
    {
      "osm_id": 5941130243,
      "osm_type": "node",
      "name": "Raising Cane's",
      "brand": "Raising Cane's",
      "latitude": 34.3634254,
      "longitude": -89.5357033,
      "address": "",
      "city": "",
      "state": "",
      "postcode": "",
      "phone": "",
      "website": "",
      "opening_hours": "",
      "amenity_type": "fast_food",
      "cuisine": "chicken"
    },
    {
      "osm_id": 6036983778,
      "osm_type": "node",
      "name": "Raising Cane's",
      "brand": "Raising Cane's",
      "latitude": 34.6790712,
      "longitude": -82.8394837,
      "address": "Fort Hill Street",
      "city": "Clemson",
      "state": "SC",
      "postcode": "29634",
      "phone": "",
      "website": "",
      "opening_hours": "Mo-Sa 10:00-22:00",
      "amenity_type": "fast_food",
      "cuisine": "chicken"
    },
    {
      "osm_id": 6186440087,
      "osm_type": "node",
      "name": "Raising Cane's",
      "brand": "Raising Cane's",
      "latitude": 33.1981869,
      "longitude": -117.2477323,
      "address": "",
      "city": "",
      "state": "",
      "postcode": "",
      "phone": "",
      "website": "",
      "opening_hours": "",
      "amenity_type": "fast_food",
      "cuisine": "chicken"
    },
    {
      "osm_id": 6301897860,
      "osm_type": "node",
      "name": "Raising Cane's",
      "brand": "Raising Cane's",
      "latitude": 31.4307934,
      "longitude": -100.456429,
      "address": "Knickerbocker Road",
      "city": "San Angelo",
      "state": "TX",
      "postcode": "76904",
      "phone": "",
      "website": "",
      "opening_hours": "",
      "amenity_type": "fast_food",
      "cuisine": "chicken"
    },
    {
      "osm_id": 6401760385,
      "osm_type": "node",
      "name": "Raising Cane's",
      "brand": "Raising Cane's",
      "latitude": 34.0025439,
      "longitude": -118.0898534,
      "address": "Whittier Boulevard",
      "city": "",
      "state": "",
      "postcode": "",
      "phone": "",
      "website": "",
      "opening_hours": "",
      "amenity_type": "fast_food",
      "cuisine": "chicken"
    },
    {
      "osm_id": 6410708206,
      "osm_type": "node",
      "name": "Raising Cane's",
      "brand": "Raising Cane's",
      "latitude": 31.7594636,
      "longitude": -106.2712869,
      "address": "",
      "city": "",
      "state": "",
      "postcode": "",
      "phone": "",
      "website": "",
      "opening_hours": "",
      "amenity_type": "fast_food",
      "cuisine": "chicken"
    },
    {
      "osm_id": 6484948263,
      "osm_type": "node",
      "name": "Raising Cane's",
      "brand": "Raising Cane's",
      "latitude": 39.1279281,
      "longitude": -84.5168697,
      "address": "Calhoun Street",
      "city": "Cincinnati",
      "state": "OH",
      "postcode": "45219",
      "phone": "",
      "website": "https://raisingcanes.com/",
      "opening_hours": "Su-We 10:00-24:00, Th-Sa 10:00-03:00",
      "amenity_type": "fast_food",
      "cuisine": "chicken"
    },
    {
      "osm_id": 6787018385,
      "osm_type": "node",
      "name": "Raising Cane's",
      "brand": "Raising Cane's",
      "latitude": 38.0402994,
      "longitude": -84.4282212,
      "address": "War Admiral Way",
      "city": "Lexington",
      "state": "KY",
      "postcode": "40509",
      "phone": "+1 859-543-0154",
      "website": "https://locations.raisingcanes.com/ky/lexington/2201-war-admiral-way",
      "opening_hours": "10:00-23:00",
      "amenity_type": "fast_food",
      "cuisine": "chicken"
    },
    {
      "osm_id": 6918759620,
      "osm_type": "node",
      "name": "Raising Cane's",
      "brand": "Raising Cane's",
      "latitude": 29.5570299,
      "longitude": -95.3683814,
      "address": "",
      "city": "",
      "state": "",
      "postcode": "",
      "phone": "",
      "website": "",
      "opening_hours": "",
      "amenity_type": "fast_food",
      "cuisine": "chicken"
    },
    {
      "osm_id": 7089342721,
      "osm_type": "node",
      "name": "Raising Cane's",
      "brand": "Raising Cane's",
      "latitude": 32.3138008,
      "longitude": -106.7419201,
      "address": "",
      "city": "",
      "state": "",
      "postcode": "",
      "phone": "",
      "website": "",
      "opening_hours": "",
      "amenity_type": "fast_food",
      "cuisine": "chicken"
    },
    {
      "osm_id": 7112568568,
      "osm_type": "node",
      "name": "Raising Cane's",
      "brand": "Raising Cane's",
      "latitude": 29.3514969,
      "longitude": -98.456312,
      "address": "Southeast Military Drive",
      "city": "San Antonio",
      "state": "TX",
      "postcode": "78223",
      "phone": "",
      "website": "",
      "opening_hours": "",
      "amenity_type": "fast_food",
      "cuisine": "chicken"
    },
    {
      "osm_id": 7158775752,
      "osm_type": "node",
      "name": "Raising Cane's",
      "brand": "Raising Cane's",
      "latitude": 41.5745597,
      "longitude": -90.5349806,
      "address": "",
      "city": "",
      "state": "",
      "postcode": "",
      "phone": "",
      "website": "",
      "opening_hours": "",
      "amenity_type": "fast_food",
      "cuisine": "chicken"
    },
    {
      "osm_id": 7317260944,
      "osm_type": "node",
      "name": "Raising Cane's",
      "brand": "Raising Cane's",
      "latitude": 42.0020914,
      "longitude": -87.6610343,
      "address": "North Sheridan Road",
      "city": "Chicago",
      "state": "IL",
      "postcode": "60626",
      "phone": "",
      "website": "https://www.raisingcanes.com/location/dances-wolves",
      "opening_hours": "",
      "amenity_type": "fast_food",
      "cuisine": "chicken"
    },
    {
      "osm_id": 7321723273,
      "osm_type": "node",
      "name": "Raising Cane's",
      "brand": "Raising Cane's",
      "latitude": 41.4518183,
      "longitude": -96.4841667,
      "address": "East 23rd Street",
      "city": "Fremont",
      "state": "NE",
      "postcode": "68025",
      "phone": "",
      "website": "",
      "opening_hours": "",
      "amenity_type": "fast_food",
      "cuisine": "chicken"
    },
    {
      "osm_id": 7341630885,
      "osm_type": "node",
      "name": "Raising Cane's",
      "brand": "Raising Cane's",
      "latitude": 27.7074488,
      "longitude": -97.3712542,
      "address": "South Padre Island Drive",
      "city": "Corpus Christi",
      "state": "TX",
      "postcode": "78411",
      "phone": "+1-361-906-0838",
      "website": "https://www.raisingcanes.com",
      "opening_hours": "Su-Th 10:00-24:00; Fr-Sa 10:00-01:00",
      "amenity_type": "fast_food",
      "cuisine": "chicken"
    },
    {
      "osm_id": 8015249555,
      "osm_type": "node",
      "name": "Raising Cane's",
      "brand": "Raising Cane's",
      "latitude": 21.2915435,
      "longitude": -157.821989,
      "address": "South King Street",
      "city": "Honolulu",
      "state": "HI",
      "postcode": "96826",
      "phone": "",
      "website": "https://raisingcanes.com",
      "opening_hours": "",
      "amenity_type": "fast_food",
      "cuisine": "chicken"
    },
    {
      "osm_id": 8042075888,
      "osm_type": "node",
      "name": "Raising Cane's",
      "brand": "Raising Cane's",
      "latitude": 32.7579926,
      "longitude": -97.4245766,
      "address": "Westworth Boulevard",
      "city": "Westworth Village",
      "state": "TX",
      "postcode": "76114",
      "phone": "",
      "website": "",
      "opening_hours": "",
      "amenity_type": "fast_food",
      "cuisine": "chicken"
    },
    {
      "osm_id": 8554879517,
      "osm_type": "node",
      "name": "Raising Cane's",
      "brand": "Raising Cane's",
      "latitude": 39.6535317,
      "longitude": -104.902267,
      "address": "East Hampden Avenue",
      "city": "Denver",
      "state": "CO",
      "postcode": "80231",
      "phone": "+1-303-755-0127",
      "website": "https://www.raisingcanes.com/location/now-open-e-hampden-ave",
      "opening_hours": "Mo-Th 10:00-01:00; Fr-Sa 10:00-02:00; Su 10:00-01:00",
      "amenity_type": "fast_food",
      "cuisine": "chicken"
    },
    {
      "osm_id": 8677807903,
      "osm_type": "node",
      "name": "Raising Cane's",
      "brand": "Raising Cane's",
      "latitude": 41.2057078,
      "longitude": -96.0820894,
      "address": "Q Street",
      "city": "Omaha",
      "state": "NE",
      "postcode": "68137",
      "phone": "",
      "website": "",
      "opening_hours": "",
      "amenity_type": "fast_food",
      "cuisine": "chicken"
    },
    {
      "osm_id": 8888048170,
      "osm_type": "node",
      "name": "Raising Cane's",
      "brand": "Raising Cane's",
      "latitude": 41.4196784,
      "longitude": -81.7589899,
      "address": "Tiedeman Road",
      "city": "Brooklyn",
      "state": "OH",
      "postcode": "44144",
      "phone": "",
      "website": "",
      "opening_hours": "",
      "amenity_type": "fast_food",
      "cuisine": "chicken"
    },
    {
      "osm_id": 8942723392,
      "osm_type": "node",
      "name": "Raising Cane's",
      "brand": "Raising Cane's",
      "latitude": 41.4184125,
      "longitude": -81.9104749,
      "address": "Great Northern Plaza",
      "city": "North Olmsted",
      "state": "OH",
      "postcode": "44070",
      "phone": "",
      "website": "",
      "opening_hours": "Mo-Su 10:00-24:00",
      "amenity_type": "fast_food",
      "cuisine": "chicken"
    },
    {
      "osm_id": 8978883791,
      "osm_type": "node",
      "name": "Raising Cane's",
      "brand": "Raising Cane's",
      "latitude": 32.9315455,
      "longitude": -96.8192723,
      "address": "",
      "city": "",
      "state": "",
      "postcode": "",
      "phone": "",
      "website": "",
      "opening_hours": "",
      "amenity_type": "fast_food",
      "cuisine": "chicken"
    },
    {
      "osm_id": 9049403170,
      "osm_type": "node",
      "name": "Raising Cane's",
      "brand": "Raising Cane's",
      "latitude": 31.325319,
      "longitude": -89.344099,
      "address": "Hardy Street",
      "city": "Hattiesburg",
      "state": "MS",
      "postcode": "39402",
      "phone": "",
      "website": "https://www.raisingcanes.com/location/now-open-hardy-st",
      "opening_hours": "",
      "amenity_type": "fast_food",
      "cuisine": "chicken"
    },
    {
      "osm_id": 9389281923,
      "osm_type": "node",
      "name": "Raising Cane's",
      "brand": "Raising Cane's",
      "latitude": 41.6856238,
      "longitude": -72.6541734,
      "address": "Silas Deane Highway",
      "city": "Wethersfield",
      "state": "CT",
      "postcode": "06109",
      "phone": "",
      "website": "https://locations.raisingcanes.com/ct/wethersfield/1298-silas-deane-hwy",
      "opening_hours": "Su-Th 10:00-24:00; Fr-Sa 10:00-01:00",
      "amenity_type": "fast_food",
      "cuisine": "chicken"
    },
    {
      "osm_id": 9438518031,
      "osm_type": "node",
      "name": "Raising Cane's",
      "brand": "Raising Cane's",
      "latitude": 41.1871788,
      "longitude": -111.984173,
      "address": "Riverdale Road",
      "city": "Riverdale",
      "state": "UT",
      "postcode": "84405",
      "phone": "+1 385-288-3928",
      "website": "https://www.raisingcanes.com",
      "opening_hours": "Mo off; Tu-Th,Su 10:00-24:00; Fr-Sa 10:00-01:00",
      "amenity_type": "fast_food",
      "cuisine": "chicken"
    },
    {
      "osm_id": 9496678922,
      "osm_type": "node",
      "name": "Raising Cane's",
      "brand": "Raising Cane's",
      "latitude": 34.617803,
      "longitude": -98.4218183,
      "address": "",
      "city": "",
      "state": "",
      "postcode": "",
      "phone": "",
      "website": "",
      "opening_hours": "",
      "amenity_type": "fast_food",
      "cuisine": "chicken"
    },
    {
      "osm_id": 9691279760,
      "osm_type": "node",
      "name": "Raising Cane's",
      "brand": "Raising Cane's",
      "latitude": 32.1877415,
      "longitude": -90.2636594,
      "address": "",
      "city": "",
      "state": "",
      "postcode": "",
      "phone": "",
      "website": "",
      "opening_hours": "",
      "amenity_type": "fast_food",
      "cuisine": "chicken"
    },
    {
      "osm_id": 9708041244,
      "osm_type": "node",
      "name": "Raising Cane's",
      "brand": "Raising Cane's",
      "latitude": 29.889029,
      "longitude": -90.0561765,
      "address": "",
      "city": "",
      "state": "",
      "postcode": "",
      "phone": "",
      "website": "",
      "opening_hours": "",
      "amenity_type": "fast_food",
      "cuisine": "chicken"
    },
    {
      "osm_id": 9722242816,
      "osm_type": "node",
      "name": "Raising Cane's",
      "brand": "Raising Cane's",
      "latitude": 29.5383542,
      "longitude": -95.151851,
      "address": "West Bay Area Boulevard",
      "city": "Friendswood",
      "state": "TX",
      "postcode": "77546",
      "phone": "",
      "website": "www.raisingcanes.com",
      "opening_hours": "",
      "amenity_type": "fast_food",
      "cuisine": "chicken"
    },
    {
      "osm_id": 9724111780,
      "osm_type": "node",
      "name": "Raising Cane's",
      "brand": "Raising Cane's",
      "latitude": 21.452542,
      "longitude": -158.0079597,
      "address": "",
      "city": "",
      "state": "",
      "postcode": "",
      "phone": "",
      "website": "",
      "opening_hours": "",
      "amenity_type": "fast_food",
      "cuisine": "chicken"
    },
    {
      "osm_id": 9771039969,
      "osm_type": "node",
      "name": "Raising Cane's",
      "brand": "Raising Cane's",
      "latitude": 40.4229721,
      "longitude": -86.9066927,
      "address": "South Chauncey Avenue",
      "city": "West Lafayette",
      "state": "IN",
      "postcode": "47906",
      "phone": "",
      "website": "",
      "opening_hours": "",
      "amenity_type": "fast_food",
      "cuisine": "chicken"
    },
    {
      "osm_id": 9840546392,
      "osm_type": "node",
      "name": "Raising Cane's",
      "brand": "Raising Cane's",
      "latitude": 29.5828226,
      "longitude": -90.6946075,
      "address": "Grand Caillou Road",
      "city": "Houma",
      "state": "LA",
      "postcode": "70363",
      "phone": "",
      "website": "",
      "opening_hours": "",
      "amenity_type": "fast_food",
      "cuisine": "chicken"
    },
    {
      "osm_id": 9891965145,
      "osm_type": "node",
      "name": "Raising Cane's",
      "brand": "Raising Cane's",
      "latitude": 32.4086643,
      "longitude": -88.70559,
      "address": "",
      "city": "",
      "state": "",
      "postcode": "",
      "phone": "",
      "website": "",
      "opening_hours": "",
      "amenity_type": "fast_food",
      "cuisine": "chicken"
    },
    {
      "osm_id": 9929938341,
      "osm_type": "node",
      "name": "Raising Cane's",
      "brand": "Raising Cane's",
      "latitude": 37.7378247,
      "longitude": -122.1985238,
      "address": "Edgewater Drive",
      "city": "Oakland",
      "state": "CA",
      "postcode": "94621",
      "phone": "+1-510-542-5872",
      "website": "https://raisingcanes.com/locations/c588",
      "opening_hours": "Mo-Su 09:00-01:00",
      "amenity_type": "fast_food",
      "cuisine": "chicken"
    },
    {
      "osm_id": 9929973522,
      "osm_type": "node",
      "name": "Raising Cane's",
      "brand": "Raising Cane's",
      "latitude": 30.2737143,
      "longitude": -97.8005722,
      "address": "Bee Caves Road",
      "city": "Austin",
      "state": "TX",
      "postcode": "78746",
      "phone": "+1-512-732-2992",
      "website": "https://raisingcanes.com/location/161",
      "opening_hours": "",
      "amenity_type": "fast_food",
      "cuisine": "chicken"
    },
    {
      "osm_id": 9943816597,
      "osm_type": "node",
      "name": "Raising Cane's",
      "brand": "Raising Cane's",
      "latitude": 34.0706325,
      "longitude": -117.977644,
      "address": "",
      "city": "",
      "state": "",
      "postcode": "",
      "phone": "",
      "website": "",
      "opening_hours": "",
      "amenity_type": "fast_food",
      "cuisine": "chicken"
    },
    {
      "osm_id": 9958078038,
      "osm_type": "node",
      "name": "Raising Cane's",
      "brand": "Raising Cane's",
      "latitude": 40.6217935,
      "longitude": -111.8664044,
      "address": "",
      "city": "",
      "state": "",
      "postcode": "",
      "phone": "",
      "website": "",
      "opening_hours": "",
      "amenity_type": "fast_food",
      "cuisine": "chicken"
    },
    {
      "osm_id": 9964831842,
      "osm_type": "node",
      "name": "Raising Cane's",
      "brand": "Raising Cane's",
      "latitude": 38.6780138,
      "longitude": -121.2758137,
      "address": "",
      "city": "",
      "state": "",
      "postcode": "",
      "phone": "",
      "website": "",
      "opening_hours": "",
      "amenity_type": "fast_food",
      "cuisine": "chicken"
    },
    {
      "osm_id": 9996051453,
      "osm_type": "node",
      "name": "Raising Cane's",
      "brand": "Raising Cane's",
      "latitude": 30.7068505,
      "longitude": -95.5639362,
      "address": "",
      "city": "",
      "state": "",
      "postcode": "",
      "phone": "",
      "website": "",
      "opening_hours": "",
      "amenity_type": "fast_food",
      "cuisine": "chicken"
    },
    {
      "osm_id": 10010327678,
      "osm_type": "node",
      "name": "Raising Cane's",
      "brand": "Raising Cane's",
      "latitude": 37.7978097,
      "longitude": -121.1962962,
      "address": "",
      "city": "",
      "state": "",
      "postcode": "",
      "phone": "",
      "website": "",
      "opening_hours": "",
      "amenity_type": "fast_food",
      "cuisine": "chicken"
    },
    {
      "osm_id": 10015121489,
      "osm_type": "node",
      "name": "Raising Cane's",
      "brand": "Raising Cane's",
      "latitude": 38.4244434,
      "longitude": -121.3921622,
      "address": "",
      "city": "",
      "state": "",
      "postcode": "",
      "phone": "",
      "website": "",
      "opening_hours": "",
      "amenity_type": "fast_food",
      "cuisine": "chicken"
    },
    {
      "osm_id": 10047680319,
      "osm_type": "node",
      "name": "Raising Caneâ€™s Chicken Fingers",
      "brand": "",
      "latitude": 39.9404971,
      "longitude": -83.8326783,
      "address": "",
      "city": "",
      "state": "",
      "postcode": "",
      "phone": "",
      "website": "",
      "opening_hours": "",
      "amenity_type": "fast_food",
      "cuisine": ""
    },
    {
      "osm_id": 10082970817,
      "osm_type": "node",
      "name": "Raising Cane's Chicken Fingers",
      "brand": "",
      "latitude": 41.4052643,
      "longitude": -82.6601817,
      "address": "Milan Road",
      "city": "",
      "state": "",
      "postcode": "44870",
      "phone": "+1-419-504-1020",
      "website": "http://www.raisingcanes.com",
      "opening_hours": "Mo-Su 10:00-23:00",
      "amenity_type": "restaurant",
      "cuisine": "chicken"
    },
    {
      "osm_id": 10099177154,
      "osm_type": "node",
      "name": "Raising Cane's",
      "brand": "Raising Cane's",
      "latitude": 36.1379915,
      "longitude": -85.5058512,
      "address": "Interstate Drive",
      "city": "Cookeville",
      "state": "TN",
      "postcode": "38501",
      "phone": "+1-931-503-7809",
      "website": "https://raisingcanes.com/",
      "opening_hours": "Mo-Su 10:00-00:00",
      "amenity_type": "fast_food",
      "cuisine": "chicken"
    },
    {
      "osm_id": 10138305816,
      "osm_type": "node",
      "name": "Raising Cane's",
      "brand": "Raising Cane's",
      "latitude": 39.7788516,
      "longitude": -104.8836065,
      "address": "",
      "city": "",
      "state": "",
      "postcode": "",
      "phone": "",
      "website": "",
      "opening_hours": "Su-Th 10:00-01:00, Fr,Sa 10:00-02:00",
      "amenity_type": "fast_food",
      "cuisine": "chicken"
    },
    {
      "osm_id": 10164807621,
      "osm_type": "node",
      "name": "Raising Cane's",
      "brand": "Raising Cane's",
      "latitude": 39.914703,
      "longitude": -105.0473532,
      "address": "West 121st Avenue",
      "city": "Broomfield",
      "state": "CO",
      "postcode": "80020",
      "phone": "+1-303-466-6382",
      "website": "",
      "opening_hours": "Su-Fr 10:00-23:00 Sa 10:00-24:00",
      "amenity_type": "fast_food",
      "cuisine": "chicken"
    },
    {
      "osm_id": 10172692359,
      "osm_type": "node",
      "name": "Raising Cane's",
      "brand": "",
      "latitude": 38.8129897,
      "longitude": -94.5101398,
      "address": "",
      "city": "",
      "state": "",
      "postcode": "",
      "phone": "",
      "website": "",
      "opening_hours": "",
      "amenity_type": "restaurant",
      "cuisine": "fried_chicken;fries"
    },
    {
      "osm_id": 10174785499,
      "osm_type": "node",
      "name": "Raising Cane's",
      "brand": "Raising Cane's",
      "latitude": 29.9412596,
      "longitude": -90.0957767,
      "address": "",
      "city": "",
      "state": "",
      "postcode": "",
      "phone": "",
      "website": "",
      "opening_hours": "",
      "amenity_type": "fast_food",
      "cuisine": "chicken"
    },
    {
      "osm_id": 10213115917,
      "osm_type": "node",
      "name": "Raising Cane's Chicken Fingers",
      "brand": "",
      "latitude": 32.8393159,
      "longitude": -97.2381521,
      "address": "",
      "city": "",
      "state": "",
      "postcode": "",
      "phone": "",
      "website": "",
      "opening_hours": "",
      "amenity_type": "fast_food",
      "cuisine": ""
    },
    {
      "osm_id": 10279048357,
      "osm_type": "node",
      "name": "Raising Cane's",
      "brand": "Raising Cane's",
      "latitude": 29.9819591,
      "longitude": -95.4253608,
      "address": "West Airtex Boulevard",
      "city": "",
      "state": "",
      "postcode": "77090",
      "phone": "",
      "website": "",
      "opening_hours": "Mo-Su 09:00-01:00",
      "amenity_type": "fast_food",
      "cuisine": "chicken"
    },
    {
      "osm_id": 10537654653,
      "osm_type": "node",
      "name": "Raising Cane's",
      "brand": "Raising Cane's",
      "latitude": 31.4838018,
      "longitude": -97.2097474,
      "address": "",
      "city": "",
      "state": "",
      "postcode": "",
      "phone": "",
      "website": "",
      "opening_hours": "",
      "amenity_type": "fast_food",
      "cuisine": "chicken"
    },
    {
      "osm_id": 10610342625,
      "osm_type": "node",
      "name": "Raising Cane's",
      "brand": "Raising Cane's",
      "latitude": 39.3984612,
      "longitude": -76.6033229,
      "address": "Towson Row",
      "city": "",
      "state": "",
      "postcode": "",
      "phone": "",
      "website": "",
      "opening_hours": "Su-Th 10:00-24:00, Fr,Sa 10:00-02:00",
      "amenity_type": "fast_food",
      "cuisine": "chicken"
    },
    {
      "osm_id": 10691917368,
      "osm_type": "node",
      "name": "Raising Cane's",
      "brand": "Raising Cane's",
      "latitude": 20.8766461,
      "longitude": -156.4537152,
      "address": "",
      "city": "",
      "state": "",
      "postcode": "",
      "phone": "",
      "website": "",
      "opening_hours": "",
      "amenity_type": "fast_food",
      "cuisine": "chicken"
    },
    {
      "osm_id": 10711407222,
      "osm_type": "node",
      "name": "Raising Cane's",
      "brand": "Raising Cane's",
      "latitude": 32.9866709,
      "longitude": -96.9092303,
      "address": "Old Denton Road",
      "city": "",
      "state": "",
      "postcode": "",
      "phone": "",
      "website": "",
      "opening_hours": "",
      "amenity_type": "fast_food",
      "cuisine": "chicken"
    },
    {
      "osm_id": 10719604676,
      "osm_type": "node",
      "name": "Raising Cane's",
      "brand": "Raising Cane's",
      "latitude": 39.7630314,
      "longitude": -89.7090653,
      "address": "West White Oaks Drive",
      "city": "Springfield",
      "state": "IL",
      "postcode": "62704",
      "phone": "+1-217-361-0988",
      "website": "https://www.raisingcanes.com/",
      "opening_hours": "Su-Th 10:00-23:00; Fr-Sa 10:00-24:00",
      "amenity_type": "fast_food",
      "cuisine": "chicken"
    },
    {
      "osm_id": 10757888223,
      "osm_type": "node",
      "name": "Raising Cane's",
      "brand": "Raising Cane's",
      "latitude": 33.333925,
      "longitude": -111.8412081,
      "address": "",
      "city": "",
      "state": "",
      "postcode": "",
      "phone": "",
      "website": "",
      "opening_hours": "",
      "amenity_type": "fast_food",
      "cuisine": "chicken"
    },
    {
      "osm_id": 11060928300,
      "osm_type": "node",
      "name": "Raising Cane's",
      "brand": "Raising Cane's",
      "latitude": 21.2905796,
      "longitude": -157.844222,
      "address": "",
      "city": "",
      "state": "",
      "postcode": "",
      "phone": "",
      "website": "",
      "opening_hours": "",
      "amenity_type": "fast_food",
      "cuisine": "chicken"
    },
    {
      "osm_id": 11082114305,
      "osm_type": "node",
      "name": "Raising Cane's",
      "brand": "Raising Cane's",
      "latitude": 45.517511,
      "longitude": -122.6779068,
      "address": "",
      "city": "",
      "state": "",
      "postcode": "97024",
      "phone": "",
      "website": "",
      "opening_hours": "",
      "amenity_type": "fast_food",
      "cuisine": "chicken"
    },
    {
      "osm_id": 11164389402,
      "osm_type": "node",
      "name": "Raising Cane's",
      "brand": "Raising Cane's",
      "latitude": 29.5749529,
      "longitude": -95.1086883,
      "address": "",
      "city": "",
      "state": "",
      "postcode": "",
      "phone": "",
      "website": "",
      "opening_hours": "",
      "amenity_type": "fast_food",
      "cuisine": "chicken"
    },
    {
      "osm_id": 11172822353,
      "osm_type": "node",
      "name": "Raising Cane's",
      "brand": "Raising Cane's",
      "latitude": 42.3493137,
      "longitude": -71.0810732,
      "address": "",
      "city": "",
      "state": "",
      "postcode": "",
      "phone": "",
      "website": "",
      "opening_hours": "",
      "amenity_type": "fast_food",
      "cuisine": "chicken"
    },
    {
      "osm_id": 11187010706,
      "osm_type": "node",
      "name": "Raising Cane's",
      "brand": "Raising Cane's",
      "latitude": 31.8915795,
      "longitude": -102.344853,
      "address": "East 42nd Street",
      "city": "",
      "state": "",
      "postcode": "",
      "phone": "",
      "website": "",
      "opening_hours": "",
      "amenity_type": "fast_food",
      "cuisine": "chicken"
    },
    {
      "osm_id": 11253800690,
      "osm_type": "node",
      "name": "Raising Cane's",
      "brand": "Raising Cane's",
      "latitude": 40.4414483,
      "longitude": -79.9586861,
      "address": "Fifth Avenue",
      "city": "Pittsburgh",
      "state": "PA",
      "postcode": "",
      "phone": "",
      "website": "",
      "opening_hours": "",
      "amenity_type": "fast_food",
      "cuisine": "chicken"
    },
    {
      "osm_id": 11336290671,
      "osm_type": "node",
      "name": "Raising Cane's",
      "brand": "Raising Cane's",
      "latitude": 33.9896127,
      "longitude": -118.2164449,
      "address": "Bickett Street",
      "city": "Huntington Park",
      "state": "CA",
      "postcode": "90255",
      "phone": "",
      "website": "",
      "opening_hours": "",
      "amenity_type": "fast_food",
      "cuisine": "chicken"
    },
    {
      "osm_id": 11339147357,
      "osm_type": "node",
      "name": "Raising Cane's",
      "brand": "Raising Cane's",
      "latitude": 33.3919052,
      "longitude": -111.8577424,
      "address": "South Alma School Road",
      "city": "Mesa",
      "state": "AZ",
      "postcode": "85202",
      "phone": "",
      "website": "",
      "opening_hours": "",
      "amenity_type": "fast_food",
      "cuisine": "chicken"
    },
    {
      "osm_id": 11367641931,
      "osm_type": "node",
      "name": "Raising Cane's",
      "brand": "Raising Cane's",
      "latitude": 36.1027369,
      "longitude": -115.1724802,
      "address": "",
      "city": "",
      "state": "",
      "postcode": "",
      "phone": "",
      "website": "",
      "opening_hours": "",
      "amenity_type": "fast_food",
      "cuisine": "chicken"
    },
    {
      "osm_id": 11428217207,
      "osm_type": "node",
      "name": "Raising Cane's",
      "brand": "Raising Cane's",
      "latitude": 33.2164066,
      "longitude": -87.5463537,
      "address": "",
      "city": "",
      "state": "",
      "postcode": "",
      "phone": "",
      "website": "",
      "opening_hours": "",
      "amenity_type": "fast_food",
      "cuisine": "chicken"
    },
    {
      "osm_id": 11460323409,
      "osm_type": "node",
      "name": "Raising Cane's",
      "brand": "Raising Cane's",
      "latitude": 37.5739907,
      "longitude": -77.4644106,
      "address": "",
      "city": "",
      "state": "",
      "postcode": "",
      "phone": "",
      "website": "",
      "opening_hours": "",
      "amenity_type": "fast_food",
      "cuisine": "chicken"
    },
    {
      "osm_id": 11502448482,
      "osm_type": "node",
      "name": "Raising Cane's",
      "brand": "Raising Cane's",
      "latitude": 38.5435067,
      "longitude": -121.7413758,
      "address": "E Street",
      "city": "Davis",
      "state": "CA",
      "postcode": "95616",
      "phone": "",
      "website": "",
      "opening_hours": "",
      "amenity_type": "fast_food",
      "cuisine": "chicken"
    },
    {
      "osm_id": 11509728443,
      "osm_type": "node",
      "name": "Raising Cane's",
      "brand": "Raising Cane's",
      "latitude": 41.7540585,
      "longitude": -111.8349434,
      "address": "North Main Street",
      "city": "Logan",
      "state": "UT",
      "postcode": "84341",
      "phone": "+1 719-244-9542",
      "website": "https://www.raisingcanes.com/locations/c1010/",
      "opening_hours": "Su-Th 10:00-24:00; Fr-Sa 10:00-25:00",
      "amenity_type": "fast_food",
      "cuisine": "chicken"
    },
    {
      "osm_id": 11548884432,
      "osm_type": "node",
      "name": "Raising Cane's",
      "brand": "Raising Cane's",
      "latitude": 34.0410846,
      "longitude": -118.1415946,
      "address": "South Atlantic Boulevard",
      "city": "Monterey Park",
      "state": "CA",
      "postcode": "91754",
      "phone": "+1 626-537-2567",
      "website": "https://locations.raisingcanes.com/ca/monterey-park/1970-s-atlantic-blvd",
      "opening_hours": "09:00-01:00",
      "amenity_type": "fast_food",
      "cuisine": "chicken"
    },
    {
      "osm_id": 11582748166,
      "osm_type": "node",
      "name": "Raising Cane's",
      "brand": "Raising Cane's",
      "latitude": 45.0132514,
      "longitude": -93.1765065,
      "address": "",
      "city": "",
      "state": "",
      "postcode": "",
      "phone": "",
      "website": "",
      "opening_hours": "",
      "amenity_type": "fast_food",
      "cuisine": "chicken"
    },
    {
      "osm_id": 11583865746,
      "osm_type": "node",
      "name": "Raising Cane's",
      "brand": "Raising Cane's",
      "latitude": 33.8627007,
      "longitude": -118.0904478,
      "address": "Gridley Road",
      "city": "Artesia",
      "state": "CA",
      "postcode": "90701",
      "phone": "+1 562-370-9740",
      "website": "https://raisingcanes.com/locations/c799/",
      "opening_hours": "Mo-Th 00:00-02:00,09:00-24:00; Fr-Su 00:00-03:00,09:00-24:00",
      "amenity_type": "fast_food",
      "cuisine": "chicken"
    },
    {
      "osm_id": 11624325044,
      "osm_type": "node",
      "name": "Raising Cane's",
      "brand": "Raising Cane's",
      "latitude": 40.7297829,
      "longitude": -73.9917766,
      "address": "Astor Place",
      "city": "New York",
      "state": "NY",
      "postcode": "10003",
      "phone": "",
      "website": "https://raisingcanes.com/",
      "opening_hours": "Mo-Su 09:00-01:00",
      "amenity_type": "fast_food",
      "cuisine": "chicken"
    },
    {
      "osm_id": 11826475459,
      "osm_type": "node",
      "name": "Raising Cane's",
      "brand": "Raising Cane's",
      "latitude": 30.3778268,
      "longitude": -91.0960673,
      "address": "",
      "city": "",
      "state": "",
      "postcode": "",
      "phone": "",
      "website": "",
      "opening_hours": "",
      "amenity_type": "fast_food",
      "cuisine": "chicken"
    },
    {
      "osm_id": 11839397431,
      "osm_type": "node",
      "name": "Raising Cane's",
      "brand": "Raising Cane's",
      "latitude": 34.0865032,
      "longitude": -84.5232621,
      "address": "GA-92",
      "city": "",
      "state": "",
      "postcode": "",
      "phone": "+1 770-871-2176",
      "website": "https://locations.raisingcanes.com/ga/woodstock/9893-georgia-highway-92",
      "opening_hours": "Mo-Th,Su 10:00-01:00; Fr-Sa 10:00-02:00",
      "amenity_type": "fast_food",
      "cuisine": "chicken"
    },
    {
      "osm_id": 11865534871,
      "osm_type": "node",
      "name": "Raising Cane's",
      "brand": "Raising Cane's",
      "latitude": 40.7508733,
      "longitude": -73.9923032,
      "address": "",
      "city": "",
      "state": "",
      "postcode": "",
      "phone": "",
      "website": "",
      "opening_hours": "",
      "amenity_type": "fast_food",
      "cuisine": "chicken"
    },
    {
      "osm_id": 11898499178,
      "osm_type": "node",
      "name": "Raising Cane's",
      "brand": "Raising Cane's",
      "latitude": 38.8977392,
      "longitude": -77.0052092,
      "address": "Massachusetts Avenue Northeast",
      "city": "Washington",
      "state": "DC",
      "postcode": "20002-4214",
      "phone": "+1 202-481-3204",
      "website": "https://locations.raisingcanes.com/dc/washington/m143-50-massachusetts-ave-ne",
      "opening_hours": "",
      "amenity_type": "fast_food",
      "cuisine": "chicken"
    },
    {
      "osm_id": 11900198239,
      "osm_type": "node",
      "name": "Raising Cane's",
      "brand": "Raising Cane's",
      "latitude": 31.771902,
      "longitude": -106.3763895,
      "address": "Gateway Boulevard West",
      "city": "El Paso",
      "state": "TX",
      "postcode": "79925",
      "phone": "",
      "website": "",
      "opening_hours": "",
      "amenity_type": "fast_food",
      "cuisine": "chicken"
    },
    {
      "osm_id": 11902369843,
      "osm_type": "node",
      "name": "Raising Cane's",
      "brand": "Raising Cane's",
      "latitude": 38.035193,
      "longitude": -78.50064,
      "address": "University Avenue",
      "city": "Charlottesville",
      "state": "VA",
      "postcode": "22903",
      "phone": "+1-434-329-6027",
      "website": "https://locations.raisingcanes.com/va/charlottesville/1519-university-avenue",
      "opening_hours": "Su-We 10:00-24:00; Th-Sa 10:00-03:00",
      "amenity_type": "fast_food",
      "cuisine": "chicken"
    },
    {
      "osm_id": 11908493393,
      "osm_type": "node",
      "name": "Raising Cane's",
      "brand": "Raising Cane's",
      "latitude": 37.4046748,
      "longitude": -77.6699536,
      "address": "Lake Harbour Drive",
      "city": "Midlothian",
      "state": "VA",
      "postcode": "23112",
      "phone": "",
      "website": "",
      "opening_hours": "Mo-Su 10:00-24:00",
      "amenity_type": "fast_food",
      "cuisine": "chicken"
    },
    {
      "osm_id": 11916238238,
      "osm_type": "node",
      "name": "Raising Cane's",
      "brand": "Raising Cane's",
      "latitude": 41.9976995,
      "longitude": -72.5803335,
      "address": "",
      "city": "",
      "state": "",
      "postcode": "",
      "phone": "",
      "website": "",
      "opening_hours": "Mo-Su 10:00-24:00; PH closed",
      "amenity_type": "fast_food",
      "cuisine": "chicken"
    },
    {
      "osm_id": 11918207316,
      "osm_type": "node",
      "name": "Raising Cane's",
      "brand": "Raising Cane's",
      "latitude": 27.9157953,
      "longitude": -82.7374234,
      "address": "East Bay Drive",
      "city": "Clearwater",
      "state": "FL",
      "postcode": "33764",
      "phone": "+1-727-431-3052",
      "website": "https://locations.raisingcanes.com/fl/clearwater/4835-east-bay-drive",
      "opening_hours": "",
      "amenity_type": "fast_food",
      "cuisine": "chicken"
    },
    {
      "osm_id": 11920668130,
      "osm_type": "node",
      "name": "Raising Cane's",
      "brand": "Raising Cane's",
      "latitude": 29.7393445,
      "longitude": -95.4634649,
      "address": "",
      "city": "",
      "state": "",
      "postcode": "",
      "phone": "",
      "website": "",
      "opening_hours": "",
      "amenity_type": "fast_food",
      "cuisine": "chicken"
    },
    {
      "osm_id": 11923670819,
      "osm_type": "node",
      "name": "Raising Cane's",
      "brand": "Raising Cane's",
      "latitude": 29.7803097,
      "longitude": -95.606849,
      "address": "",
      "city": "",
      "state": "",
      "postcode": "",
      "phone": "",
      "website": "",
      "opening_hours": "",
      "amenity_type": "fast_food",
      "cuisine": "chicken"
    },
    {
      "osm_id": 11934194752,
      "osm_type": "node",
      "name": "Raising Cane's",
      "brand": "Raising Cane's",
      "latitude": 38.3667574,
      "longitude": -121.9604936,
      "address": "",
      "city": "",
      "state": "",
      "postcode": "",
      "phone": "",
      "website": "",
      "opening_hours": "",
      "amenity_type": "fast_food",
      "cuisine": "chicken"
    },
    {
      "osm_id": 12044710828,
      "osm_type": "node",
      "name": "Raising Cane's",
      "brand": "Raising Cane's",
      "latitude": 29.7018532,
      "longitude": -95.2938357,
      "address": "",
      "city": "",
      "state": "",
      "postcode": "",
      "phone": "",
      "website": "",
      "opening_hours": "",
      "amenity_type": "fast_food",
      "cuisine": "chicken"
    },
    {
      "osm_id": 12068959654,
      "osm_type": "node",
      "name": "Raising Cane's",
      "brand": "Raising Cane's",
      "latitude": 28.4003943,
      "longitude": -81.4884357,
      "address": "",
      "city": "",
      "state": "",
      "postcode": "",
      "phone": "",
      "website": "",
      "opening_hours": "",
      "amenity_type": "fast_food",
      "cuisine": "chicken"
    },
    {
      "osm_id": 12106506100,
      "osm_type": "node",
      "name": "Raising Cane's",
      "brand": "Raising Cane's",
      "latitude": 30.1211862,
      "longitude": -94.1647303,
      "address": "Dowlen Road",
      "city": "",
      "state": "",
      "postcode": "",
      "phone": "",
      "website": "",
      "opening_hours": "Su-Th 09:00-23:00, Fr,Sa 09:00-24:00",
      "amenity_type": "fast_food",
      "cuisine": "chicken"
    },
    {
      "osm_id": 12123181601,
      "osm_type": "node",
      "name": "Raising Cane's",
      "brand": "Raising Cane's",
      "latitude": 41.2455783,
      "longitude": -81.3565334,
      "address": "Cleveland East Liverpool Road",
      "city": "",
      "state": "",
      "postcode": "44241",
      "phone": "+1-330-531-6723",
      "website": "https://raisingcanes.com/",
      "opening_hours": "Su-Th 10:00-23:00; Fr-Sa 10:00-24:00",
      "amenity_type": "fast_food",
      "cuisine": "chicken"
    },
    {
      "osm_id": 12171055926,
      "osm_type": "node",
      "name": "Raising Cane's",
      "brand": "Raising Cane's",
      "latitude": 42.0188797,
      "longitude": -97.4269744,
      "address": "",
      "city": "",
      "state": "",
      "postcode": "",
      "phone": "",
      "website": "",
      "opening_hours": "",
      "amenity_type": "fast_food",
      "cuisine": "chicken"
    },
    {
      "osm_id": 12184849220,
      "osm_type": "node",
      "name": "Raising Cane's",
      "brand": "Raising Cane's",
      "latitude": 41.6592649,
      "longitude": -91.5350224,
      "address": "",
      "city": "",
      "state": "",
      "postcode": "",
      "phone": "",
      "website": "",
      "opening_hours": "",
      "amenity_type": "fast_food",
      "cuisine": "chicken"
    },
    {
      "osm_id": 12189066158,
      "osm_type": "node",
      "name": "Raising Cane's",
      "brand": "Raising Cane's",
      "latitude": 37.5102524,
      "longitude": -77.6129281,
      "address": "",
      "city": "",
      "state": "",
      "postcode": "23113",
      "phone": "+1-804-431-3238",
      "website": "https://locations.raisingcanes.com/va/midlothian/1321-huguenot-rd",
      "opening_hours": "Mo-Th 10:00-00:00; Fr-Sa 10:00-01:00; Su 10:00-19:00",
      "amenity_type": "fast_food",
      "cuisine": "chicken"
    },
    {
      "osm_id": 12269893018,
      "osm_type": "node",
      "name": "Raising Cane's",
      "brand": "Raising Cane's",
      "latitude": 39.9540346,
      "longitude": -75.200911,
      "address": "Walnut Street",
      "city": "Philadelphia",
      "state": "PA",
      "postcode": "19104",
      "phone": "+1-445-223-5133",
      "website": "https://locations.raisingcanes.com/pa/philadelphia/3925-walnut-street",
      "opening_hours": "Su-We 10:00-25:00; Th-Sa 10:00-26:00",
      "amenity_type": "fast_food",
      "cuisine": "chicken"
    },
    {
      "osm_id": 12304954061,
      "osm_type": "node",
      "name": "Raising Cane's",
      "brand": "Raising Cane's",
      "latitude": 27.8990602,
      "longitude": -97.3050515,
      "address": "",
      "city": "",
      "state": "",
      "postcode": "",
      "phone": "",
      "website": "",
      "opening_hours": "",
      "amenity_type": "fast_food",
      "cuisine": "chicken"
    },
    {
      "osm_id": 12335309697,
      "osm_type": "node",
      "name": "Raising Cane's",
      "brand": "Raising Cane's",
      "latitude": 38.6736335,
      "longitude": -90.3570977,
      "address": "",
      "city": "",
      "state": "",
      "postcode": "",
      "phone": "",
      "website": "",
      "opening_hours": "Su-Th 10:00-23:00, Fr,Sa 10:00-24:00",
      "amenity_type": "fast_food",
      "cuisine": "chicken"
    },
    {
      "osm_id": 12339877152,
      "osm_type": "node",
      "name": "Raising Cane's",
      "brand": "Raising Cane's",
      "latitude": 38.8223032,
      "longitude": -90.8772951,
      "address": "Wentzville Parkway",
      "city": "Wentzville",
      "state": "",
      "postcode": "63385",
      "phone": "+1-636-345-9604",
      "website": "https://locations.raisingcanes.com/mo/wentzville/1580-wentzville-parkway",
      "opening_hours": "Su-Th 10:00-23:00; Fr-Sa 10:00-00:00",
      "amenity_type": "fast_food",
      "cuisine": "chicken"
    },
    {
      "osm_id": 12348643726,
      "osm_type": "node",
      "name": "Raising Cane's",
      "brand": "Raising Cane's",
      "latitude": 41.5198072,
      "longitude": -81.4672124,
      "address": "Mayfield Road",
      "city": "Mayfield Heights",
      "state": "OH",
      "postcode": "44124",
      "phone": "",
      "website": "",
      "opening_hours": "",
      "amenity_type": "fast_food",
      "cuisine": "chicken"
    },
    {
      "osm_id": 12377500593,
      "osm_type": "node",
      "name": "Raising Cane's",
      "brand": "Raising Cane's",
      "latitude": 32.6069304,
      "longitude": -97.4100365,
      "address": "",
      "city": "",
      "state": "",
      "postcode": "",
      "phone": "",
      "website": "",
      "opening_hours": "",
      "amenity_type": "fast_food",
      "cuisine": "chicken"
    },
    {
      "osm_id": 12387173501,
      "osm_type": "node",
      "name": "Raising Cane's",
      "brand": "",
      "latitude": 38.5434646,
      "longitude": -121.7413209,
      "address": "E Street",
      "city": "",
      "state": "",
      "postcode": "95616",
      "phone": "",
      "website": "",
      "opening_hours": "",
      "amenity_type": "fast_food",
      "cuisine": "american;burger;chicken"
    },
    {
      "osm_id": 12459977001,
      "osm_type": "node",
      "name": "Raising Cane's Chicken Fingers",
      "brand": "",
      "latitude": 38.6031076,
      "longitude": -90.4395931,
      "address": "Manchester Road",
      "city": "",
      "state": "",
      "postcode": "63101",
      "phone": "+1 314-909-4772",
      "website": "",
      "opening_hours": "Su-Th 10:00-23:00; Fr-Sa 10:00-00:00",
      "amenity_type": "fast_food",
      "cuisine": "american"
    },
    {
      "osm_id": 12463632876,
      "osm_type": "node",
      "name": "Raising Cane's",
      "brand": "Raising Cane's",
      "latitude": 28.3462552,
      "longitude": -81.6145931,
      "address": "",
      "city": "",
      "state": "",
      "postcode": "",
      "phone": "",
      "website": "",
      "opening_hours": "",
      "amenity_type": "fast_food",
      "cuisine": "chicken"
    },
    {
      "osm_id": 12465960019,
      "osm_type": "node",
      "name": "Raising Cane's",
      "brand": "Raising Cane's",
      "latitude": 36.1617681,
      "longitude": -86.7759426,
      "address": "",
      "city": "",
      "state": "",
      "postcode": "",
      "phone": "",
      "website": "",
      "opening_hours": "Su-We 10:00-02:30, Th-Sa 10:00-03:30",
      "amenity_type": "fast_food",
      "cuisine": "chicken"
    },
    {
      "osm_id": 12488728937,
      "osm_type": "node",
      "name": "Raising Cane's",
      "brand": "Raising Cane's",
      "latitude": 40.7573086,
      "longitude": -73.9863445,
      "address": "",
      "city": "",
      "state": "",
      "postcode": "",
      "phone": "",
      "website": "",
      "opening_hours": "",
      "amenity_type": "fast_food",
      "cuisine": "chicken"
    },
    {
      "osm_id": 12490283501,
      "osm_type": "node",
      "name": "Raising Cane's Chicken Fingers",
      "brand": "",
      "latitude": 36.1286046,
      "longitude": -86.8522019,
      "address": "White Bridge Pike",
      "city": "",
      "state": "",
      "postcode": "37205",
      "phone": "+1-615-882-3050",
      "website": "http://raisingcanes.com",
      "opening_hours": "Su-Th 10:00-00:00; Fr-Sa 10:00-01:00",
      "amenity_type": "fast_food",
      "cuisine": "chicken"
    },
    {
      "osm_id": 12508506521,
      "osm_type": "node",
      "name": "Raising Cane's",
      "brand": "Raising Cane's",
      "latitude": 39.7276147,
      "longitude": -121.8026318,
      "address": "",
      "city": "",
      "state": "",
      "postcode": "",
      "phone": "",
      "website": "",
      "opening_hours": "Su-Th 09:00-17:00; Fr,Sa 09:00-15:30",
      "amenity_type": "fast_food",
      "cuisine": "chicken"
    },
    {
      "osm_id": 12513046228,
      "osm_type": "node",
      "name": "Raising Cane's",
      "brand": "Raising Cane's",
      "latitude": 28.1938386,
      "longitude": -82.3905002,
      "address": "",
      "city": "",
      "state": "",
      "postcode": "",
      "phone": "",
      "website": "",
      "opening_hours": "",
      "amenity_type": "fast_food",
      "cuisine": "chicken"
    },
    {
      "osm_id": 12557726261,
      "osm_type": "node",
      "name": "Raising Cane's",
      "brand": "Raising Cane's",
      "latitude": 34.078852,
      "longitude": -118.1104916,
      "address": "East Valley Blvd",
      "city": "Alhambra",
      "state": "CA",
      "postcode": "91801",
      "phone": "",
      "website": "https://locations.raisingcanes.com/ca/alhambra/1300-e.-valley-blvd",
      "opening_hours": "Su-We 09:00-03:00; Th-Sa 09:00-03:30",
      "amenity_type": "fast_food",
      "cuisine": "chicken"
    },
    {
      "osm_id": 12593655950,
      "osm_type": "node",
      "name": "Raising Cane's",
      "brand": "Raising Cane's",
      "latitude": 28.5966733,
      "longitude": -81.3080194,
      "address": "",
      "city": "",
      "state": "",
      "postcode": "",
      "phone": "",
      "website": "",
      "opening_hours": "",
      "amenity_type": "fast_food",
      "cuisine": "chicken"
    },
    {
      "osm_id": 12596310691,
      "osm_type": "node",
      "name": "Raising Cane's",
      "brand": "Raising Cane's",
      "latitude": 39.9970853,
      "longitude": -85.9339638,
      "address": "Campus Parkway",
      "city": "Noblesville",
      "state": "IN",
      "postcode": "46060",
      "phone": "+1-317-308-4508",
      "website": "https://locations.raisingcanes.com/in/noblesville/13020-campus-parkway",
      "opening_hours": "Mo-Su 10:00-00:00",
      "amenity_type": "fast_food",
      "cuisine": "chicken"
    },
    {
      "osm_id": 12602259130,
      "osm_type": "node",
      "name": "Raising Cane's",
      "brand": "Raising Cane's",
      "latitude": 32.5745989,
      "longitude": -97.0874179,
      "address": "East Broad Street",
      "city": "Mansfield",
      "state": "TX",
      "postcode": "76063",
      "phone": "",
      "website": "",
      "opening_hours": "",
      "amenity_type": "fast_food",
      "cuisine": "chicken"
    },
    {
      "osm_id": 12639503595,
      "osm_type": "node",
      "name": "Raising Cane's",
      "brand": "Raising Cane's",
      "latitude": 42.0027776,
      "longitude": -87.8838447,
      "address": "Mannheim Road",
      "city": "Des Plaines",
      "state": "IL",
      "postcode": "60018",
      "phone": "",
      "website": "https://locations.raisingcanes.com/il/des-plaines/2781-mannheim-road",
      "opening_hours": "",
      "amenity_type": "fast_food",
      "cuisine": "chicken"
    },
    {
      "osm_id": 12669100456,
      "osm_type": "node",
      "name": "Raising Cane's",
      "brand": "Raising Cane's",
      "latitude": 33.941573,
      "longitude": -117.4536493,
      "address": "",
      "city": "",
      "state": "",
      "postcode": "",
      "phone": "",
      "website": "",
      "opening_hours": "",
      "amenity_type": "fast_food",
      "cuisine": "chicken"
    },
    {
      "osm_id": 12688407703,
      "osm_type": "node",
      "name": "Raising Cane's",
      "brand": "Raising Cane's",
      "latitude": 40.4183839,
      "longitude": -86.8385924,
      "address": "North Creasy Lane",
      "city": "Lafayette",
      "state": "IN",
      "postcode": "47905",
      "phone": "",
      "website": "",
      "opening_hours": "",
      "amenity_type": "fast_food",
      "cuisine": "chicken"
    },
    {
      "osm_id": 12696695991,
      "osm_type": "node",
      "name": "Raising Cane's",
      "brand": "Raising Cane's",
      "latitude": 39.5300048,
      "longitude": -76.3515458,
      "address": "Baltimore Pike",
      "city": "Bel Air",
      "state": "MD",
      "postcode": "21014",
      "phone": "+1-443-567-7227",
      "website": "https://locations.raisingcanes.com/md/bel-air/336-baltimore-pike",
      "opening_hours": "",
      "amenity_type": "fast_food",
      "cuisine": "chicken"
    },
    {
      "osm_id": 12708076345,
      "osm_type": "node",
      "name": "Raising Cane's",
      "brand": "Raising Cane's",
      "latitude": 42.3549482,
      "longitude": -71.0595221,
      "address": "Arch Street",
      "city": "Boston",
      "state": "MA",
      "postcode": "02110",
      "phone": "",
      "website": "",
      "opening_hours": "",
      "amenity_type": "fast_food",
      "cuisine": "chicken"
    },
    {
      "osm_id": 12742161201,
      "osm_type": "node",
      "name": "Raising Cane's Chicken Fingers",
      "brand": "",
      "latitude": 30.6587297,
      "longitude": -96.3322841,
      "address": "Briarcrest Drive",
      "city": "",
      "state": "",
      "postcode": "77802",
      "phone": "",
      "website": "https://raisingcanes.com/",
      "opening_hours": "Su-Th 10:00-24:00; Fr-Sa 10:00-01:00",
      "amenity_type": "fast_food",
      "cuisine": "american;chicken"
    },
    {
      "osm_id": 12785051897,
      "osm_type": "node",
      "name": "Raising Cane's Chicken Fingers",
      "brand": "",
      "latitude": 35.296416,
      "longitude": -119.0730742,
      "address": "Panama Lane",
      "city": "Bakersfield",
      "state": "CA",
      "postcode": "93313",
      "phone": "+1-661-664-0108",
      "website": "https://www.raisingcanes.com",
      "opening_hours": "Su-Th 09:00-02:00; Fr-Sa 09:00-03:30",
      "amenity_type": "fast_food",
      "cuisine": "chicken;fried_food"
    },
    {
      "osm_id": 12854856048,
      "osm_type": "node",
      "name": "Raising Cane's",
      "brand": "Raising Cane's",
      "latitude": 37.319246,
      "longitude": -121.8086812,
      "address": "Evergreen Place",
      "city": "",
      "state": "",
      "postcode": "95122",
      "phone": "",
      "website": "",
      "opening_hours": "Mo-We, Su 09:00-02:00; Th-Sa 09:00-03:30",
      "amenity_type": "fast_food",
      "cuisine": "chicken"
    },
    {
      "osm_id": 12858248065,
      "osm_type": "node",
      "name": "Raising Cane's",
      "brand": "Raising Cane's",
      "latitude": 26.1994318,
      "longitude": -98.2872436,
      "address": "",
      "city": "",
      "state": "",
      "postcode": "",
      "phone": "",
      "website": "",
      "opening_hours": "",
      "amenity_type": "fast_food",
      "cuisine": "chicken"
    },
    {
      "osm_id": 12875289087,
      "osm_type": "node",
      "name": "Raising Cane's",
      "brand": "Raising Cane's",
      "latitude": 27.5450948,
      "longitude": -99.483124,
      "address": "",
      "city": "",
      "state": "",
      "postcode": "",
      "phone": "",
      "website": "",
      "opening_hours": "",
      "amenity_type": "fast_food",
      "cuisine": "chicken"
    },
    {
      "osm_id": 12876319080,
      "osm_type": "node",
      "name": "Raising Cane's",
      "brand": "Raising Cane's",
      "latitude": 39.9055809,
      "longitude": -86.0754861,
      "address": "",
      "city": "",
      "state": "",
      "postcode": "",
      "phone": "",
      "website": "",
      "opening_hours": "",
      "amenity_type": "fast_food",
      "cuisine": "chicken"
    },
    {
      "osm_id": 12943790325,
      "osm_type": "node",
      "name": "Raising Cane's",
      "brand": "Raising Cane's",
      "latitude": 33.7132186,
      "longitude": -112.2723904,
      "address": "",
      "city": "",
      "state": "",
      "postcode": "",
      "phone": "",
      "website": "",
      "opening_hours": "",
      "amenity_type": "fast_food",
      "cuisine": "chicken"
    },
    {
      "osm_id": 12988649478,
      "osm_type": "node",
      "name": "Raising Cane's",
      "brand": "Raising Cane's",
      "latitude": 33.3229116,
      "longitude": -111.6863184,
      "address": "South Power Road",
      "city": "Mesa",
      "state": "AZ",
      "postcode": "85212",
      "phone": "",
      "website": "",
      "opening_hours": "",
      "amenity_type": "fast_food",
      "cuisine": "chicken"
    },
    {
      "osm_id": 13030696959,
      "osm_type": "node",
      "name": "Raising Cane's",
      "brand": "Raising Cane's",
      "latitude": 40.5082114,
      "longitude": -111.9870115,
      "address": "13400 South",
      "city": "Riverton",
      "state": "UT",
      "postcode": "84096",
      "phone": "+1-801-438-5018",
      "website": "https://locations.raisingcanes.com/ut/riverton/4026-west-13400-south",
      "opening_hours": "Su-Th 10:00-24:00; Fr-Sa 10:00-01:00",
      "amenity_type": "fast_food",
      "cuisine": "chicken"
    },
    {
      "osm_id": 13034268540,
      "osm_type": "node",
      "name": "Raising Cane's",
      "brand": "Raising Cane's",
      "latitude": 33.8872732,
      "longitude": -118.3148322,
      "address": "",
      "city": "",
      "state": "",
      "postcode": "",
      "phone": "",
      "website": "",
      "opening_hours": "",
      "amenity_type": "fast_food",
      "cuisine": "chicken"
    },
    {
      "osm_id": 13041533205,
      "osm_type": "node",
      "name": "Raising Cane's",
      "brand": "Raising Cane's",
      "latitude": 40.7038099,
      "longitude": -73.7993579,
      "address": "",
      "city": "",
      "state": "",
      "postcode": "",
      "phone": "",
      "website": "",
      "opening_hours": "",
      "amenity_type": "fast_food",
      "cuisine": "chicken"
    },
    {
      "osm_id": 13062970133,
      "osm_type": "node",
      "name": "Raising Cane's",
      "brand": "Raising Cane's",
      "latitude": 39.7533432,
      "longitude": -75.0473055,
      "address": "Black Horse Pike",
      "city": "Turnersville",
      "state": "NJ",
      "postcode": "08012",
      "phone": "+1-856-226-7098",
      "website": "https://www.raisingcanes.com",
      "opening_hours": "Mo-Su 10:00-24:00",
      "amenity_type": "fast_food",
      "cuisine": "chicken"
    },
    {
      "osm_id": 13062983543,
      "osm_type": "node",
      "name": "Raising Cane's",
      "brand": "Raising Cane's",
      "latitude": 39.7192786,
      "longitude": -75.1149544,
      "address": "",
      "city": "",
      "state": "",
      "postcode": "",
      "phone": "",
      "website": "",
      "opening_hours": "",
      "amenity_type": "fast_food",
      "cuisine": "chicken"
    },
    {
      "osm_id": 13065358712,
      "osm_type": "node",
      "name": "Raising Cane's",
      "brand": "Raising Cane's",
      "latitude": 41.053614,
      "longitude": -83.6125846,
      "address": "",
      "city": "",
      "state": "",
      "postcode": "",
      "phone": "",
      "website": "",
      "opening_hours": "",
      "amenity_type": "fast_food",
      "cuisine": "chicken"
    },
    {
      "osm_id": 13093251503,
      "osm_type": "node",
      "name": "Raising Cane's",
      "brand": "Raising Cane's",
      "latitude": 41.4672964,
      "longitude": -82.009123,
      "address": "Chester Road",
      "city": "Avon",
      "state": "OH",
      "postcode": "44011",
      "phone": "",
      "website": "",
      "opening_hours": "",
      "amenity_type": "fast_food",
      "cuisine": "chicken"
    },
    {
      "osm_id": 13104278557,
      "osm_type": "node",
      "name": "Raising Cane's",
      "brand": "Raising Cane's",
      "latitude": 41.4852347,
      "longitude": -81.79104,
      "address": "",
      "city": "",
      "state": "",
      "postcode": "",
      "phone": "",
      "website": "",
      "opening_hours": "",
      "amenity_type": "fast_food",
      "cuisine": "chicken"
    },
    {
      "osm_id": 13104313001,
      "osm_type": "node",
      "name": "Raising Cane's",
      "brand": "Raising Cane's",
      "latitude": 33.1802997,
      "longitude": -111.5837722,
      "address": "North Gary Road",
      "city": "",
      "state": "",
      "postcode": "85143",
      "phone": "",
      "website": "http://locations.raisincanes.com",
      "opening_hours": "Su-Th 09:00-12:00; Fr-Sa 09:00-02:00",
      "amenity_type": "fast_food",
      "cuisine": "chicken"
    },
    {
      "osm_id": 13138316001,
      "osm_type": "node",
      "name": "Raising Cane's",
      "brand": "Raising Cane's",
      "latitude": 41.9251004,
      "longitude": -87.6485641,
      "address": "North Lincoln Avenue",
      "city": "Chicago",
      "state": "IL",
      "postcode": "60614",
      "phone": "",
      "website": "https://locations.raisingcanes.com/il/chicago/2376-north-lincoln-avenue",
      "opening_hours": "Su-Th 10:00-01:00; Fr-Sa 10:00-03:30",
      "amenity_type": "fast_food",
      "cuisine": "chicken"
    },
    {
      "osm_id": 13139727698,
      "osm_type": "node",
      "name": "Raising Cane's",
      "brand": "Raising Cane's",
      "latitude": 41.798422,
      "longitude": -72.5503069,
      "address": "",
      "city": "",
      "state": "",
      "postcode": "",
      "phone": "",
      "website": "",
      "opening_hours": "",
      "amenity_type": "fast_food",
      "cuisine": "chicken"
    },
    {
      "osm_id": 13147598564,
      "osm_type": "node",
      "name": "Raising Cane's",
      "brand": "Raising Cane's",
      "latitude": 42.2748904,
      "longitude": -83.7356026,
      "address": "South University Avenue",
      "city": "Ann Arbor",
      "state": "MI",
      "postcode": "48104",
      "phone": "+1 734-452-0934",
      "website": "https://locations.raisingcanes.com/mi/ann-arbor/1116-s-university-avenue",
      "opening_hours": "Su-We 10:00-02:00, Th-Sa 10:00-03:00",
      "amenity_type": "fast_food",
      "cuisine": "chicken"
    },
    {
      "osm_id": 13181296501,
      "osm_type": "node",
      "name": "Raising Cane's Chicken Fingers",
      "brand": "",
      "latitude": 29.8077092,
      "longitude": -95.1698728,
      "address": "Wallisville Road",
      "city": "",
      "state": "",
      "postcode": "77049",
      "phone": "",
      "website": "",
      "opening_hours": "Su-Th 09:00-02:00; Fr-Sa 09:00-03:00",
      "amenity_type": "fast_food",
      "cuisine": "chicken"
    },
    {
      "osm_id": 13182314870,
      "osm_type": "node",
      "name": "Raising Cane's",
      "brand": "Raising Cane's",
      "latitude": 39.5847346,
      "longitude": -76.9897103,
      "address": "",
      "city": "",
      "state": "",
      "postcode": "",
      "phone": "",
      "website": "",
      "opening_hours": "",
      "amenity_type": "fast_food",
      "cuisine": "chicken"
    },
    {
      "osm_id": 13186145511,
      "osm_type": "node",
      "name": "Raising Cane's",
      "brand": "Raising Cane's",
      "latitude": 31.068789,
      "longitude": -97.6674199,
      "address": "",
      "city": "",
      "state": "",
      "postcode": "",
      "phone": "",
      "website": "",
      "opening_hours": "",
      "amenity_type": "fast_food",
      "cuisine": "chicken"
    },
    {
      "osm_id": 13254935585,
      "osm_type": "node",
      "name": "Raising Cane's",
      "brand": "Raising Cane's",
      "latitude": 40.720493,
      "longitude": -73.8460368,
      "address": "",
      "city": "",
      "state": "",
      "postcode": "",
      "phone": "",
      "website": "",
      "opening_hours": "",
      "amenity_type": "fast_food",
      "cuisine": "chicken"
    },
    {
      "osm_id": 13266226177,
      "osm_type": "node",
      "name": "Raising Cane's",
      "brand": "Raising Cane's",
      "latitude": 35.9134621,
      "longitude": -79.0556919,
      "address": "",
      "city": "",
      "state": "",
      "postcode": "",
      "phone": "",
      "website": "",
      "opening_hours": "",
      "amenity_type": "fast_food",
      "cuisine": "chicken"
    },
    {
      "osm_id": 13276932005,
      "osm_type": "node",
      "name": "Raising Cane's",
      "brand": "Raising Cane's",
      "latitude": 42.1500533,
      "longitude": -88.3348893,
      "address": "",
      "city": "",
      "state": "",
      "postcode": "",
      "phone": "",
      "website": "",
      "opening_hours": "",
      "amenity_type": "fast_food",
      "cuisine": "chicken"
    },
    {
      "osm_id": 13281510269,
      "osm_type": "node",
      "name": "Raising Cane's",
      "brand": "Raising Cane's",
      "latitude": 33.9532952,
      "longitude": -117.3970277,
      "address": "",
      "city": "",
      "state": "",
      "postcode": "",
      "phone": "",
      "website": "",
      "opening_hours": "",
      "amenity_type": "fast_food",
      "cuisine": "chicken"
    },
    {
      "osm_id": 13302437501,
      "osm_type": "node",
      "name": "Raising Cane's Chicken Fingers",
      "brand": "",
      "latitude": 32.7207932,
      "longitude": -96.8341463,
      "address": "701 W Illinois Ave",
      "city": "",
      "state": "",
      "postcode": "75224",
      "phone": "+1-214-944-5546",
      "website": "https://locations.raisingcanes.com/tx/dallas/701-w.-illinois-avenue",
      "opening_hours": "Mo-Su 10:00-03:00",
      "amenity_type": "fast_food",
      "cuisine": "chicken"
    },
    {
      "osm_id": 13310878851,
      "osm_type": "node",
      "name": "Raising Cane's",
      "brand": "Raising Cane's",
      "latitude": 39.3274384,
      "longitude": -82.101481,
      "address": "",
      "city": "",
      "state": "",
      "postcode": "",
      "phone": "",
      "website": "",
      "opening_hours": "",
      "amenity_type": "fast_food",
      "cuisine": "chicken"
    },
    {
      "osm_id": 13320497764,
      "osm_type": "node",
      "name": "Raising Cane's",
      "brand": "Raising Cane's",
      "latitude": 36.0550877,
      "longitude": -79.898715,
      "address": "West Wendover Avenue",
      "city": "",
      "state": "",
      "postcode": "",
      "phone": "",
      "website": "",
      "opening_hours": "",
      "amenity_type": "fast_food",
      "cuisine": "chicken"
    },
    {
      "osm_id": 13332518535,
      "osm_type": "node",
      "name": "Raising Cane's",
      "brand": "",
      "latitude": 42.4481654,
      "longitude": -96.3312525,
      "address": "",
      "city": "",
      "state": "",
      "postcode": "",
      "phone": "",
      "website": "",
      "opening_hours": "",
      "amenity_type": "fast_food",
      "cuisine": ""
    },
    {
      "osm_id": 13382082293,
      "osm_type": "node",
      "name": "Raising Cane's",
      "brand": "Raising Cane's",
      "latitude": 34.17935,
      "longitude": -84.1320071,
      "address": "",
      "city": "",
      "state": "",
      "postcode": "",
      "phone": "",
      "website": "",
      "opening_hours": "Mo-Th,Su 10:00-24:00; Fr-Sa 10:00-01:00",
      "amenity_type": "fast_food",
      "cuisine": "chicken"
    },
    {
      "osm_id": 13416458061,
      "osm_type": "node",
      "name": "Raising Cane's",
      "brand": "",
      "latitude": 34.0042069,
      "longitude": -84.5766248,
      "address": "Barrett Lakes Boulevard",
      "city": "",
      "state": "",
      "postcode": "",
      "phone": "",
      "website": "https://locations.raisingcanes.com/ga/kennesaw",
      "opening_hours": "",
      "amenity_type": "fast_food",
      "cuisine": "chicken"
    },
    {
      "osm_id": 13420268307,
      "osm_type": "node",
      "name": "Raising Cane's",
      "brand": "Raising Cane's",
      "latitude": 34.1580896,
      "longitude": -118.4942527,
      "address": "",
      "city": "",
      "state": "",
      "postcode": "",
      "phone": "",
      "website": "",
      "opening_hours": "",
      "amenity_type": "fast_food",
      "cuisine": "chicken"
    },
    {
      "osm_id": 13469013686,
      "osm_type": "node",
      "name": "Raising Cane's",
      "brand": "Raising Cane's",
      "latitude": 33.6333886,
      "longitude": -117.923486,
      "address": "",
      "city": "",
      "state": "",
      "postcode": "",
      "phone": "",
      "website": "",
      "opening_hours": "",
      "amenity_type": "fast_food",
      "cuisine": "chicken"
    },
    {
      "osm_id": 13502969801,
      "osm_type": "node",
      "name": "Raising Cane's",
      "brand": "Raising Cane's",
      "latitude": 35.9555461,
      "longitude": -83.934712,
      "address": "Cumberland Avenue",
      "city": "",
      "state": "",
      "postcode": "37916",
      "phone": "+1-865-293-3233",
      "website": "https://locations.raisingcanes.com/tn/knoxville/1830-cumberland-avenue",
      "opening_hours": "Su-We 10:00-03:00; Th-Sa 10:00-04:00",
      "amenity_type": "fast_food",
      "cuisine": "chicken"
    },
    {
      "osm_id": 13513027683,
      "osm_type": "node",
      "name": "Raising Cane's",
      "brand": "Raising Cane's",
      "latitude": 32.1344101,
      "longitude": -111.0048719,
      "address": "",
      "city": "",
      "state": "",
      "postcode": "",
      "phone": "",
      "website": "",
      "opening_hours": "",
      "amenity_type": "fast_food",
      "cuisine": "chicken"
    },
    {
      "osm_id": 13539322480,
      "osm_type": "node",
      "name": "Raising Cane's",
      "brand": "Raising Cane's",
      "latitude": 38.2584437,
      "longitude": -122.0529185,
      "address": "Travis Boulevard",
      "city": "Fairfield",
      "state": "CA",
      "postcode": "94533",
      "phone": "+1-707-225-3122",
      "website": "https://locations.raisingcanes.com/ca/fairfield/1360-travis-blvd",
      "opening_hours": "",
      "amenity_type": "fast_food",
      "cuisine": "chicken"
    }
  ]
}