{
  "metadata": {
    "chain": "Shake Shack",
    "country": "US",
    "scraped_at": "2026-02-15T11:07:58.773859",
    "total_locations": 229,
    "source": "OpenStreetMap Overpass API"
  },
  "locations": [
    {
      "osm_id": 696703273,
      "osm_type": "node",
      "name": "Shake Shack",
      "brand": "Shake Shack",
      "latitude": 42.4280363,
      "longitude": -73.8055085,
      "address": "",
      "city": "",
      "state": "",
      "postcode": "",
      "phone": "",
      "website": "",
      "opening_hours": "",
      "amenity_type": "fast_food",
      "cuisine": "burger"
    },
    {
      "osm_id": 890364232,
      "osm_type": "node",
      "name": "Shake Shack",
      "brand": "Shake Shack",
      "latitude": 41.1514141,
      "longitude": -74.188304,
      "address": "",
      "city": "",
      "state": "",
      "postcode": "",
      "phone": "",
      "website": "",
      "opening_hours": "",
      "amenity_type": "fast_food",
      "cuisine": "burger"
    },
    {
      "osm_id": 990415432,
      "osm_type": "node",
      "name": "Shake Shack",
      "brand": "Shake Shack",
      "latitude": 42.9590724,
      "longitude": -76.9179797,
      "address": "",
      "city": "",
      "state": "",
      "postcode": "",
      "phone": "",
      "website": "",
      "opening_hours": "",
      "amenity_type": "fast_food",
      "cuisine": "burger"
    },
    {
      "osm_id": 1102361706,
      "osm_type": "node",
      "name": "Shake Shack",
      "brand": "Shake Shack",
      "latitude": 37.2949661,
      "longitude": -121.9312586,
      "address": "South Bascom Avenue",
      "city": "San Jose",
      "state": "",
      "postcode": "95125",
      "phone": "",
      "website": "",
      "opening_hours": "10:00-23:00",
      "amenity_type": "fast_food",
      "cuisine": "burger"
    },
    {
      "osm_id": 1271663198,
      "osm_type": "node",
      "name": "Shake Shack",
      "brand": "Shake Shack",
      "latitude": 47.6163433,
      "longitude": -122.2019456,
      "address": "Bellevue Way Northeast",
      "city": "Bellevue",
      "state": "WA",
      "postcode": "98004",
      "phone": "",
      "website": "",
      "opening_hours": "Su-Th 10:30-23:00; Fr-Sa 10:30-24:00",
      "amenity_type": "fast_food",
      "cuisine": "burger"
    },
    {
      "osm_id": 1802297281,
      "osm_type": "node",
      "name": "Shake Shack",
      "brand": "Shake Shack",
      "latitude": 40.8079748,
      "longitude": -73.9642844,
      "address": "Broadway",
      "city": "New York",
      "state": "",
      "postcode": "10025",
      "phone": "+1 212 932-3300",
      "website": "",
      "opening_hours": "Mo-Su 11:00-23:00",
      "amenity_type": "fast_food",
      "cuisine": "burger"
    },
    {
      "osm_id": 1888172061,
      "osm_type": "node",
      "name": "Shake Shack",
      "brand": "Shake Shack",
      "latitude": 40.7808407,
      "longitude": -73.9765216,
      "address": "Columbus Avenue",
      "city": "",
      "state": "",
      "postcode": "10024",
      "phone": "",
      "website": "https://www.shakeshack.com/location/upper-west-side/",
      "opening_hours": "",
      "amenity_type": "fast_food",
      "cuisine": "burger"
    },
    {
      "osm_id": 1899033656,
      "osm_type": "node",
      "name": "Shake Shack",
      "brand": "Shake Shack",
      "latitude": 40.7584542,
      "longitude": -73.9891712,
      "address": "West 44th Street",
      "city": "",
      "state": "",
      "postcode": "10036",
      "phone": "+1 646-435-0135",
      "website": "https://shakeshack.com/location/theater-district-ny#/",
      "opening_hours": "Mo-Su 10:30-24:00",
      "amenity_type": "fast_food",
      "cuisine": "burger"
    },
    {
      "osm_id": 1934501367,
      "osm_type": "node",
      "name": "Shake Shack",
      "brand": "Shake Shack",
      "latitude": 40.7152683,
      "longitude": -74.0148288,
      "address": "Murray Street",
      "city": "New York",
      "state": "NY",
      "postcode": "10282",
      "phone": "+1 646 545 4600",
      "website": "https://www.shakeshack.com/location/battery-park-city",
      "opening_hours": "11:00-23:00",
      "amenity_type": "fast_food",
      "cuisine": "burger"
    },
    {
      "osm_id": 2012648479,
      "osm_type": "node",
      "name": "Shake Shack",
      "brand": "Shake Shack",
      "latitude": 39.0420793,
      "longitude": -94.5904122,
      "address": "Wyandotte Street",
      "city": "",
      "state": "",
      "postcode": "64112",
      "phone": "",
      "website": "https://shakeshack.com/location/country-club-plaza-mo",
      "opening_hours": "",
      "amenity_type": "fast_food",
      "cuisine": "burger"
    },
    {
      "osm_id": 2246967238,
      "osm_type": "node",
      "name": "Shake Shack",
      "brand": "Shake Shack",
      "latitude": 38.906367,
      "longitude": -77.041848,
      "address": "18th Street Northwest",
      "city": "Washington",
      "state": "DC",
      "postcode": "20036",
      "phone": "+1 202-683-9922",
      "website": "https://www.shakeshack.com/location/dupont-circle/",
      "opening_hours": "",
      "amenity_type": "fast_food",
      "cuisine": "burger"
    },
    {
      "osm_id": 2271255525,
      "osm_type": "node",
      "name": "Shake Shack",
      "brand": "Shake Shack",
      "latitude": 42.9881937,
      "longitude": -78.6963115,
      "address": "Transit Road",
      "city": "Buffalo",
      "state": "NY",
      "postcode": "14221",
      "phone": "",
      "website": "",
      "opening_hours": "",
      "amenity_type": "fast_food",
      "cuisine": "burger"
    },
    {
      "osm_id": 2327662162,
      "osm_type": "node",
      "name": "Shake Shack",
      "brand": "Shake Shack",
      "latitude": 40.7684871,
      "longitude": -111.8890517,
      "address": "State Street",
      "city": "Salt Lake City",
      "state": "UT",
      "postcode": "84111",
      "phone": "",
      "website": "",
      "opening_hours": "",
      "amenity_type": "fast_food",
      "cuisine": "burger"
    },
    {
      "osm_id": 2327723251,
      "osm_type": "node",
      "name": "Shake Shack",
      "brand": "Shake Shack",
      "latitude": 47.6170156,
      "longitude": -122.338426,
      "address": "Westlake Avenue",
      "city": "Seattle",
      "state": "WA",
      "postcode": "98121",
      "phone": "+1-206-279-2313",
      "website": "https://www.shakeshack.com/location/south-lake-union-wa",
      "opening_hours": "",
      "amenity_type": "fast_food",
      "cuisine": "burger"
    },
    {
      "osm_id": 2390865225,
      "osm_type": "node",
      "name": "Shake Shack",
      "brand": "",
      "latitude": 33.78541,
      "longitude": -84.4121409,
      "address": "",
      "city": "",
      "state": "",
      "postcode": "",
      "phone": "",
      "website": "",
      "opening_hours": "",
      "amenity_type": "restaurant",
      "cuisine": "burger"
    },
    {
      "osm_id": 2419110687,
      "osm_type": "node",
      "name": "Shake Shack",
      "brand": "Shake Shack",
      "latitude": 38.8970578,
      "longitude": -77.0237893,
      "address": "F Street Northwest",
      "city": "Washington",
      "state": "DC",
      "postcode": "20004-1500",
      "phone": "+1 202-800-9930",
      "website": "",
      "opening_hours": "Su-Th 11:00-21:00; Fr,Sa 11:00-22:00",
      "amenity_type": "fast_food",
      "cuisine": "burger"
    },
    {
      "osm_id": 2550060368,
      "osm_type": "node",
      "name": "Shake Shack",
      "brand": "Shake Shack",
      "latitude": 40.682703,
      "longitude": -73.9767176,
      "address": "Flatbush Avenue",
      "city": "",
      "state": "",
      "postcode": "11217",
      "phone": "+1-347-442-7721",
      "website": "https://www.shakeshack.com/location/flatbush-ave-brooklyn",
      "opening_hours": "Mo-Th 11:00-23:00; Fr-Sa 11:00-23:30; Su 11:00-23:00",
      "amenity_type": "fast_food",
      "cuisine": "burger"
    },
    {
      "osm_id": 2596227488,
      "osm_type": "node",
      "name": "Shake Shack",
      "brand": "Shake Shack",
      "latitude": 40.6921442,
      "longitude": -73.988647,
      "address": "Fulton Street",
      "city": "",
      "state": "",
      "postcode": "11201",
      "phone": "+1-718-307-7590",
      "website": "https://www.shakeshack.com/location/downtown-brooklyn/",
      "opening_hours": "Mo-Sa 11:00-23:00",
      "amenity_type": "fast_food",
      "cuisine": "burger"
    },
    {
      "osm_id": 2602885428,
      "osm_type": "node",
      "name": "Shake Shack",
      "brand": "Shake Shack",
      "latitude": 34.059202,
      "longitude": -117.1823691,
      "address": "",
      "city": "",
      "state": "",
      "postcode": "",
      "phone": "",
      "website": "",
      "opening_hours": "",
      "amenity_type": "fast_food",
      "cuisine": "burger"
    },
    {
      "osm_id": 2629371831,
      "osm_type": "node",
      "name": "Shake Shack",
      "brand": "Shake Shack",
      "latitude": 40.7589587,
      "longitude": -73.9707946,
      "address": "Lexington Avenue",
      "city": "New York",
      "state": "NY",
      "postcode": "10022",
      "phone": "",
      "website": "",
      "opening_hours": "",
      "amenity_type": "fast_food",
      "cuisine": "burger"
    },
    {
      "osm_id": 2699432051,
      "osm_type": "node",
      "name": "Shake Shack",
      "brand": "Shake Shack",
      "latitude": 39.9538,
      "longitude": -75.1885,
      "address": "Chestnut Street",
      "city": "Philadelphia",
      "state": "PA",
      "postcode": "19104",
      "phone": "+1-267-338-3464",
      "website": "https://www.shakeshack.com/location/university-city/",
      "opening_hours": "Mo-We,Su 10:30-22:00; Th-Sa 10:30-23:00",
      "amenity_type": "fast_food",
      "cuisine": "burger"
    },
    {
      "osm_id": 2717355372,
      "osm_type": "node",
      "name": "Shake Shack",
      "brand": "Shake Shack",
      "latitude": 40.7632595,
      "longitude": -73.9821151,
      "address": "7th Avenue",
      "city": "",
      "state": "",
      "postcode": "10019",
      "phone": "",
      "website": "",
      "opening_hours": "",
      "amenity_type": "fast_food",
      "cuisine": "burger"
    },
    {
      "osm_id": 2760039198,
      "osm_type": "node",
      "name": "Shake Shack",
      "brand": "Shake Shack",
      "latitude": 41.307009,
      "longitude": -72.9283933,
      "address": "",
      "city": "",
      "state": "",
      "postcode": "",
      "phone": "",
      "website": "",
      "opening_hours": "Su-Th 11:00-22:00; Fr,Sa 11:00-23:00",
      "amenity_type": "fast_food",
      "cuisine": "burger"
    },
    {
      "osm_id": 2767369780,
      "osm_type": "node",
      "name": "Shake Shack",
      "brand": "Shake Shack",
      "latitude": 40.8066911,
      "longitude": -73.9424929,
      "address": "West 125th Street",
      "city": "New York",
      "state": "NY",
      "postcode": "10027",
      "phone": "",
      "website": "",
      "opening_hours": "",
      "amenity_type": "fast_food",
      "cuisine": "burger"
    },
    {
      "osm_id": 2826715678,
      "osm_type": "node",
      "name": "Shake Shack",
      "brand": "Shake Shack",
      "latitude": 40.7194705,
      "longitude": -73.9866762,
      "address": "Rivington Street",
      "city": "New York",
      "state": "NY",
      "postcode": "10002",
      "phone": "",
      "website": "",
      "opening_hours": "\"Opening 2023\"",
      "amenity_type": "fast_food",
      "cuisine": "burger"
    },
    {
      "osm_id": 2844942229,
      "osm_type": "node",
      "name": "Shake Shack",
      "brand": "",
      "latitude": 40.7427919,
      "longitude": -73.9179944,
      "address": "Queens Boulevard",
      "city": "",
      "state": "",
      "postcode": "11377",
      "phone": "",
      "website": "",
      "opening_hours": "Mo-We 10:30-23:00; Th-Su 10:30-00:00",
      "amenity_type": "fast_food",
      "cuisine": "burger"
    },
    {
      "osm_id": 2910156409,
      "osm_type": "node",
      "name": "Shake Shack",
      "brand": "Shake Shack",
      "latitude": 39.9512405,
      "longitude": -75.173792,
      "address": "Sansom Street",
      "city": "Philadelphia",
      "state": "",
      "postcode": "19103",
      "phone": "+1 215 809 1742",
      "website": "https://www.shakeshack.com/location/philadelphia/",
      "opening_hours": "Su-Th 10:30-22:00; Fr,Sa 10:30-23:00",
      "amenity_type": "fast_food",
      "cuisine": "burger"
    },
    {
      "osm_id": 3001545952,
      "osm_type": "node",
      "name": "Shake Shack",
      "brand": "Shake Shack",
      "latitude": 43.0339142,
      "longitude": -87.9088115,
      "address": "East Buffalo Street",
      "city": "Milwaukee",
      "state": "",
      "postcode": "53202",
      "phone": "",
      "website": "",
      "opening_hours": "Su-Th 11:00-22:00; Fr-Sa 11:00-23:00",
      "amenity_type": "fast_food",
      "cuisine": "burger"
    },
    {
      "osm_id": 3025070123,
      "osm_type": "node",
      "name": "Shake Shack",
      "brand": "Shake Shack",
      "latitude": 39.3892661,
      "longitude": -76.7361736,
      "address": "Reisterstown Road",
      "city": "Pikesville",
      "state": "MD",
      "postcode": "21208",
      "phone": "",
      "website": "",
      "opening_hours": "off",
      "amenity_type": "fast_food",
      "cuisine": "burger"
    },
    {
      "osm_id": 3174844884,
      "osm_type": "node",
      "name": "Shake Shack",
      "brand": "Shake Shack",
      "latitude": 40.703039,
      "longitude": -73.9940577,
      "address": "Old Fulton Street",
      "city": "Brooklyn",
      "state": "NY",
      "postcode": "11201",
      "phone": "+1-347-435-2676",
      "website": "https://shakeshack.com/location/dumbo-ny#/",
      "opening_hours": "Mo-Su 10:30-23:00",
      "amenity_type": "fast_food",
      "cuisine": "burger"
    },
    {
      "osm_id": 3539665328,
      "osm_type": "node",
      "name": "Shake Shack",
      "brand": "Shake Shack",
      "latitude": 30.2588142,
      "longitude": -81.5268578,
      "address": "",
      "city": "",
      "state": "",
      "postcode": "",
      "phone": "",
      "website": "",
      "opening_hours": "",
      "amenity_type": "fast_food",
      "cuisine": "burger"
    },
    {
      "osm_id": 3575167248,
      "osm_type": "node",
      "name": "Shake Shack",
      "brand": "Shake Shack",
      "latitude": 41.8926777,
      "longitude": -87.6256661,
      "address": "East Ohio Street",
      "city": "Chicago",
      "state": "IL",
      "postcode": "60611",
      "phone": "+1-312-667-1701",
      "website": "https://www.shakeshack.com/",
      "opening_hours": "Su-Th 11:00-23:00; Fr-Sa 11:00-00:00",
      "amenity_type": "fast_food",
      "cuisine": "burger"
    },
    {
      "osm_id": 3830892127,
      "osm_type": "node",
      "name": "Shake Shack",
      "brand": "Shake Shack",
      "latitude": 40.7494619,
      "longitude": -73.9756547,
      "address": "",
      "city": "",
      "state": "",
      "postcode": "",
      "phone": "",
      "website": "https://www.shakeshack.com",
      "opening_hours": "Mo-Su 10:30-23:00",
      "amenity_type": "fast_food",
      "cuisine": "burger"
    },
    {
      "osm_id": 3877034398,
      "osm_type": "node",
      "name": "Shake Shack",
      "brand": "Shake Shack",
      "latitude": 33.9778475,
      "longitude": -118.438194,
      "address": "Admiralty Way",
      "city": "Marina del Rey",
      "state": "CA",
      "postcode": "90292",
      "phone": "",
      "website": "",
      "opening_hours": "Mo-Th 11:00-21:30; Fr-Sa 11:00-22:00",
      "amenity_type": "fast_food",
      "cuisine": "burger"
    },
    {
      "osm_id": 3889639803,
      "osm_type": "node",
      "name": "Shake Shack",
      "brand": "Shake Shack",
      "latitude": 41.8815882,
      "longitude": -87.6246673,
      "address": "South Michigan Avenue",
      "city": "Chicago",
      "state": "IL",
      "postcode": "60603",
      "phone": "+1-312-646-6005",
      "website": "https://www.shakeshack.com/location/chicago-athletic-association/",
      "opening_hours": "11:00-23:00",
      "amenity_type": "fast_food",
      "cuisine": "burger"
    },
    {
      "osm_id": 3957307759,
      "osm_type": "node",
      "name": "Shake Shack",
      "brand": "Shake Shack",
      "latitude": 41.1385191,
      "longitude": -73.2991157,
      "address": "Post Road East",
      "city": "Westport",
      "state": "CT",
      "postcode": "06880",
      "phone": "",
      "website": "https://www.shakeshack.com/location/westport/",
      "opening_hours": "Su-Th 11:00-22:00; Fr-Sa 11:00-23:00",
      "amenity_type": "fast_food",
      "cuisine": "burger"
    },
    {
      "osm_id": 4035588419,
      "osm_type": "node",
      "name": "Shake Shack",
      "brand": "Shake Shack",
      "latitude": 40.7528125,
      "longitude": -73.9775547,
      "address": "",
      "city": "",
      "state": "",
      "postcode": "",
      "phone": "",
      "website": "",
      "opening_hours": "",
      "amenity_type": "fast_food",
      "cuisine": "burger"
    },
    {
      "osm_id": 4105632189,
      "osm_type": "node",
      "name": "Shake Shack",
      "brand": "Shake Shack",
      "latitude": 37.7274014,
      "longitude": -122.4763498,
      "address": "20th Avenue",
      "city": "San Francisco",
      "state": "CA",
      "postcode": "94132",
      "phone": "",
      "website": "",
      "opening_hours": "",
      "amenity_type": "fast_food",
      "cuisine": "burger"
    },
    {
      "osm_id": 4109967906,
      "osm_type": "node",
      "name": "Shake Shack",
      "brand": "Shake Shack",
      "latitude": 40.642438,
      "longitude": -73.783269,
      "address": "",
      "city": "",
      "state": "",
      "postcode": "",
      "phone": "",
      "website": "",
      "opening_hours": "",
      "amenity_type": "fast_food",
      "cuisine": "burger"
    },
    {
      "osm_id": 4300001394,
      "osm_type": "node",
      "name": "Shake Shack",
      "brand": "Shake Shack",
      "latitude": 40.7513742,
      "longitude": -73.9878729,
      "address": "Broadway",
      "city": "New York",
      "state": "NY",
      "postcode": "10018",
      "phone": "+1 646-230-0696",
      "website": "https://www.shakeshack.com/location/herald-square-nyc",
      "opening_hours": "10:30-24:00",
      "amenity_type": "fast_food",
      "cuisine": "burger"
    },
    {
      "osm_id": 4364203068,
      "osm_type": "node",
      "name": "Shake Shack",
      "brand": "Shake Shack",
      "latitude": 40.6985093,
      "longitude": -74.2520171,
      "address": "Vauxhall Road",
      "city": "Union",
      "state": "NJ",
      "postcode": "07083",
      "phone": "",
      "website": "https://shakeshack.com/location/whitney-houston-service-area-nj#/",
      "opening_hours": "Mo-Su 07:30-22:00",
      "amenity_type": "fast_food",
      "cuisine": "burger"
    },
    {
      "osm_id": 4407652244,
      "osm_type": "node",
      "name": "Shake Shack",
      "brand": "Shake Shack",
      "latitude": 44.8837295,
      "longitude": -93.2117762,
      "address": "",
      "city": "",
      "state": "",
      "postcode": "",
      "phone": "",
      "website": "",
      "opening_hours": "",
      "amenity_type": "fast_food",
      "cuisine": "burger"
    },
    {
      "osm_id": 4491434808,
      "osm_type": "node",
      "name": "Shake Shack",
      "brand": "Shake Shack",
      "latitude": 32.793558,
      "longitude": -96.8030313,
      "address": "",
      "city": "",
      "state": "",
      "postcode": "",
      "phone": "",
      "website": "",
      "opening_hours": "",
      "amenity_type": "fast_food",
      "cuisine": "burger"
    },
    {
      "osm_id": 4499014495,
      "osm_type": "node",
      "name": "Shake Shack",
      "brand": "Shake Shack",
      "latitude": 25.7100843,
      "longitude": -80.2819468,
      "address": "",
      "city": "",
      "state": "",
      "postcode": "",
      "phone": "",
      "website": "",
      "opening_hours": "",
      "amenity_type": "fast_food",
      "cuisine": "burger"
    },
    {
      "osm_id": 4499033889,
      "osm_type": "node",
      "name": "Shake Shack",
      "brand": "Shake Shack",
      "latitude": 25.7909719,
      "longitude": -80.1401129,
      "address": "Lincoln Road",
      "city": "",
      "state": "",
      "postcode": "",
      "phone": "",
      "website": "",
      "opening_hours": "",
      "amenity_type": "fast_food",
      "cuisine": "burger"
    },
    {
      "osm_id": 4549551449,
      "osm_type": "node",
      "name": "Shake Shack",
      "brand": "Shake Shack",
      "latitude": 42.3722961,
      "longitude": -71.1209868,
      "address": "Winthrop Street",
      "city": "Cambridge",
      "state": "MA",
      "postcode": "02138",
      "phone": "+16177588495",
      "website": "https://www.shakeshack.com/location/harvard-square/",
      "opening_hours": "Su-We 11:00-22:00; Th-Sa 11:00-23:00",
      "amenity_type": "fast_food",
      "cuisine": "burger"
    },
    {
      "osm_id": 4586164294,
      "osm_type": "node",
      "name": "Shake Shack",
      "brand": "Shake Shack",
      "latitude": 33.5033915,
      "longitude": -111.9272558,
      "address": "",
      "city": "",
      "state": "",
      "postcode": "",
      "phone": "",
      "website": "https://shakeshack.com/home#/store/660",
      "opening_hours": "",
      "amenity_type": "fast_food",
      "cuisine": "burger"
    },
    {
      "osm_id": 4629698285,
      "osm_type": "node",
      "name": "Shake Shack",
      "brand": "Shake Shack",
      "latitude": 40.6380984,
      "longitude": -73.7812228,
      "address": "",
      "city": "",
      "state": "",
      "postcode": "",
      "phone": "",
      "website": "",
      "opening_hours": "",
      "amenity_type": "fast_food",
      "cuisine": "burger"
    },
    {
      "osm_id": 4664879371,
      "osm_type": "node",
      "name": "Shake Shack",
      "brand": "Shake Shack",
      "latitude": 33.8376624,
      "longitude": -84.3809139,
      "address": "Peachtree Road",
      "city": "Atlanta",
      "state": "GA",
      "postcode": "30305",
      "phone": "",
      "website": "",
      "opening_hours": "",
      "amenity_type": "fast_food",
      "cuisine": "burger"
    },
    {
      "osm_id": 4683639039,
      "osm_type": "node",
      "name": "Shake Shack",
      "brand": "Shake Shack",
      "latitude": 38.8530495,
      "longitude": -77.3257352,
      "address": "Main Street",
      "city": "",
      "state": "",
      "postcode": "",
      "phone": "",
      "website": "",
      "opening_hours": "Su-Th 11:00-22:00; Fr-Sa 11:00-23:00",
      "amenity_type": "fast_food",
      "cuisine": "burger"
    },
    {
      "osm_id": 4701462959,
      "osm_type": "node",
      "name": "Shake Shack",
      "brand": "Shake Shack",
      "latitude": 42.3310799,
      "longitude": -83.0460237,
      "address": "Woodward Avenue",
      "city": "Detroit",
      "state": "MI",
      "postcode": "48226",
      "phone": "",
      "website": "",
      "opening_hours": "11:00-21:30",
      "amenity_type": "fast_food",
      "cuisine": "burger"
    },
    {
      "osm_id": 4710414576,
      "osm_type": "node",
      "name": "Shake Shack",
      "brand": "Shake Shack",
      "latitude": 39.2868915,
      "longitude": -76.6098097,
      "address": "",
      "city": "",
      "state": "",
      "postcode": "",
      "phone": "",
      "website": "",
      "opening_hours": "Su-Th 11:00-22:00; Fr-Sa 11:00-23:00",
      "amenity_type": "fast_food",
      "cuisine": "burger"
    },
    {
      "osm_id": 4742179545,
      "osm_type": "node",
      "name": "Shake Shack",
      "brand": "Shake Shack",
      "latitude": 36.0215891,
      "longitude": -115.085422,
      "address": "Village Walk Drive",
      "city": "Henderson",
      "state": "NV",
      "postcode": "89052",
      "phone": "+1-702-846-2710",
      "website": "https://shakeshack.com/location/henderson-nv#/",
      "opening_hours": "Su-Th 10:30-21:00; Fr-Sa 10:30-22:00",
      "amenity_type": "fast_food",
      "cuisine": "burger"
    },
    {
      "osm_id": 4846520504,
      "osm_type": "node",
      "name": "Shake Shack",
      "brand": "Shake Shack",
      "latitude": 38.8735146,
      "longitude": -77.006293,
      "address": "",
      "city": "Washington",
      "state": "DC",
      "postcode": "20003",
      "phone": "+1 202-769-5760",
      "website": "",
      "opening_hours": "",
      "amenity_type": "fast_food",
      "cuisine": "burger"
    },
    {
      "osm_id": 4867412687,
      "osm_type": "node",
      "name": "Shake Shack",
      "brand": "Shake Shack",
      "latitude": 38.9089811,
      "longitude": -77.0321831,
      "address": "14th Street Northwest",
      "city": "Washington",
      "state": "DC",
      "postcode": "20005",
      "phone": "+1-202-602-0493",
      "website": "https://www.shakeshack.com/location/logan-circle-washington-d-c",
      "opening_hours": "Mo-Su 11:00-23:30",
      "amenity_type": "fast_food",
      "cuisine": "burger"
    },
    {
      "osm_id": 4898169947,
      "osm_type": "node",
      "name": "Shake Shack",
      "brand": "Shake Shack",
      "latitude": 38.7373571,
      "longitude": -90.3555453,
      "address": "",
      "city": "",
      "state": "",
      "postcode": "",
      "phone": "",
      "website": "",
      "opening_hours": "",
      "amenity_type": "fast_food",
      "cuisine": "burger"
    },
    {
      "osm_id": 4903112334,
      "osm_type": "node",
      "name": "Shake Shack",
      "brand": "Shake Shack",
      "latitude": 34.0886009,
      "longitude": -118.377319,
      "address": "West Knoll Drive",
      "city": "West Hollywood",
      "state": "CA",
      "postcode": "90069",
      "phone": "+1-323-488-3010",
      "website": "https://www.shakeshack.com/location/west-hollywood",
      "opening_hours": "Mo-Su 11:00-23:30",
      "amenity_type": "fast_food",
      "cuisine": "burger"
    },
    {
      "osm_id": 4908319122,
      "osm_type": "node",
      "name": "Shake Shack",
      "brand": "Shake Shack",
      "latitude": 29.7397336,
      "longitude": -95.4627643,
      "address": "",
      "city": "",
      "state": "",
      "postcode": "",
      "phone": "",
      "website": "",
      "opening_hours": "",
      "amenity_type": "fast_food",
      "cuisine": "burger"
    },
    {
      "osm_id": 4913903121,
      "osm_type": "node",
      "name": "Shake Shack",
      "brand": "Shake Shack",
      "latitude": 38.8766984,
      "longitude": -77.0069077,
      "address": "M Street",
      "city": "Washington",
      "state": "DC",
      "postcode": "20003-3511",
      "phone": "+1 202-769-5760",
      "website": "",
      "opening_hours": "",
      "amenity_type": "fast_food",
      "cuisine": "burger"
    },
    {
      "osm_id": 5022858722,
      "osm_type": "node",
      "name": "Shake Shack",
      "brand": "Shake Shack",
      "latitude": 40.9165762,
      "longitude": -74.0751,
      "address": "",
      "city": "",
      "state": "",
      "postcode": "",
      "phone": "",
      "website": "",
      "opening_hours": "",
      "amenity_type": "fast_food",
      "cuisine": "burger"
    },
    {
      "osm_id": 5043695591,
      "osm_type": "node",
      "name": "Shake Shack",
      "brand": "Shake Shack",
      "latitude": 42.3520455,
      "longitude": -71.0465655,
      "address": "Seaport Boulevard",
      "city": "",
      "state": "",
      "postcode": "",
      "phone": "+1 617-337-4699",
      "website": "https://shakeshack.com/location/seaport-ma",
      "opening_hours": "10:00-22:30",
      "amenity_type": "fast_food",
      "cuisine": "burger"
    },
    {
      "osm_id": 5170081605,
      "osm_type": "node",
      "name": "Shake Shack",
      "brand": "Shake Shack",
      "latitude": 38.8803381,
      "longitude": -77.0264531,
      "address": "Wharf Street Southwest",
      "city": "Washington",
      "state": "DC",
      "postcode": "20024",
      "phone": "+1 202-869-8345",
      "website": "https://shakeshack.com/location/the-wharf-dc#/",
      "opening_hours": "10:30-22:00",
      "amenity_type": "fast_food",
      "cuisine": "burger"
    },
    {
      "osm_id": 5196224749,
      "osm_type": "node",
      "name": "Shake Shack",
      "brand": "Shake Shack",
      "latitude": 33.923245,
      "longitude": -84.339852,
      "address": "",
      "city": "",
      "state": "",
      "postcode": "",
      "phone": "",
      "website": "",
      "opening_hours": "Mo-Th,Su 11:00-21:30; Fr-Sa 11:00-22:00",
      "amenity_type": "fast_food",
      "cuisine": "burger"
    },
    {
      "osm_id": 5240023997,
      "osm_type": "node",
      "name": "Shake Shack",
      "brand": "Shake Shack",
      "latitude": 34.1427824,
      "longitude": -118.2547408,
      "address": "South Brand Boulevard",
      "city": "",
      "state": "",
      "postcode": "91204",
      "phone": "+1 818-858-1612",
      "website": "https://shakeshack.com/",
      "opening_hours": "Su-Th 11:00-23:00; Fr-Sa 09:00-18:00",
      "amenity_type": "fast_food",
      "cuisine": "burger"
    },
    {
      "osm_id": 5278025116,
      "osm_type": "node",
      "name": "Shake Shack",
      "brand": "Shake Shack",
      "latitude": 40.7409929,
      "longitude": -111.8274088,
      "address": "Foothill Drive",
      "city": "Salt Lake City",
      "state": "UT",
      "postcode": "",
      "phone": "",
      "website": "",
      "opening_hours": "Su-Th 10:00-23:00; Fr-Sa 10:00-24:00",
      "amenity_type": "fast_food",
      "cuisine": "burger"
    },
    {
      "osm_id": 5326272421,
      "osm_type": "node",
      "name": "Shake Shack",
      "brand": "Shake Shack",
      "latitude": 33.6239548,
      "longitude": -111.9285671,
      "address": "North Scottsdale Road",
      "city": "Phoenix",
      "state": "AZ",
      "postcode": "85254",
      "phone": "",
      "website": "",
      "opening_hours": "",
      "amenity_type": "fast_food",
      "cuisine": "burger"
    },
    {
      "osm_id": 5348575619,
      "osm_type": "node",
      "name": "Shake Shack",
      "brand": "Shake Shack",
      "latitude": 40.7541198,
      "longitude": -73.6905355,
      "address": "",
      "city": "",
      "state": "",
      "postcode": "",
      "phone": "",
      "website": "",
      "opening_hours": "",
      "amenity_type": "fast_food",
      "cuisine": "burger"
    },
    {
      "osm_id": 5452994605,
      "osm_type": "node",
      "name": "Shake Shack",
      "brand": "Shake Shack",
      "latitude": 41.8854415,
      "longitude": -87.6519936,
      "address": "North Morgan Street",
      "city": "Chicago",
      "state": "IL",
      "postcode": "60607",
      "phone": "+1-312-800-8926",
      "website": "https://www.shakeshack.com/location/west-loop-chicago",
      "opening_hours": "Mo-Su 11:00-23:00",
      "amenity_type": "fast_food",
      "cuisine": "burger"
    },
    {
      "osm_id": 5469863147,
      "osm_type": "node",
      "name": "Shake Shack",
      "brand": "Shake Shack",
      "latitude": 38.863135,
      "longitude": -77.06005,
      "address": "South Hayes Street",
      "city": "Arlington",
      "state": "VA",
      "postcode": "22202-4907",
      "phone": "+1-703-454-0552",
      "website": "https://www.shakeshack.com/location/pentagon-city-va",
      "opening_hours": "Mo-Sa 11:00-22:00; Su 11:00-21:30",
      "amenity_type": "fast_food",
      "cuisine": "burger"
    },
    {
      "osm_id": 5475850287,
      "osm_type": "node",
      "name": "Shake Shack",
      "brand": "Shake Shack",
      "latitude": 39.7622647,
      "longitude": -104.9808365,
      "address": "Larimer Street",
      "city": "Denver",
      "state": "CO",
      "postcode": "80205",
      "phone": "+1-720-543-8609",
      "website": "https://www.shakeshack.com/location/rino-denver-co",
      "opening_hours": "Mo-Su 11:00-22:00; ",
      "amenity_type": "fast_food",
      "cuisine": "burger"
    },
    {
      "osm_id": 5553341979,
      "osm_type": "node",
      "name": "Shake Shack",
      "brand": "Shake Shack",
      "latitude": 42.0599815,
      "longitude": -87.7497637,
      "address": "Old Orchard Center",
      "city": "Skokie",
      "state": "IL",
      "postcode": "60077",
      "phone": "",
      "website": "https://www.shakeshack.com/location/old-orchard-skokie/",
      "opening_hours": "",
      "amenity_type": "fast_food",
      "cuisine": "burger"
    },
    {
      "osm_id": 5657098023,
      "osm_type": "node",
      "name": "Shake Shack",
      "brand": "Shake Shack",
      "latitude": 28.4468017,
      "longitude": -81.3950892,
      "address": "",
      "city": "",
      "state": "",
      "postcode": "",
      "phone": "",
      "website": "",
      "opening_hours": "",
      "amenity_type": "fast_food",
      "cuisine": "burger"
    },
    {
      "osm_id": 5657145521,
      "osm_type": "node",
      "name": "Shake Shack",
      "brand": "Shake Shack",
      "latitude": 28.4867384,
      "longitude": -81.4285279,
      "address": "",
      "city": "",
      "state": "",
      "postcode": "",
      "phone": "",
      "website": "",
      "opening_hours": "",
      "amenity_type": "fast_food",
      "cuisine": "burger"
    },
    {
      "osm_id": 5707588917,
      "osm_type": "node",
      "name": "Shake Shack",
      "brand": "Shake Shack",
      "latitude": 34.0444877,
      "longitude": -118.2560652,
      "address": "West 8th Street",
      "city": "Los Angeles",
      "state": "CA",
      "postcode": "90014",
      "phone": "",
      "website": "https://www.shakeshack.com/location/downtown-la-ca/",
      "opening_hours": "11:00-21:00",
      "amenity_type": "fast_food",
      "cuisine": "burger"
    },
    {
      "osm_id": 5732611222,
      "osm_type": "node",
      "name": "Shake Shack",
      "brand": "Shake Shack",
      "latitude": 41.4530603,
      "longitude": -81.486686,
      "address": "Park Avenue",
      "city": "Beachwood",
      "state": "OH",
      "postcode": "44122",
      "phone": "",
      "website": "",
      "opening_hours": "",
      "amenity_type": "fast_food",
      "cuisine": "burger"
    },
    {
      "osm_id": 5739829668,
      "osm_type": "node",
      "name": "Shake Shack",
      "brand": "Shake Shack",
      "latitude": 44.855769,
      "longitude": -93.2416375,
      "address": "North Garden",
      "city": "",
      "state": "",
      "postcode": "",
      "phone": "+1-952-466-6056",
      "website": "",
      "opening_hours": "Mo-Sa 11:00-21:30; Su 11:00-20:00",
      "amenity_type": "fast_food",
      "cuisine": "burger"
    },
    {
      "osm_id": 5785412943,
      "osm_type": "node",
      "name": "Shake Shack",
      "brand": "Shake Shack",
      "latitude": 37.1053357,
      "longitude": -76.4948262,
      "address": "Jefferson Ave",
      "city": "",
      "state": "",
      "postcode": "",
      "phone": "",
      "website": "",
      "opening_hours": "Mo-We 10:30-22:00; Th-Su 10:30-23:00",
      "amenity_type": "fast_food",
      "cuisine": "burger"
    },
    {
      "osm_id": 5793269392,
      "osm_type": "node",
      "name": "Shake Shack",
      "brand": "Shake Shack",
      "latitude": 38.6416053,
      "longitude": -90.2618429,
      "address": "North Euclid Avenue",
      "city": "Saint Louis",
      "state": "MO",
      "postcode": "63108",
      "phone": "",
      "website": "https://shakeshack.com/location/central-west-end-mo#/",
      "opening_hours": "Mo-Su 10:30-22:00",
      "amenity_type": "fast_food",
      "cuisine": "burger"
    },
    {
      "osm_id": 5840213934,
      "osm_type": "node",
      "name": "Shake Shack",
      "brand": "Shake Shack",
      "latitude": 33.4486944,
      "longitude": -86.7317479,
      "address": "",
      "city": "",
      "state": "",
      "postcode": "",
      "phone": "",
      "website": "",
      "opening_hours": "",
      "amenity_type": "fast_food",
      "cuisine": "burger"
    },
    {
      "osm_id": 6039859211,
      "osm_type": "node",
      "name": "Shake Shack",
      "brand": "Shake Shack",
      "latitude": 30.2560094,
      "longitude": -97.7617585,
      "address": "South Lamar Boulevard",
      "city": "Austin",
      "state": "TX",
      "postcode": "78704",
      "phone": "",
      "website": "",
      "opening_hours": "",
      "amenity_type": "fast_food",
      "cuisine": "burger"
    },
    {
      "osm_id": 6075081428,
      "osm_type": "node",
      "name": "Shake Shack",
      "brand": "Shake Shack",
      "latitude": 29.5175634,
      "longitude": -98.4998225,
      "address": "",
      "city": "",
      "state": "",
      "postcode": "",
      "phone": "",
      "website": "",
      "opening_hours": "",
      "amenity_type": "fast_food",
      "cuisine": "burger"
    },
    {
      "osm_id": 6107114930,
      "osm_type": "node",
      "name": "Shake Shack",
      "brand": "Shake Shack",
      "latitude": 40.7741059,
      "longitude": -73.8694316,
      "address": "",
      "city": "",
      "state": "",
      "postcode": "",
      "phone": "",
      "website": "",
      "opening_hours": "",
      "amenity_type": "fast_food",
      "cuisine": "burger"
    },
    {
      "osm_id": 6121853241,
      "osm_type": "node",
      "name": "Shake Shack",
      "brand": "Shake Shack",
      "latitude": 40.7106146,
      "longitude": -74.0090139,
      "address": "Broadway",
      "city": "New York",
      "state": "NY",
      "postcode": "10038",
      "phone": "",
      "website": "",
      "opening_hours": "",
      "amenity_type": "fast_food",
      "cuisine": "burger"
    },
    {
      "osm_id": 6134281127,
      "osm_type": "node",
      "name": "Shake Shack",
      "brand": "Shake Shack",
      "latitude": 39.5546043,
      "longitude": -105.0076353,
      "address": "Park Central Drive",
      "city": "Highlands Ranch",
      "state": "CO",
      "postcode": "80129",
      "phone": "",
      "website": "",
      "opening_hours": "Mo-Su 10:30-22:00",
      "amenity_type": "fast_food",
      "cuisine": "burger"
    },
    {
      "osm_id": 6247241310,
      "osm_type": "node",
      "name": "Shake Shack",
      "brand": "Shake Shack",
      "latitude": 38.88024,
      "longitude": -77.11074,
      "address": "Wilson Boulevard",
      "city": "Arlington",
      "state": "VA",
      "postcode": "22203-1859",
      "phone": "+1 571-620-1323",
      "website": "https://www.shakeshack.com/location/ballston-va",
      "opening_hours": "Mo-Su 11:00-22:00",
      "amenity_type": "fast_food",
      "cuisine": "burger"
    },
    {
      "osm_id": 6315237834,
      "osm_type": "node",
      "name": "Shake Shack",
      "brand": "Shake Shack",
      "latitude": 36.1031631,
      "longitude": -86.816619,
      "address": "",
      "city": "",
      "state": "",
      "postcode": "",
      "phone": "",
      "website": "",
      "opening_hours": "",
      "amenity_type": "fast_food",
      "cuisine": "burger"
    },
    {
      "osm_id": 6413021572,
      "osm_type": "node",
      "name": "Shake Shack",
      "brand": "Shake Shack",
      "latitude": 32.7254964,
      "longitude": -117.1694861,
      "address": "",
      "city": "",
      "state": "",
      "postcode": "",
      "phone": "",
      "website": "",
      "opening_hours": "",
      "amenity_type": "fast_food",
      "cuisine": "burger"
    },
    {
      "osm_id": 6437021178,
      "osm_type": "node",
      "name": "Shake Shack",
      "brand": "Shake Shack",
      "latitude": 40.7292079,
      "longitude": -74.0054593,
      "address": "",
      "city": "",
      "state": "",
      "postcode": "",
      "phone": "",
      "website": "",
      "opening_hours": "",
      "amenity_type": "fast_food",
      "cuisine": "burger"
    },
    {
      "osm_id": 6463282887,
      "osm_type": "node",
      "name": "Shake Shack",
      "brand": "Shake Shack",
      "latitude": 37.8777203,
      "longitude": -109.342722,
      "address": "",
      "city": "",
      "state": "",
      "postcode": "",
      "phone": "",
      "website": "",
      "opening_hours": "",
      "amenity_type": "fast_food",
      "cuisine": "burger"
    },
    {
      "osm_id": 6543695419,
      "osm_type": "node",
      "name": "Shake Shack",
      "brand": "Shake Shack",
      "latitude": 33.4343798,
      "longitude": -112.0105406,
      "address": "",
      "city": "",
      "state": "",
      "postcode": "",
      "phone": "",
      "website": "",
      "opening_hours": "",
      "amenity_type": "fast_food",
      "cuisine": "burger"
    },
    {
      "osm_id": 6577628739,
      "osm_type": "node",
      "name": "Shake Shack",
      "brand": "Shake Shack",
      "latitude": 25.9580826,
      "longitude": -80.1428096,
      "address": "",
      "city": "",
      "state": "",
      "postcode": "",
      "phone": "",
      "website": "",
      "opening_hours": "",
      "amenity_type": "fast_food",
      "cuisine": "burger"
    },
    {
      "osm_id": 6586707402,
      "osm_type": "node",
      "name": "Shake Shack",
      "brand": "Shake Shack",
      "latitude": 41.5000976,
      "longitude": -81.689168,
      "address": "",
      "city": "",
      "state": "",
      "postcode": "",
      "phone": "",
      "website": "",
      "opening_hours": "Mo-Su 10:30-22:30",
      "amenity_type": "fast_food",
      "cuisine": "burger"
    },
    {
      "osm_id": 6618563906,
      "osm_type": "node",
      "name": "Shake Shack",
      "brand": "Shake Shack",
      "latitude": 40.088615,
      "longitude": -75.3888082,
      "address": "North Gulph Road",
      "city": "King of Prussia",
      "state": "PA",
      "postcode": "19406",
      "phone": "+1 267-428-7560",
      "website": "https://shakeshack.com/location/kop-outside-of-mall-pa",
      "opening_hours": "Mo-Th 10:30-22:00; Fr-Sa 10:30-23:00; Su 10:30-21:00",
      "amenity_type": "fast_food",
      "cuisine": "burger"
    },
    {
      "osm_id": 6757388068,
      "osm_type": "node",
      "name": "Shake Shack",
      "brand": "Shake Shack",
      "latitude": 37.948116,
      "longitude": -122.509474,
      "address": "Larkspur Landing Circle",
      "city": "Larkspur",
      "state": "CA",
      "postcode": "94939",
      "phone": "+1-628-212-2050",
      "website": "https://www.shakeshack.com/location/marin-country-mart-ca",
      "opening_hours": "",
      "amenity_type": "fast_food",
      "cuisine": "burger"
    },
    {
      "osm_id": 6757501157,
      "osm_type": "node",
      "name": "Shake Shack",
      "brand": "Shake Shack",
      "latitude": 37.4436354,
      "longitude": -122.168519,
      "address": "El Camino Real",
      "city": "Palo Alto",
      "state": "CA",
      "postcode": "94304",
      "phone": "+1-650-509-5101",
      "website": "https://www.shakeshack.com/location/stanford-shopping-center-ca",
      "opening_hours": "10:30-22:00",
      "amenity_type": "fast_food",
      "cuisine": "burger"
    },
    {
      "osm_id": 6757511694,
      "osm_type": "node",
      "name": "Shake Shack",
      "brand": "Shake Shack",
      "latitude": 37.7979181,
      "longitude": -122.4355026,
      "address": "Fillmore Street",
      "city": "San Francisco",
      "state": "CA",
      "postcode": "94123",
      "phone": "+1-415-405-4618",
      "website": "https://www.shakeshack.com/location/cow-hollow-san-francisco-ca/",
      "opening_hours": "",
      "amenity_type": "fast_food",
      "cuisine": "burger"
    },
    {
      "osm_id": 6757564076,
      "osm_type": "node",
      "name": "Shake Shack",
      "brand": "Shake Shack",
      "latitude": 37.5351966,
      "longitude": -122.2993059,
      "address": "",
      "city": "San Mateo",
      "state": "CA",
      "postcode": "94403",
      "phone": "",
      "website": "",
      "opening_hours": "",
      "amenity_type": "fast_food",
      "cuisine": "burger"
    },
    {
      "osm_id": 6757633992,
      "osm_type": "node",
      "name": "Shake Shack",
      "brand": "Shake Shack",
      "latitude": 41.3171699,
      "longitude": -74.1283363,
      "address": "Niagara Lane",
      "city": "Central Valley",
      "state": "NY",
      "postcode": "10917",
      "phone": "+1-845-827-3140",
      "website": "",
      "opening_hours": "",
      "amenity_type": "fast_food",
      "cuisine": "burger"
    },
    {
      "osm_id": 6758068431,
      "osm_type": "node",
      "name": "Shake Shack",
      "brand": "Shake Shack",
      "latitude": 41.0302494,
      "longitude": -73.7893684,
      "address": "North Central Avenue",
      "city": "Hartsdale",
      "state": "NY",
      "postcode": "10530",
      "phone": "+1-914-529-8801",
      "website": "https://www.shakeshack.com/location/hartsdale-ny/",
      "opening_hours": "",
      "amenity_type": "fast_food",
      "cuisine": "burger"
    },
    {
      "osm_id": 6766703903,
      "osm_type": "node",
      "name": "Shake Shack",
      "brand": "Shake Shack",
      "latitude": 28.5977717,
      "longitude": -81.3661078,
      "address": "",
      "city": "",
      "state": "",
      "postcode": "",
      "phone": "",
      "website": "",
      "opening_hours": "",
      "amenity_type": "fast_food",
      "cuisine": "burger"
    },
    {
      "osm_id": 6777255887,
      "osm_type": "node",
      "name": "Shake Shack",
      "brand": "Shake Shack",
      "latitude": 34.1018045,
      "longitude": -118.324075,
      "address": "",
      "city": "",
      "state": "",
      "postcode": "90028",
      "phone": "+1-323-593-7763",
      "website": "https://shakeshack.com/",
      "opening_hours": "Su-Th 11:00-22:30; Fr,Sa 11:00-23:30",
      "amenity_type": "fast_food",
      "cuisine": "burger"
    },
    {
      "osm_id": 6781076024,
      "osm_type": "node",
      "name": "Shake Shack",
      "brand": "Shake Shack",
      "latitude": 39.9773918,
      "longitude": -83.0034032,
      "address": "North High Street",
      "city": "Columbus",
      "state": "OH",
      "postcode": "43215",
      "phone": "+1-614-697-2029",
      "website": "https://www.shakeshack.com/location/short-north-columbus-oh",
      "opening_hours": "Mo-Su 11:00-21:00",
      "amenity_type": "fast_food",
      "cuisine": "burger"
    },
    {
      "osm_id": 6887320762,
      "osm_type": "node",
      "name": "Shake Shack",
      "brand": "Shake Shack",
      "latitude": 39.7176261,
      "longitude": -86.2969113,
      "address": "",
      "city": "",
      "state": "",
      "postcode": "",
      "phone": "",
      "website": "",
      "opening_hours": "",
      "amenity_type": "fast_food",
      "cuisine": "burger"
    },
    {
      "osm_id": 6912741919,
      "osm_type": "node",
      "name": "Shake Shack",
      "brand": "Shake Shack",
      "latitude": 40.8878056,
      "longitude": -74.2546644,
      "address": "Willowbrook Boulevard",
      "city": "Wayne",
      "state": "NJ",
      "postcode": "07470",
      "phone": "+1 862-684-8660",
      "website": "https://shakeshack.com/location/wayne-nj",
      "opening_hours": "Mo-Th 11:00-22:00; Fr,Sa 11:00-22:30; Su 11:00-21:30",
      "amenity_type": "fast_food",
      "cuisine": "burger"
    },
    {
      "osm_id": 7005075313,
      "osm_type": "node",
      "name": "Shake Shack",
      "brand": "Shake Shack",
      "latitude": 40.6437718,
      "longitude": -74.0758827,
      "address": "",
      "city": "",
      "state": "",
      "postcode": "",
      "phone": "",
      "website": "",
      "opening_hours": "",
      "amenity_type": "fast_food",
      "cuisine": "burger"
    },
    {
      "osm_id": 7113343392,
      "osm_type": "node",
      "name": "Shake Shack",
      "brand": "Shake Shack",
      "latitude": 29.9955314,
      "longitude": -90.2559895,
      "address": "",
      "city": "",
      "state": "",
      "postcode": "",
      "phone": "",
      "website": "",
      "opening_hours": "",
      "amenity_type": "fast_food",
      "cuisine": "burger"
    },
    {
      "osm_id": 7202281641,
      "osm_type": "node",
      "name": "Shake Shack",
      "brand": "Shake Shack",
      "latitude": 32.941717,
      "longitude": -97.1287244,
      "address": "",
      "city": "",
      "state": "",
      "postcode": "",
      "phone": "",
      "website": "",
      "opening_hours": "Su-Th 11:00-22:00; Fr,Sa 11:00-23:00",
      "amenity_type": "fast_food",
      "cuisine": "burger"
    },
    {
      "osm_id": 7393396261,
      "osm_type": "node",
      "name": "Shake Shack",
      "brand": "Shake Shack",
      "latitude": 39.9502748,
      "longitude": -75.1601262,
      "address": "",
      "city": "",
      "state": "",
      "postcode": "",
      "phone": "+1-215-709-2702",
      "website": "",
      "opening_hours": "",
      "amenity_type": "fast_food",
      "cuisine": "burger"
    },
    {
      "osm_id": 7501883775,
      "osm_type": "node",
      "name": "Shake Shack",
      "brand": "Shake Shack",
      "latitude": 42.3496386,
      "longitude": -71.0815943,
      "address": "Newbury Street",
      "city": "Boston",
      "state": "MA",
      "postcode": "02116",
      "phone": "+1-617-933-5050",
      "website": "https://www.shakeshack.com/location/newbury-street-boston-ma/",
      "opening_hours": "Mo-Su 11:00-22:00",
      "amenity_type": "fast_food",
      "cuisine": "burger"
    },
    {
      "osm_id": 7613081518,
      "osm_type": "node",
      "name": "Shake Shack",
      "brand": "Shake Shack",
      "latitude": 42.3568548,
      "longitude": -71.0587079,
      "address": "",
      "city": "",
      "state": "",
      "postcode": "",
      "phone": "",
      "website": "",
      "opening_hours": "Su-Th 10:30-21:30; Fr,Sa 10:30-22:00",
      "amenity_type": "fast_food",
      "cuisine": "burger"
    },
    {
      "osm_id": 7940217761,
      "osm_type": "node",
      "name": "Shake Shack",
      "brand": "Shake Shack",
      "latitude": 39.9148333,
      "longitude": -75.3429704,
      "address": "Baltimore Pike",
      "city": "Springfield",
      "state": "PA",
      "postcode": "19064",
      "phone": "+1 610-600-6532",
      "website": "https://shakeshack.com/location/springfield-pa#/",
      "opening_hours": "Mo-Th,Su 10:30-21:00; Fr-Sa 10:30-22:00",
      "amenity_type": "fast_food",
      "cuisine": "burger"
    },
    {
      "osm_id": 8072353904,
      "osm_type": "node",
      "name": "Shake Shack",
      "brand": "Shake Shack",
      "latitude": 40.7849848,
      "longitude": -111.9852224,
      "address": "",
      "city": "",
      "state": "",
      "postcode": "",
      "phone": "",
      "website": "https://shakeshack.com/location/salt-lake-city-international-airport#/",
      "opening_hours": "",
      "amenity_type": "fast_food",
      "cuisine": "burger"
    },
    {
      "osm_id": 8221630241,
      "osm_type": "node",
      "name": "Shake Shack",
      "brand": "Shake Shack",
      "latitude": 40.8699513,
      "longitude": -73.1285845,
      "address": "Smith Haven Plaza",
      "city": "Lake Grove",
      "state": "NY",
      "postcode": "11755",
      "phone": "",
      "website": "",
      "opening_hours": "",
      "amenity_type": "fast_food",
      "cuisine": "burger"
    },
    {
      "osm_id": 8270586737,
      "osm_type": "node",
      "name": "Shake Shack",
      "brand": "Shake Shack",
      "latitude": 26.072962,
      "longitude": -80.1436721,
      "address": "",
      "city": "",
      "state": "",
      "postcode": "",
      "phone": "",
      "website": "",
      "opening_hours": "",
      "amenity_type": "fast_food",
      "cuisine": "burger"
    },
    {
      "osm_id": 8281610697,
      "osm_type": "node",
      "name": "Shake Shack",
      "brand": "Shake Shack",
      "latitude": 40.2897904,
      "longitude": -74.0523447,
      "address": "",
      "city": "",
      "state": "",
      "postcode": "",
      "phone": "",
      "website": "",
      "opening_hours": "",
      "amenity_type": "fast_food",
      "cuisine": "burger"
    },
    {
      "osm_id": 8332439244,
      "osm_type": "node",
      "name": "Shake Shack",
      "brand": "Shake Shack",
      "latitude": 40.1978381,
      "longitude": -74.0991263,
      "address": "",
      "city": "",
      "state": "",
      "postcode": "",
      "phone": "",
      "website": "",
      "opening_hours": "",
      "amenity_type": "fast_food",
      "cuisine": "burger"
    },
    {
      "osm_id": 8338932396,
      "osm_type": "node",
      "name": "Shake Shack",
      "brand": "Shake Shack",
      "latitude": 39.4017624,
      "longitude": -76.6020121,
      "address": "East Joppa Road",
      "city": "Towson",
      "state": "MD",
      "postcode": "21204",
      "phone": "+1 410-498-4790",
      "website": "https://www.shakeshack.com/location/towson-md/",
      "opening_hours": "",
      "amenity_type": "fast_food",
      "cuisine": "burger"
    },
    {
      "osm_id": 8379778569,
      "osm_type": "node",
      "name": "Shake Shack",
      "brand": "Shake Shack",
      "latitude": 34.0580906,
      "longitude": -118.4194162,
      "address": "",
      "city": "",
      "state": "",
      "postcode": "",
      "phone": "",
      "website": "",
      "opening_hours": "",
      "amenity_type": "fast_food",
      "cuisine": "burger"
    },
    {
      "osm_id": 8389060020,
      "osm_type": "node",
      "name": "Shake Shack",
      "brand": "",
      "latitude": 32.8952255,
      "longitude": -96.80299,
      "address": "",
      "city": "",
      "state": "",
      "postcode": "",
      "phone": "",
      "website": "",
      "opening_hours": "",
      "amenity_type": "fast_food",
      "cuisine": ""
    },
    {
      "osm_id": 8421813553,
      "osm_type": "node",
      "name": "Shake Shack",
      "brand": "Shake Shack",
      "latitude": 40.016691,
      "longitude": -105.255978,
      "address": "29th Street",
      "city": "Boulder",
      "state": "CO",
      "postcode": "80301-1233",
      "phone": "+1-720-704-7980",
      "website": "https://shakeshack.com/location/boulder-co",
      "opening_hours": "Mo-Su 11:00-21:00; Fr,Sa 11:00-22:00",
      "amenity_type": "fast_food",
      "cuisine": "burger"
    },
    {
      "osm_id": 8474060324,
      "osm_type": "node",
      "name": "Shake Shack",
      "brand": "Shake Shack",
      "latitude": 29.7156398,
      "longitude": -95.4180971,
      "address": "Kirby Drive",
      "city": "Houston",
      "state": "TX",
      "postcode": "77005",
      "phone": "+1-346-998-2820",
      "website": "https://www.shakeshack.com/location/rice-village-tx?utm_source=google&utm_medium=listing",
      "opening_hours": "Mo-Su 10:30-22:00",
      "amenity_type": "fast_food",
      "cuisine": "burger"
    },
    {
      "osm_id": 8656138882,
      "osm_type": "node",
      "name": "Shake Shack",
      "brand": "Shake Shack",
      "latitude": 34.0527594,
      "longitude": -118.2522907,
      "address": "",
      "city": "",
      "state": "",
      "postcode": "",
      "phone": "",
      "website": "",
      "opening_hours": "",
      "amenity_type": "fast_food",
      "cuisine": "burger"
    },
    {
      "osm_id": 8863371294,
      "osm_type": "node",
      "name": "Shake Shack",
      "brand": "Shake Shack",
      "latitude": 41.9464066,
      "longitude": -87.6556426,
      "address": "North Clark Street",
      "city": "Chicago",
      "state": "IL",
      "postcode": "60657",
      "phone": "+1-312-766-5882",
      "website": "https://www.shakeshack.com/location/wrigleyville-il",
      "opening_hours": "",
      "amenity_type": "fast_food",
      "cuisine": "burger"
    },
    {
      "osm_id": 8866660341,
      "osm_type": "node",
      "name": "Shake Shack",
      "brand": "Shake Shack",
      "latitude": 40.5832315,
      "longitude": -74.6148186,
      "address": "",
      "city": "",
      "state": "",
      "postcode": "",
      "phone": "",
      "website": "",
      "opening_hours": "",
      "amenity_type": "fast_food",
      "cuisine": "burger"
    },
    {
      "osm_id": 8910644462,
      "osm_type": "node",
      "name": "Shake Shack",
      "brand": "Shake Shack",
      "latitude": 42.2569904,
      "longitude": -83.6987858,
      "address": "Washtenaw Avenue",
      "city": "",
      "state": "",
      "postcode": "",
      "phone": "",
      "website": "",
      "opening_hours": "Mo-Sa 11:00-22:00; Su 11:00-21:00",
      "amenity_type": "fast_food",
      "cuisine": "burger"
    },
    {
      "osm_id": 9013562670,
      "osm_type": "node",
      "name": "Shake Shack",
      "brand": "Shake Shack",
      "latitude": 40.7978552,
      "longitude": -74.340702,
      "address": "",
      "city": "",
      "state": "",
      "postcode": "",
      "phone": "",
      "website": "",
      "opening_hours": "",
      "amenity_type": "fast_food",
      "cuisine": "burger"
    },
    {
      "osm_id": 9095915260,
      "osm_type": "node",
      "name": "Shake Shack",
      "brand": "Shake Shack",
      "latitude": 40.7377374,
      "longitude": -74.0306157,
      "address": "",
      "city": "",
      "state": "",
      "postcode": "",
      "phone": "",
      "website": "",
      "opening_hours": "",
      "amenity_type": "fast_food",
      "cuisine": "burger"
    },
    {
      "osm_id": 9242904969,
      "osm_type": "node",
      "name": "Shake Shack",
      "brand": "Shake Shack",
      "latitude": 33.0798291,
      "longitude": -96.8263844,
      "address": "",
      "city": "",
      "state": "",
      "postcode": "",
      "phone": "",
      "website": "",
      "opening_hours": "",
      "amenity_type": "fast_food",
      "cuisine": "burger"
    },
    {
      "osm_id": 9294100629,
      "osm_type": "node",
      "name": "Shake Shack",
      "brand": "Shake Shack",
      "latitude": 41.8782183,
      "longitude": -87.6356594,
      "address": "",
      "city": "",
      "state": "",
      "postcode": "",
      "phone": "",
      "website": "",
      "opening_hours": "",
      "amenity_type": "fast_food",
      "cuisine": "burger"
    },
    {
      "osm_id": 9319548160,
      "osm_type": "node",
      "name": "Shake Shack",
      "brand": "Shake Shack",
      "latitude": 37.7842354,
      "longitude": -122.406565,
      "address": "",
      "city": "",
      "state": "",
      "postcode": "",
      "phone": "",
      "website": "",
      "opening_hours": "",
      "amenity_type": "fast_food",
      "cuisine": "burger"
    },
    {
      "osm_id": 9374258601,
      "osm_type": "node",
      "name": "Shake Shack",
      "brand": "Shake Shack",
      "latitude": 38.5687299,
      "longitude": -121.487534,
      "address": "",
      "city": "",
      "state": "",
      "postcode": "",
      "phone": "",
      "website": "",
      "opening_hours": "",
      "amenity_type": "fast_food",
      "cuisine": "burger"
    },
    {
      "osm_id": 9397966760,
      "osm_type": "node",
      "name": "Shake Shack",
      "brand": "Shake Shack",
      "latitude": 25.6912626,
      "longitude": -80.3136179,
      "address": "",
      "city": "",
      "state": "",
      "postcode": "",
      "phone": "",
      "website": "",
      "opening_hours": "",
      "amenity_type": "fast_food",
      "cuisine": "burger"
    },
    {
      "osm_id": 9443261525,
      "osm_type": "node",
      "name": "Shake Shack",
      "brand": "Shake Shack",
      "latitude": 42.3225028,
      "longitude": -71.1696433,
      "address": "Boylston Street",
      "city": "Chestnut Hill",
      "state": "MA",
      "postcode": "02467",
      "phone": "",
      "website": "",
      "opening_hours": "Mo-Su 10:30-22:00",
      "amenity_type": "fast_food",
      "cuisine": "burger"
    },
    {
      "osm_id": 9682736825,
      "osm_type": "node",
      "name": "Shake Shack",
      "brand": "Shake Shack",
      "latitude": 40.0084229,
      "longitude": -75.2896696,
      "address": "Coulter Avenue",
      "city": "Ardmore",
      "state": "PA",
      "postcode": "19003",
      "phone": "+1 610-215-9829",
      "website": "https://shakeshack.com/location/suburban-square-pa#/",
      "opening_hours": "10:30-21:00",
      "amenity_type": "fast_food",
      "cuisine": "burger"
    },
    {
      "osm_id": 9743998824,
      "osm_type": "node",
      "name": "Shake Shack",
      "brand": "Shake Shack",
      "latitude": 37.3245034,
      "longitude": -121.9470898,
      "address": "",
      "city": "",
      "state": "",
      "postcode": "",
      "phone": "",
      "website": "",
      "opening_hours": "",
      "amenity_type": "fast_food",
      "cuisine": "burger"
    },
    {
      "osm_id": 9750102955,
      "osm_type": "node",
      "name": "Shake Shack",
      "brand": "Shake Shack",
      "latitude": 36.0846373,
      "longitude": -115.1518329,
      "address": "",
      "city": "",
      "state": "",
      "postcode": "",
      "phone": "",
      "website": "",
      "opening_hours": "",
      "amenity_type": "fast_food",
      "cuisine": "burger"
    },
    {
      "osm_id": 9754117778,
      "osm_type": "node",
      "name": "Shake Shack",
      "brand": "Shake Shack",
      "latitude": 41.726892,
      "longitude": -72.7567225,
      "address": "",
      "city": "",
      "state": "",
      "postcode": "",
      "phone": "",
      "website": "",
      "opening_hours": "",
      "amenity_type": "fast_food",
      "cuisine": "burger"
    },
    {
      "osm_id": 9812287117,
      "osm_type": "node",
      "name": "Shake Shack",
      "brand": "Shake Shack",
      "latitude": 36.0847448,
      "longitude": -115.151952,
      "address": "",
      "city": "",
      "state": "",
      "postcode": "",
      "phone": "",
      "website": "",
      "opening_hours": "",
      "amenity_type": "fast_food",
      "cuisine": "burger"
    },
    {
      "osm_id": 9812287217,
      "osm_type": "node",
      "name": "Shake Shack",
      "brand": "Shake Shack",
      "latitude": 36.1627612,
      "longitude": -115.1592779,
      "address": "",
      "city": "",
      "state": "",
      "postcode": "",
      "phone": "",
      "website": "",
      "opening_hours": "",
      "amenity_type": "fast_food",
      "cuisine": "burger"
    },
    {
      "osm_id": 9821370994,
      "osm_type": "node",
      "name": "Shake Shack",
      "brand": "Shake Shack",
      "latitude": 38.8716187,
      "longitude": -77.2298699,
      "address": "District Avenue",
      "city": "Fairfax",
      "state": "VA",
      "postcode": "22031",
      "phone": "+1 571-307-6701",
      "website": "https://shakeshack.com/location/mosaic-district-va",
      "opening_hours": "Mo-Sa 11:00-22:30; Su 11:00-22:00",
      "amenity_type": "fast_food",
      "cuisine": "burger"
    },
    {
      "osm_id": 9872827292,
      "osm_type": "node",
      "name": "Shake Shack",
      "brand": "Shake Shack",
      "latitude": 42.5623511,
      "longitude": -83.1645349,
      "address": "West Big Beaver Road",
      "city": "Troy",
      "state": "MI",
      "postcode": "48084",
      "phone": "",
      "website": "",
      "opening_hours": "",
      "amenity_type": "fast_food",
      "cuisine": "burger"
    },
    {
      "osm_id": 9875328515,
      "osm_type": "node",
      "name": "Shake Shack",
      "brand": "Shake Shack",
      "latitude": 39.2776933,
      "longitude": -76.5621965,
      "address": "Boston Street",
      "city": "Baltimore",
      "state": "MD",
      "postcode": "21224-5762",
      "phone": "+1 410-449-2981",
      "website": "https://shakeshack.com/location/canton-md",
      "opening_hours": "10:30-22:00",
      "amenity_type": "fast_food",
      "cuisine": "burger"
    },
    {
      "osm_id": 9902045468,
      "osm_type": "node",
      "name": "Shake Shack",
      "brand": "Shake Shack",
      "latitude": 29.7591815,
      "longitude": -95.3635376,
      "address": "",
      "city": "",
      "state": "",
      "postcode": "",
      "phone": "",
      "website": "",
      "opening_hours": "Mo-Su 10:30-21:00",
      "amenity_type": "fast_food",
      "cuisine": "burger"
    },
    {
      "osm_id": 10004434765,
      "osm_type": "node",
      "name": "Shake Shack",
      "brand": "Shake Shack",
      "latitude": 32.7887101,
      "longitude": -97.3477081,
      "address": "East Exchange Avenue",
      "city": "Fort Worth",
      "state": "TX",
      "postcode": "76164",
      "phone": "+1-817-885-5420",
      "website": "https://shakeshack.com/location/stockyards-tx#/",
      "opening_hours": "Su-Th 11:00-22:00; Fr-Sa 11:00-23:00",
      "amenity_type": "fast_food",
      "cuisine": "burger"
    },
    {
      "osm_id": 10005512659,
      "osm_type": "node",
      "name": "Shake Shack",
      "brand": "Shake Shack",
      "latitude": 37.369348,
      "longitude": -121.929483,
      "address": "",
      "city": "",
      "state": "",
      "postcode": "",
      "phone": "",
      "website": "",
      "opening_hours": "",
      "amenity_type": "fast_food",
      "cuisine": "burger"
    },
    {
      "osm_id": 10049862417,
      "osm_type": "node",
      "name": "Shake Shack",
      "brand": "Shake Shack",
      "latitude": 39.8588672,
      "longitude": -104.6740745,
      "address": "Pea Boulevard",
      "city": "",
      "state": "CO",
      "postcode": "80249",
      "phone": "",
      "website": "https://shakeshack.com/location/denver-international-airport-co#/",
      "opening_hours": "",
      "amenity_type": "fast_food",
      "cuisine": "burger"
    },
    {
      "osm_id": 10186971206,
      "osm_type": "node",
      "name": "Shake Shack",
      "brand": "Shake Shack",
      "latitude": 40.703826,
      "longitude": -73.7985505,
      "address": "Jamaica Avenue",
      "city": "Jamaica",
      "state": "NY",
      "postcode": "",
      "phone": "",
      "website": "",
      "opening_hours": "",
      "amenity_type": "fast_food",
      "cuisine": "burger"
    },
    {
      "osm_id": 10297392774,
      "osm_type": "node",
      "name": "Shake Shack",
      "brand": "Shake Shack",
      "latitude": 32.8998541,
      "longitude": -97.0376886,
      "address": "",
      "city": "",
      "state": "",
      "postcode": "",
      "phone": "",
      "website": "",
      "opening_hours": "",
      "amenity_type": "fast_food",
      "cuisine": "burger"
    },
    {
      "osm_id": 10570749018,
      "osm_type": "node",
      "name": "Shake Shack",
      "brand": "Shake Shack",
      "latitude": 39.0413173,
      "longitude": -77.158795,
      "address": "Tuckerman Lane",
      "city": "Potomac",
      "state": "",
      "postcode": "20854",
      "phone": "",
      "website": "https://shakeshack.com/location/cabin-john-md-md#/",
      "opening_hours": "Su-Th 10:30-21:30; Fr-Sa 10:30-22:30",
      "amenity_type": "fast_food",
      "cuisine": "burger"
    },
    {
      "osm_id": 10689815325,
      "osm_type": "node",
      "name": "Shake Shack",
      "brand": "Shake Shack",
      "latitude": 33.7837995,
      "longitude": -84.3787469,
      "address": "Piedmont Avenue Northeast",
      "city": "Atlanta",
      "state": "GA",
      "postcode": "30309",
      "phone": "+1-470-220-7892",
      "website": "https://shakeshack.com/location/piedmont-park-ga#/",
      "opening_hours": "Mo-Th,Su 10:30-22:00; Fr-Sa 10:30-22:30",
      "amenity_type": "fast_food",
      "cuisine": "burger"
    },
    {
      "osm_id": 10694596309,
      "osm_type": "node",
      "name": "Shake Shack",
      "brand": "Shake Shack",
      "latitude": 34.1818449,
      "longitude": -118.3097709,
      "address": "North San Fernando Boulevard",
      "city": "",
      "state": "",
      "postcode": "91502",
      "phone": "+1-747-333-3040",
      "website": "https://shakeshack.com/",
      "opening_hours": "Su-Th 11:00-23:00; Fr-Sa 11:00-23:30",
      "amenity_type": "fast_food",
      "cuisine": "burger"
    },
    {
      "osm_id": 10694619008,
      "osm_type": "node",
      "name": "Shake Shack",
      "brand": "Shake Shack",
      "latitude": 34.1614934,
      "longitude": -118.512564,
      "address": "",
      "city": "",
      "state": "",
      "postcode": "91316",
      "phone": "+1-747-244-4511",
      "website": "https://shakeshack.com/",
      "opening_hours": "Su-Th 11:00-22:00; Fr-Sa 11:00-23:00",
      "amenity_type": "fast_food",
      "cuisine": "burger"
    },
    {
      "osm_id": 10731903405,
      "osm_type": "node",
      "name": "Shake Shack",
      "brand": "Shake Shack",
      "latitude": 37.8340529,
      "longitude": -122.2918857,
      "address": "",
      "city": "",
      "state": "",
      "postcode": "",
      "phone": "",
      "website": "",
      "opening_hours": "",
      "amenity_type": "fast_food",
      "cuisine": "burger"
    },
    {
      "osm_id": 10756797205,
      "osm_type": "node",
      "name": "Shake Shack",
      "brand": "Shake Shack",
      "latitude": 41.8284944,
      "longitude": -71.4006093,
      "address": "Thayer Street",
      "city": "Providence",
      "state": "RI",
      "postcode": "",
      "phone": "+1-401-214-1823",
      "website": "https://shakeshack.com/",
      "opening_hours": "Su-Th 10:30-22:00; Fr,Sa 10:30-23:00",
      "amenity_type": "fast_food",
      "cuisine": "burger"
    },
    {
      "osm_id": 10811909322,
      "osm_type": "node",
      "name": "Shake Shack",
      "brand": "Shake Shack",
      "latitude": 40.7342255,
      "longitude": -73.869395,
      "address": "",
      "city": "",
      "state": "",
      "postcode": "",
      "phone": "",
      "website": "",
      "opening_hours": "",
      "amenity_type": "fast_food",
      "cuisine": "burger"
    },
    {
      "osm_id": 10822954784,
      "osm_type": "node",
      "name": "Shake Shack",
      "brand": "Shake Shack",
      "latitude": 36.1290554,
      "longitude": -86.6702777,
      "address": "",
      "city": "",
      "state": "",
      "postcode": "",
      "phone": "",
      "website": "",
      "opening_hours": "",
      "amenity_type": "fast_food",
      "cuisine": "burger"
    },
    {
      "osm_id": 10836117227,
      "osm_type": "node",
      "name": "Shake Shack",
      "brand": "Shake Shack",
      "latitude": 40.7173725,
      "longitude": -73.960548,
      "address": "Berry Street",
      "city": "Brooklyn",
      "state": "NY",
      "postcode": "11249",
      "phone": "",
      "website": "",
      "opening_hours": "",
      "amenity_type": "fast_food",
      "cuisine": "burger"
    },
    {
      "osm_id": 10853533394,
      "osm_type": "node",
      "name": "Shake Shack",
      "brand": "Shake Shack",
      "latitude": 35.2107159,
      "longitude": -80.8606625,
      "address": "",
      "city": "",
      "state": "",
      "postcode": "",
      "phone": "",
      "website": "",
      "opening_hours": "",
      "amenity_type": "fast_food",
      "cuisine": "burger"
    },
    {
      "osm_id": 10856035680,
      "osm_type": "node",
      "name": "Shake Shack",
      "brand": "Shake Shack",
      "latitude": 36.1612267,
      "longitude": -86.7790934,
      "address": "",
      "city": "",
      "state": "",
      "postcode": "",
      "phone": "",
      "website": "",
      "opening_hours": "Mo-Su 10:30-24:00",
      "amenity_type": "fast_food",
      "cuisine": "burger"
    },
    {
      "osm_id": 10884438911,
      "osm_type": "node",
      "name": "Shake Shack",
      "brand": "Shake Shack",
      "latitude": 40.7196883,
      "longitude": -73.8437798,
      "address": "",
      "city": "",
      "state": "",
      "postcode": "",
      "phone": "",
      "website": "",
      "opening_hours": "",
      "amenity_type": "fast_food",
      "cuisine": "burger"
    },
    {
      "osm_id": 10960362935,
      "osm_type": "node",
      "name": "Shake Shack",
      "brand": "Shake Shack",
      "latitude": 41.0974725,
      "longitude": -74.0122535,
      "address": "Rockland Plaza",
      "city": "Nanuet",
      "state": "NY",
      "postcode": "10954-2208",
      "phone": "+1 845-671-3380",
      "website": "https://www.shakeshack.com/location/nanuet-ny/",
      "opening_hours": "",
      "amenity_type": "fast_food",
      "cuisine": "burger"
    },
    {
      "osm_id": 10985529470,
      "osm_type": "node",
      "name": "Shake Shack",
      "brand": "Shake Shack",
      "latitude": 38.6539453,
      "longitude": -90.3534264,
      "address": "",
      "city": "",
      "state": "",
      "postcode": "",
      "phone": "",
      "website": "",
      "opening_hours": "",
      "amenity_type": "fast_food",
      "cuisine": "burger"
    },
    {
      "osm_id": 10995386321,
      "osm_type": "node",
      "name": "Shake Shack",
      "brand": "Shake Shack",
      "latitude": 40.7539427,
      "longitude": -74.0010401,
      "address": "",
      "city": "",
      "state": "",
      "postcode": "",
      "phone": "",
      "website": "",
      "opening_hours": "",
      "amenity_type": "fast_food",
      "cuisine": "burger"
    },
    {
      "osm_id": 10998186056,
      "osm_type": "node",
      "name": "Shake Shack",
      "brand": "",
      "latitude": 40.6804576,
      "longitude": -73.9530951,
      "address": "Fulton Street",
      "city": "",
      "state": "",
      "postcode": "11238",
      "phone": "+1-586-323-8145",
      "website": "https://shakeshack.com/location/bed-stuy-ny#/",
      "opening_hours": "Mo-Th 10:30-23:00; Fr-Sa 10:30-24:00; Su 10:30-23:00",
      "amenity_type": "fast_food",
      "cuisine": "burger"
    },
    {
      "osm_id": 11048778405,
      "osm_type": "node",
      "name": "Shake Shack",
      "brand": "",
      "latitude": 40.758167,
      "longitude": -73.8456155,
      "address": "",
      "city": "",
      "state": "",
      "postcode": "",
      "phone": "",
      "website": "",
      "opening_hours": "",
      "amenity_type": "fast_food",
      "cuisine": "american"
    },
    {
      "osm_id": 11079941605,
      "osm_type": "node",
      "name": "Shake Shack",
      "brand": "Shake Shack",
      "latitude": 45.5225713,
      "longitude": -122.6815207,
      "address": "",
      "city": "",
      "state": "",
      "postcode": "97209",
      "phone": "+1-619-900-2008",
      "website": "https://shakeshack.com/location/west-end-portland-or#/",
      "opening_hours": "Mo-Th,Su 10:30-22:00; Fr-Sa 10:30-23:30",
      "amenity_type": "fast_food",
      "cuisine": "burger"
    },
    {
      "osm_id": 11087809947,
      "osm_type": "node",
      "name": "Shake Shack",
      "brand": "Shake Shack",
      "latitude": 27.9523878,
      "longitude": -82.5031937,
      "address": "",
      "city": "",
      "state": "",
      "postcode": "",
      "phone": "",
      "website": "",
      "opening_hours": "Su-Th 11:00-22:00; Fr-Sa 11:00-23:00",
      "amenity_type": "fast_food",
      "cuisine": "burger"
    },
    {
      "osm_id": 11094544227,
      "osm_type": "node",
      "name": "Shake Shack",
      "brand": "Shake Shack",
      "latitude": 33.6427053,
      "longitude": -84.4392679,
      "address": "",
      "city": "",
      "state": "",
      "postcode": "",
      "phone": "",
      "website": "",
      "opening_hours": "",
      "amenity_type": "fast_food",
      "cuisine": "burger"
    },
    {
      "osm_id": 11148327550,
      "osm_type": "node",
      "name": "Shake Shack",
      "brand": "Shake Shack",
      "latitude": 28.387465,
      "longitude": -81.4925603,
      "address": "",
      "city": "",
      "state": "",
      "postcode": "",
      "phone": "",
      "website": "",
      "opening_hours": "",
      "amenity_type": "fast_food",
      "cuisine": "burger"
    },
    {
      "osm_id": 11162008279,
      "osm_type": "node",
      "name": "Shake Shack",
      "brand": "Shake Shack",
      "latitude": 34.0201466,
      "longitude": -118.4974056,
      "address": "Wilshire Boulevard",
      "city": "",
      "state": "",
      "postcode": "",
      "phone": "",
      "website": "https://shakeshack.com/location/santa-monica-ca#/",
      "opening_hours": "Mo-Fr 11:00-22:00; Sa 10:30-23:00; Su 10:30-22:00",
      "amenity_type": "fast_food",
      "cuisine": "burger"
    },
    {
      "osm_id": 11186239501,
      "osm_type": "node",
      "name": "Shake Shack",
      "brand": "Shake Shack",
      "latitude": 29.5958894,
      "longitude": -95.6192558,
      "address": "Town Center Boulevard North",
      "city": "Sugar Land",
      "state": "TX",
      "postcode": "77479",
      "phone": "",
      "website": "",
      "opening_hours": "",
      "amenity_type": "fast_food",
      "cuisine": "burger"
    },
    {
      "osm_id": 11361257941,
      "osm_type": "node",
      "name": "Shake Shack",
      "brand": "Shake Shack",
      "latitude": 34.0622711,
      "longitude": -118.308744,
      "address": "",
      "city": "",
      "state": "",
      "postcode": "",
      "phone": "",
      "website": "",
      "opening_hours": "",
      "amenity_type": "fast_food",
      "cuisine": "burger"
    },
    {
      "osm_id": 11391069606,
      "osm_type": "node",
      "name": "Shake Shack",
      "brand": "Shake Shack",
      "latitude": 34.0920653,
      "longitude": -118.279732,
      "address": "",
      "city": "",
      "state": "",
      "postcode": "",
      "phone": "",
      "website": "",
      "opening_hours": "",
      "amenity_type": "fast_food",
      "cuisine": "burger"
    },
    {
      "osm_id": 11406467769,
      "osm_type": "node",
      "name": "Shake Shack",
      "brand": "Shake Shack",
      "latitude": 40.6830549,
      "longitude": -74.1877036,
      "address": "",
      "city": "",
      "state": "",
      "postcode": "",
      "phone": "",
      "website": "",
      "opening_hours": "",
      "amenity_type": "fast_food",
      "cuisine": "burger"
    },
    {
      "osm_id": 11633046738,
      "osm_type": "node",
      "name": "Shake Shack",
      "brand": "Shake Shack",
      "latitude": 40.4961786,
      "longitude": -80.2463228,
      "address": "",
      "city": "",
      "state": "",
      "postcode": "",
      "phone": "",
      "website": "",
      "opening_hours": "",
      "amenity_type": "fast_food",
      "cuisine": "burger"
    },
    {
      "osm_id": 11741117535,
      "osm_type": "node",
      "name": "Shake Shack",
      "brand": "Shake Shack",
      "latitude": 41.6979408,
      "longitude": -71.4963205,
      "address": "",
      "city": "",
      "state": "",
      "postcode": "",
      "phone": "",
      "website": "",
      "opening_hours": "",
      "amenity_type": "fast_food",
      "cuisine": "burger"
    },
    {
      "osm_id": 11781910010,
      "osm_type": "node",
      "name": "Shake Shack",
      "brand": "Shake Shack",
      "latitude": 42.7707706,
      "longitude": -71.2245661,
      "address": "Via Toscana",
      "city": "Salem",
      "state": "NH",
      "postcode": "03079",
      "phone": "+1 603 896 9134",
      "website": "https://shakeshack.com/location/tuscan-village-nh",
      "opening_hours": "Mo-Sa 11:00-22:00; Su 11:00-21:00",
      "amenity_type": "fast_food",
      "cuisine": "burger"
    },
    {
      "osm_id": 11784508259,
      "osm_type": "node",
      "name": "Shake Shack",
      "brand": "Shake Shack",
      "latitude": 32.853355,
      "longitude": -96.7689633,
      "address": "Greenville Avenue",
      "city": "",
      "state": "",
      "postcode": "75206",
      "phone": "+1 469-501-5031",
      "website": "https://shakeshack.com/location/old-town-tx",
      "opening_hours": "Mo-Th,Su 11:00-22:00; Fr,Sa 11:00-23:00",
      "amenity_type": "fast_food",
      "cuisine": "burger"
    },
    {
      "osm_id": 11809864146,
      "osm_type": "node",
      "name": "Shake Shack",
      "brand": "Shake Shack",
      "latitude": 32.9537421,
      "longitude": -96.8166917,
      "address": "Belt Line Road",
      "city": "Dallas",
      "state": "TX",
      "postcode": "75254",
      "phone": "",
      "website": "",
      "opening_hours": "",
      "amenity_type": "fast_food",
      "cuisine": "burger"
    },
    {
      "osm_id": 11828706863,
      "osm_type": "node",
      "name": "Shake Shack",
      "brand": "Shake Shack",
      "latitude": 35.7895622,
      "longitude": -78.6596812,
      "address": "",
      "city": "",
      "state": "",
      "postcode": "",
      "phone": "",
      "website": "",
      "opening_hours": "",
      "amenity_type": "fast_food",
      "cuisine": "burger"
    },
    {
      "osm_id": 11842373513,
      "osm_type": "node",
      "name": "Shake Shack",
      "brand": "Shake Shack",
      "latitude": 40.7397293,
      "longitude": -74.0082119,
      "address": "Washington Street",
      "city": "New York",
      "state": "NY",
      "postcode": "",
      "phone": "",
      "website": "",
      "opening_hours": "",
      "amenity_type": "fast_food",
      "cuisine": "burger"
    },
    {
      "osm_id": 11872731412,
      "osm_type": "node",
      "name": "Shake Shack",
      "brand": "Shake Shack",
      "latitude": 40.7547339,
      "longitude": -73.9854024,
      "address": "West 42nd Street",
      "city": "New York",
      "state": "NY",
      "postcode": "10036",
      "phone": "+1-646-517-6142",
      "website": "https://shakeshack.com/location/bryant-park-ny#/",
      "opening_hours": "Mo-Su 10:30-23:00",
      "amenity_type": "fast_food",
      "cuisine": "burger"
    },
    {
      "osm_id": 11976444411,
      "osm_type": "node",
      "name": "Shake Shack",
      "brand": "Shake Shack",
      "latitude": 32.8705575,
      "longitude": -117.2123046,
      "address": "",
      "city": "",
      "state": "",
      "postcode": "",
      "phone": "",
      "website": "",
      "opening_hours": "",
      "amenity_type": "fast_food",
      "cuisine": "burger"
    },
    {
      "osm_id": 11978943156,
      "osm_type": "node",
      "name": "Shake Shack",
      "brand": "Shake Shack",
      "latitude": 29.9513199,
      "longitude": -90.0658033,
      "address": "",
      "city": "",
      "state": "",
      "postcode": "",
      "phone": "",
      "website": "",
      "opening_hours": "",
      "amenity_type": "fast_food",
      "cuisine": "burger"
    },
    {
      "osm_id": 11990796361,
      "osm_type": "node",
      "name": "Shake Shack",
      "brand": "Shake Shack",
      "latitude": 44.9465449,
      "longitude": -92.9240765,
      "address": "",
      "city": "",
      "state": "",
      "postcode": "",
      "phone": "",
      "website": "",
      "opening_hours": "",
      "amenity_type": "fast_food",
      "cuisine": "burger"
    },
    {
      "osm_id": 12032252688,
      "osm_type": "node",
      "name": "Shake Shack",
      "brand": "Shake Shack",
      "latitude": 42.3931389,
      "longitude": -71.0785578,
      "address": "Assembly Row",
      "city": "Somerville",
      "state": "MA",
      "postcode": "02145",
      "phone": "+1 617 604 3025",
      "website": "https://shakeshack.com/location/assembly-row-ma#/",
      "opening_hours": "",
      "amenity_type": "fast_food",
      "cuisine": "burger"
    },
    {
      "osm_id": 12034899125,
      "osm_type": "node",
      "name": "Shake Shack",
      "brand": "Shake Shack",
      "latitude": 30.163201,
      "longitude": -95.4555752,
      "address": "Lake Woodlands Drive",
      "city": "The Woodlands",
      "state": "TX",
      "postcode": "",
      "phone": "",
      "website": "",
      "opening_hours": "",
      "amenity_type": "fast_food",
      "cuisine": "burger"
    },
    {
      "osm_id": 12070731216,
      "osm_type": "node",
      "name": "Shake Shack",
      "brand": "Shake Shack",
      "latitude": 35.2208918,
      "longitude": -80.9411674,
      "address": "",
      "city": "",
      "state": "",
      "postcode": "",
      "phone": "",
      "website": "",
      "opening_hours": "",
      "amenity_type": "fast_food",
      "cuisine": "burger"
    },
    {
      "osm_id": 12085299548,
      "osm_type": "node",
      "name": "Shake Shack",
      "brand": "Shake Shack",
      "latitude": 42.2312344,
      "longitude": -71.17672,
      "address": "",
      "city": "",
      "state": "",
      "postcode": "",
      "phone": "",
      "website": "",
      "opening_hours": "",
      "amenity_type": "fast_food",
      "cuisine": "burger"
    },
    {
      "osm_id": 12099831026,
      "osm_type": "node",
      "name": "Shake Shack",
      "brand": "Shake Shack",
      "latitude": 32.9519142,
      "longitude": -117.2356428,
      "address": "Paseo Place",
      "city": "San Diego",
      "state": "CA",
      "postcode": "92130",
      "phone": "+1 619-363-3604",
      "website": "https://shakeshack.com/location/del-mar-ca",
      "opening_hours": "10:00-22:00",
      "amenity_type": "fast_food",
      "cuisine": "burger"
    },
    {
      "osm_id": 12149026654,
      "osm_type": "node",
      "name": "Shake Shack",
      "brand": "Shake Shack",
      "latitude": 41.1875316,
      "longitude": -111.9837867,
      "address": "Riverdale Road",
      "city": "Ogden",
      "state": "UT",
      "postcode": "84405",
      "phone": "+1 385-785-0011",
      "website": "https://shakeshack.com/location/riverdale-road-ut#/",
      "opening_hours": "Mo-Th,Su 10:30-23:00; Fr-Sa 10:30-24:00",
      "amenity_type": "fast_food",
      "cuisine": "burger"
    },
    {
      "osm_id": 12256478665,
      "osm_type": "node",
      "name": "Shake Shack",
      "brand": "Shake Shack",
      "latitude": 39.0244919,
      "longitude": -77.1468347,
      "address": "",
      "city": "",
      "state": "",
      "postcode": "",
      "phone": "",
      "website": "",
      "opening_hours": "",
      "amenity_type": "fast_food",
      "cuisine": "burger"
    },
    {
      "osm_id": 12316369901,
      "osm_type": "node",
      "name": "Shake Shack",
      "brand": "Shake Shack",
      "latitude": 37.538465,
      "longitude": -122.3015374,
      "address": "",
      "city": "",
      "state": "",
      "postcode": "",
      "phone": "+1 650-398-1756",
      "website": "",
      "opening_hours": "",
      "amenity_type": "fast_food",
      "cuisine": "burger"
    },
    {
      "osm_id": 12372276438,
      "osm_type": "node",
      "name": "Shake Shack",
      "brand": "Shake Shack",
      "latitude": 39.7710472,
      "longitude": -86.1545962,
      "address": "",
      "city": "",
      "state": "",
      "postcode": "",
      "phone": "",
      "website": "https://shakeshack.com/location/downtown-indianapolis-in",
      "opening_hours": "",
      "amenity_type": "fast_food",
      "cuisine": "burger"
    },
    {
      "osm_id": 12564277867,
      "osm_type": "node",
      "name": "Shake Shack",
      "brand": "Shake Shack",
      "latitude": 33.8311977,
      "longitude": -118.3491933,
      "address": "",
      "city": "",
      "state": "",
      "postcode": "",
      "phone": "",
      "website": "",
      "opening_hours": "",
      "amenity_type": "fast_food",
      "cuisine": "burger"
    },
    {
      "osm_id": 12706096227,
      "osm_type": "node",
      "name": "Shake Shack",
      "brand": "Shake Shack",
      "latitude": 42.6360352,
      "longitude": -78.9888883,
      "address": "",
      "city": "",
      "state": "",
      "postcode": "",
      "phone": "",
      "website": "",
      "opening_hours": "",
      "amenity_type": "fast_food",
      "cuisine": "burger"
    },
    {
      "osm_id": 12761537049,
      "osm_type": "node",
      "name": "Shake Shack",
      "brand": "Shake Shack",
      "latitude": 38.9810649,
      "longitude": -76.9387673,
      "address": "",
      "city": "",
      "state": "",
      "postcode": "",
      "phone": "",
      "website": "",
      "opening_hours": "",
      "amenity_type": "fast_food",
      "cuisine": "burger"
    },
    {
      "osm_id": 12776924897,
      "osm_type": "node",
      "name": "Shake Shack",
      "brand": "",
      "latitude": 45.6046678,
      "longitude": -122.5045786,
      "address": "",
      "city": "",
      "state": "",
      "postcode": "",
      "phone": "",
      "website": "",
      "opening_hours": "",
      "amenity_type": "fast_food",
      "cuisine": ""
    },
    {
      "osm_id": 12843434621,
      "osm_type": "node",
      "name": "Shake Shack",
      "brand": "Shake Shack",
      "latitude": 42.995968,
      "longitude": -78.8219806,
      "address": "Niagara Falls Boulevard",
      "city": "Buffalo",
      "state": "NY",
      "postcode": "14228",
      "phone": "+1 716-419-8663",
      "website": "https://shakeshack.com/location/the-boulevard-ny/",
      "opening_hours": "Mo-Su 11:00-22:30",
      "amenity_type": "fast_food",
      "cuisine": "burger"
    },
    {
      "osm_id": 12882603518,
      "osm_type": "node",
      "name": "Shake Shack",
      "brand": "Shake Shack",
      "latitude": 38.9274976,
      "longitude": -94.4132416,
      "address": "Northwest Lowenstein Drive",
      "city": "Lees Summit",
      "state": "MO",
      "postcode": "64081",
      "phone": "+1-816-327-5395",
      "website": "https://shakeshack.com",
      "opening_hours": "Mo-Su 10:30-22:00",
      "amenity_type": "fast_food",
      "cuisine": "burger"
    },
    {
      "osm_id": 12913244766,
      "osm_type": "node",
      "name": "Shake Shack",
      "brand": "Shake Shack",
      "latitude": 40.2808126,
      "longitude": -74.2933465,
      "address": "",
      "city": "",
      "state": "",
      "postcode": "",
      "phone": "",
      "website": "",
      "opening_hours": "",
      "amenity_type": "fast_food",
      "cuisine": "burger"
    },
    {
      "osm_id": 12926602218,
      "osm_type": "node",
      "name": "Shake Shack",
      "brand": "Shake Shack",
      "latitude": 40.551189,
      "longitude": -111.8914007,
      "address": "S State Street",
      "city": "Sandy",
      "state": "UT",
      "postcode": "84070",
      "phone": "",
      "website": "",
      "opening_hours": "Su-Th 10:30-21:00; Fr-Sa 10:30-23:00",
      "amenity_type": "fast_food",
      "cuisine": "burger"
    },
    {
      "osm_id": 12955382110,
      "osm_type": "node",
      "name": "Shake Shack",
      "brand": "Shake Shack",
      "latitude": 33.6513558,
      "longitude": -117.7457858,
      "address": "",
      "city": "",
      "state": "",
      "postcode": "",
      "phone": "",
      "website": "",
      "opening_hours": "",
      "amenity_type": "fast_food",
      "cuisine": "burger"
    },
    {
      "osm_id": 12957933119,
      "osm_type": "node",
      "name": "Shake Shack",
      "brand": "Shake Shack",
      "latitude": 38.9903129,
      "longitude": -104.8045048,
      "address": "Federal Drive",
      "city": "Colorado Springs",
      "state": "CO",
      "postcode": "80921",
      "phone": "+1-719-895-5256",
      "website": "https://shakeshack.com/location/interquest-co#/",
      "opening_hours": "Mo-Su 10:30-22:30",
      "amenity_type": "fast_food",
      "cuisine": "burger"
    },
    {
      "osm_id": 12980804203,
      "osm_type": "node",
      "name": "Shake Shack",
      "brand": "Shake Shack",
      "latitude": 38.5547544,
      "longitude": -90.4080213,
      "address": "",
      "city": "",
      "state": "",
      "postcode": "",
      "phone": "",
      "website": "",
      "opening_hours": "",
      "amenity_type": "fast_food",
      "cuisine": "burger"
    },
    {
      "osm_id": 13001779704,
      "osm_type": "node",
      "name": "Shake Shack",
      "brand": "Shake Shack",
      "latitude": 40.7192712,
      "longitude": -74.0429621,
      "address": "",
      "city": "",
      "state": "",
      "postcode": "",
      "phone": "",
      "website": "",
      "opening_hours": "",
      "amenity_type": "fast_food",
      "cuisine": "burger"
    },
    {
      "osm_id": 13009136841,
      "osm_type": "node",
      "name": "Shake Shack",
      "brand": "Shake Shack",
      "latitude": 41.6573448,
      "longitude": -72.7278121,
      "address": "Berlin Turnpike",
      "city": "Newington",
      "state": "CT",
      "postcode": "06111",
      "phone": "+1-860-914-2004",
      "website": "https://shakeshack.com/location/newington-ct#/",
      "opening_hours": "Mo-Su 10:30-18:00",
      "amenity_type": "fast_food",
      "cuisine": "burger"
    },
    {
      "osm_id": 13042189617,
      "osm_type": "node",
      "name": "Shake Shack",
      "brand": "Shake Shack",
      "latitude": 40.3211682,
      "longitude": -74.4882737,
      "address": "",
      "city": "",
      "state": "",
      "postcode": "",
      "phone": "",
      "website": "",
      "opening_hours": "",
      "amenity_type": "fast_food",
      "cuisine": "burger"
    },
    {
      "osm_id": 13043290739,
      "osm_type": "node",
      "name": "Shake Shack",
      "brand": "Shake Shack",
      "latitude": 37.6597891,
      "longitude": -77.6346621,
      "address": "",
      "city": "",
      "state": "",
      "postcode": "",
      "phone": "",
      "website": "",
      "opening_hours": "",
      "amenity_type": "fast_food",
      "cuisine": "burger"
    },
    {
      "osm_id": 13048526528,
      "osm_type": "node",
      "name": "Shake Shack",
      "brand": "Shake Shack",
      "latitude": 37.5107948,
      "longitude": -77.6128124,
      "address": "Huguenot Road",
      "city": "",
      "state": "",
      "postcode": "23113",
      "phone": "+1-804-566-7881",
      "website": "https://shakeshack.com/location/midlothian-va#/",
      "opening_hours": "Mo-Su 10:30-22:00",
      "amenity_type": "fast_food",
      "cuisine": "burger"
    },
    {
      "osm_id": 13058867939,
      "osm_type": "node",
      "name": "Shake Shack",
      "brand": "Shake Shack",
      "latitude": 39.5630571,
      "longitude": -104.8755425,
      "address": "",
      "city": "",
      "state": "",
      "postcode": "",
      "phone": "",
      "website": "",
      "opening_hours": "",
      "amenity_type": "fast_food",
      "cuisine": "burger"
    },
    {
      "osm_id": 13102830000,
      "osm_type": "node",
      "name": "Shake Shack",
      "brand": "Shake Shack",
      "latitude": 40.4511817,
      "longitude": -79.9858992,
      "address": "Smallman Street",
      "city": "Pittsburgh",
      "state": "PA",
      "postcode": "15222",
      "phone": "+1-412-286-0117",
      "website": "https://shakeshack.com/location/the-terminal-pa#/",
      "opening_hours": "Su-Th 10:30-23:00, Fr,Sa 10:30-01:00",
      "amenity_type": "fast_food",
      "cuisine": "burger"
    },
    {
      "osm_id": 13122110951,
      "osm_type": "node",
      "name": "Shake Shack",
      "brand": "Shake Shack",
      "latitude": 42.4836536,
      "longitude": -71.2152702,
      "address": "Middlesex Turnpike",
      "city": "Burlington",
      "state": "MA",
      "postcode": "01803",
      "phone": "+1-781-253-5399",
      "website": "https://shakeshack.com/location/burlington-mall-ma#/",
      "opening_hours": "Mo-Th,Su 11:00-21:00; Fr-Sa 11:00-21:30",
      "amenity_type": "fast_food",
      "cuisine": "burger"
    },
    {
      "osm_id": 13124865690,
      "osm_type": "node",
      "name": "Shake Shack",
      "brand": "Shake Shack",
      "latitude": 38.9581247,
      "longitude": -77.35916,
      "address": "Democracy Drive",
      "city": "Reston",
      "state": "VA",
      "postcode": "20190",
      "phone": "+1-571-640-8702",
      "website": "https://shakeshack.com/location/reston-va",
      "opening_hours": "Su-Th 11:00-22:00; Fr-Sa 11:00-23:00",
      "amenity_type": "fast_food",
      "cuisine": "burger"
    },
    {
      "osm_id": 13137197796,
      "osm_type": "node",
      "name": "Shake Shack",
      "brand": "Shake Shack",
      "latitude": 33.7217331,
      "longitude": -117.7920654,
      "address": "",
      "city": "",
      "state": "",
      "postcode": "",
      "phone": "",
      "website": "",
      "opening_hours": "",
      "amenity_type": "fast_food",
      "cuisine": "burger"
    },
    {
      "osm_id": 13162325529,
      "osm_type": "node",
      "name": "Shake Shack",
      "brand": "Shake Shack",
      "latitude": 38.7894748,
      "longitude": -77.6059715,
      "address": "Gateway Promenade Place",
      "city": "Gainesville",
      "state": "VA",
      "postcode": "20155",
      "phone": "",
      "website": "https://shakeshack.com/location/gainesville-va#/",
      "opening_hours": "Mo-Su 11:00-22:00",
      "amenity_type": "fast_food",
      "cuisine": "burger"
    },
    {
      "osm_id": 13228716847,
      "osm_type": "node",
      "name": "Shake Shack",
      "brand": "Shake Shack",
      "latitude": 26.2540823,
      "longitude": -81.7992679,
      "address": "",
      "city": "",
      "state": "",
      "postcode": "",
      "phone": "",
      "website": "",
      "opening_hours": "",
      "amenity_type": "fast_food",
      "cuisine": "burger"
    },
    {
      "osm_id": 13231000056,
      "osm_type": "node",
      "name": "Shake Shack",
      "brand": "Shake Shack",
      "latitude": 42.3616827,
      "longitude": -71.1585057,
      "address": "",
      "city": "",
      "state": "",
      "postcode": "",
      "phone": "",
      "website": "",
      "opening_hours": "",
      "amenity_type": "fast_food",
      "cuisine": "burger"
    },
    {
      "osm_id": 13239526024,
      "osm_type": "node",
      "name": "Shake Shack",
      "brand": "Shake Shack",
      "latitude": 33.4648826,
      "longitude": -112.3830738,
      "address": "North Globe Drive",
      "city": "Goodyear",
      "state": "AZ",
      "postcode": "85395",
      "phone": "",
      "website": "https://shakeshack.com/location/goodyear-az#/",
      "opening_hours": "",
      "amenity_type": "fast_food",
      "cuisine": "burger"
    },
    {
      "osm_id": 13285288815,
      "osm_type": "node",
      "name": "Shake Shack",
      "brand": "Shake Shack",
      "latitude": 40.9285625,
      "longitude": -73.8538859,
      "address": "Mall Walk",
      "city": "Yonkers",
      "state": "NY",
      "postcode": "10704",
      "phone": "",
      "website": "https://shakeshack.com",
      "opening_hours": "",
      "amenity_type": "fast_food",
      "cuisine": "burger"
    },
    {
      "osm_id": 13288222601,
      "osm_type": "node",
      "name": "Shake Shack",
      "brand": "Shake Shack",
      "latitude": 40.1142822,
      "longitude": -75.2846512,
      "address": "West Germantown Pike",
      "city": "Plymouth Meeting",
      "state": "PA",
      "postcode": "19462",
      "phone": "",
      "website": "https://shakeshack.com/",
      "opening_hours": "Mo-Th,Su 10:30-21:00; Fr-Sa 10:30-22:00",
      "amenity_type": "fast_food",
      "cuisine": "burger"
    },
    {
      "osm_id": 13327477444,
      "osm_type": "node",
      "name": "Shake Shack",
      "brand": "Shake Shack",
      "latitude": 33.4654173,
      "longitude": -112.2698645,
      "address": "West McDowell Road",
      "city": "Avondale",
      "state": "AZ",
      "postcode": "85353",
      "phone": "",
      "website": "",
      "opening_hours": "",
      "amenity_type": "fast_food",
      "cuisine": "burger"
    },
    {
      "osm_id": 13355499588,
      "osm_type": "node",
      "name": "Shake Shack",
      "brand": "Shake Shack",
      "latitude": 47.2171558,
      "longitude": -122.4671769,
      "address": "",
      "city": "",
      "state": "",
      "postcode": "",
      "phone": "",
      "website": "",
      "opening_hours": "",
      "amenity_type": "fast_food",
      "cuisine": "burger"
    },
    {
      "osm_id": 13360795105,
      "osm_type": "node",
      "name": "Shake shack",
      "brand": "",
      "latitude": 40.7549317,
      "longitude": -73.9852834,
      "address": "",
      "city": "",
      "state": "",
      "postcode": "",
      "phone": "",
      "website": "",
      "opening_hours": "",
      "amenity_type": "restaurant",
      "cuisine": ""
    },
    {
      "osm_id": 13395860833,
      "osm_type": "node",
      "name": "Shake Shack",
      "brand": "Shake Shack",
      "latitude": 43.0506801,
      "longitude": -76.0717206,
      "address": "Erie Boulevard East",
      "city": "DeWitt",
      "state": "NY",
      "postcode": "13214",
      "phone": "+1-315-231-8967",
      "website": "https://shakeshack.com/location/dewitt-ny",
      "opening_hours": "Mo-Su 10:30-23:00",
      "amenity_type": "fast_food",
      "cuisine": "burger"
    },
    {
      "osm_id": 13436182472,
      "osm_type": "node",
      "name": "Shake Shack",
      "brand": "Shake Shack",
      "latitude": 41.4561984,
      "longitude": -81.9486604,
      "address": "Crocker Road",
      "city": "Westlake",
      "state": "OH",
      "postcode": "44145",
      "phone": "",
      "website": "",
      "opening_hours": "",
      "amenity_type": "fast_food",
      "cuisine": "burger"
    },
    {
      "osm_id": 13455345775,
      "osm_type": "node",
      "name": "Shake Shack",
      "brand": "Shake Shack",
      "latitude": 40.4589652,
      "longitude": -79.9217594,
      "address": "",
      "city": "",
      "state": "",
      "postcode": "",
      "phone": "",
      "website": "",
      "opening_hours": "",
      "amenity_type": "fast_food",
      "cuisine": "burger"
    },
    {
      "osm_id": 13469755335,
      "osm_type": "node",
      "name": "Shake Shack",
      "brand": "Shake Shack",
      "latitude": 28.4114029,
      "longitude": -81.3141176,
      "address": "Jeff Fuqua Boulevard",
      "city": "Orlando",
      "state": "FL",
      "postcode": "32827",
      "phone": "",
      "website": "https://shakeshack.com/location/orlando-international-airport-fl#/",
      "opening_hours": "",
      "amenity_type": "fast_food",
      "cuisine": "burger"
    },
    {
      "osm_id": 13478147798,
      "osm_type": "node",
      "name": "Shake Shack",
      "brand": "Shake Shack",
      "latitude": 34.1328384,
      "longitude": -118.1470487,
      "address": "South Arroyo Parkway",
      "city": "Pasadena",
      "state": "CA",
      "postcode": "91105",
      "phone": "+1-747-215-2744",
      "website": "https://shakeshack.com/location/pasadena-ca",
      "opening_hours": "Mo-Th,Su 10:00-23:00; Fr-Sa 10:00-24:00",
      "amenity_type": "fast_food",
      "cuisine": "burger"
    }
  ]
}