{
  "metadata": {
    "chain": "Sweetgreen",
    "country": "US",
    "scraped_at": "2026-01-28T17:24:03.459072",
    "total_locations": 149,
    "source": "OpenStreetMap Overpass API"
  },
  "locations": [
    {
      "osm_id": 266671569,
      "osm_type": "node",
      "name": "Sweetgreen",
      "brand": "Sweetgreen",
      "latitude": 37.3683134,
      "longitude": -122.0354375,
      "address": "West El Camino Real",
      "city": "Sunnyvale",
      "state": "",
      "postcode": "94087",
      "phone": "+1 415 7379900",
      "website": "https://order.sweetgreen.com/sunnyvale/menu",
      "opening_hours": "Mo-Su 10:30-21:00",
      "amenity_type": "fast_food",
      "cuisine": "salad"
    },
    {
      "osm_id": 511117188,
      "osm_type": "node",
      "name": "Sweetgreen",
      "brand": "Sweetgreen",
      "latitude": 40.0441381,
      "longitude": -75.3831088,
      "address": "East Lancaster Avenue",
      "city": "Wayne",
      "state": "PA",
      "postcode": "19087",
      "phone": "+1 215-398-1269",
      "website": "https://order.sweetgreen.com/wayne/menu",
      "opening_hours": "10:00-21:00",
      "amenity_type": "fast_food",
      "cuisine": "salad"
    },
    {
      "osm_id": 626013381,
      "osm_type": "node",
      "name": "Sweetgreen",
      "brand": "Sweetgreen",
      "latitude": 40.8073542,
      "longitude": -73.9647166,
      "address": "Broadway",
      "city": "New York",
      "state": "NY",
      "postcode": "10025",
      "phone": "+1-917-675-6616",
      "website": "https://order.sweetgreen.com/columbia-u/menu",
      "opening_hours": "Mo-Su 10:30-22:00",
      "amenity_type": "fast_food",
      "cuisine": "salad"
    },
    {
      "osm_id": 945574884,
      "osm_type": "node",
      "name": "Sweetgreen",
      "brand": "Sweetgreen",
      "latitude": 44.9739642,
      "longitude": -93.2300642,
      "address": "Southeast Washington Avenue",
      "city": "Minneapolis",
      "state": "MN",
      "postcode": "55414",
      "phone": "",
      "website": "https://www.sweetgreen.com/",
      "opening_hours": "",
      "amenity_type": "fast_food",
      "cuisine": "salad"
    },
    {
      "osm_id": 1091595502,
      "osm_type": "node",
      "name": "Sweetgreen",
      "brand": "Sweetgreen",
      "latitude": 38.9810619,
      "longitude": -77.0969877,
      "address": "Bethesda Avenue",
      "city": "Bethesda",
      "state": "MD",
      "postcode": "20814",
      "phone": "",
      "website": "https://sweetgreen.com/",
      "opening_hours": "Mo-Su 09:30-21:00",
      "amenity_type": "fast_food",
      "cuisine": "salad"
    },
    {
      "osm_id": 1305395333,
      "osm_type": "node",
      "name": "Sweetgreen",
      "brand": "Sweetgreen",
      "latitude": 40.0191275,
      "longitude": -105.274653,
      "address": "Pearl Street",
      "city": "Boulder",
      "state": "",
      "postcode": "80302",
      "phone": "",
      "website": "https://www.sweetgreen.com",
      "opening_hours": "",
      "amenity_type": "fast_food",
      "cuisine": "salad"
    },
    {
      "osm_id": 2107713539,
      "osm_type": "node",
      "name": "Sweetgreen",
      "brand": "Sweetgreen",
      "latitude": 39.9540663,
      "longitude": -75.2011902,
      "address": "Walnut Street",
      "city": "Philadelphia",
      "state": "PA",
      "postcode": "19104",
      "phone": "+1-215-286-1365",
      "website": "https://sweetgreen.com",
      "opening_hours": "Mo-Th 10:30-22:00; Fr-Sa 10:30-23:00; Su 10:30-22:00",
      "amenity_type": "fast_food",
      "cuisine": "salad"
    },
    {
      "osm_id": 2180030515,
      "osm_type": "node",
      "name": "Sweetgreen",
      "brand": "Sweetgreen",
      "latitude": 38.903944,
      "longitude": -77.043883,
      "address": "L Street Northwest",
      "city": "Washington",
      "state": "DC",
      "postcode": "20036",
      "phone": "+1-202-331-3355",
      "website": "",
      "opening_hours": "",
      "amenity_type": "fast_food",
      "cuisine": "salad"
    },
    {
      "osm_id": 2282784638,
      "osm_type": "node",
      "name": "Sweetgreen",
      "brand": "Sweetgreen",
      "latitude": 42.0471443,
      "longitude": -87.6816348,
      "address": "Sherman Avenue",
      "city": "Evanston",
      "state": "IL",
      "postcode": "60201",
      "phone": "+1-847-892-1700",
      "website": "https://www.sweetgreen.com/",
      "opening_hours": "",
      "amenity_type": "fast_food",
      "cuisine": "salad"
    },
    {
      "osm_id": 2294778222,
      "osm_type": "node",
      "name": "Sweetgreen",
      "brand": "Sweetgreen",
      "latitude": 38.8723961,
      "longitude": -77.2287521,
      "address": "District Avenue",
      "city": "Fairfax",
      "state": "VA",
      "postcode": "22031",
      "phone": "+1 703-992-7892",
      "website": "https://order.sweetgreen.com/mosaic/menu",
      "opening_hours": "Mo-Su 10:30-22:00",
      "amenity_type": "fast_food",
      "cuisine": "salad"
    },
    {
      "osm_id": 2328402797,
      "osm_type": "node",
      "name": "Sweetgreen",
      "brand": "Sweetgreen",
      "latitude": 37.8008281,
      "longitude": -122.273632,
      "address": "Broadway",
      "city": "Oakland",
      "state": "",
      "postcode": "94612",
      "phone": "",
      "website": "",
      "opening_hours": "",
      "amenity_type": "fast_food",
      "cuisine": "salad"
    },
    {
      "osm_id": 2390850324,
      "osm_type": "node",
      "name": "Sweetgreen",
      "brand": "Sweetgreen",
      "latitude": 33.7877111,
      "longitude": -84.3833018,
      "address": "Peachtree Street Northeast",
      "city": "",
      "state": "GA",
      "postcode": "30361",
      "phone": "+1 770-766-1600",
      "website": "https://order.sweetgreen.com/14th-peachtree/menu",
      "opening_hours": "Mo-Fr 10:30-20:00; Sa-Su 10:30-16:00",
      "amenity_type": "fast_food",
      "cuisine": "salad"
    },
    {
      "osm_id": 2402694703,
      "osm_type": "node",
      "name": "Sweetgreen",
      "brand": "Sweetgreen",
      "latitude": 38.91932,
      "longitude": -77.0313431,
      "address": "W Street Northwest",
      "city": "Washington",
      "state": "DC",
      "postcode": "20009",
      "phone": "+1 202-506-2956",
      "website": "https://sweetgreen.com/",
      "opening_hours": "",
      "amenity_type": "fast_food",
      "cuisine": "salad"
    },
    {
      "osm_id": 2419110693,
      "osm_type": "node",
      "name": "Sweetgreen",
      "brand": "Sweetgreen",
      "latitude": 38.8959797,
      "longitude": -77.021445,
      "address": "E Street Northwest",
      "city": "",
      "state": "",
      "postcode": "20004",
      "phone": "+1 202-804-2250",
      "website": "https://order.sweetgreen.com/penn-quarter/menu",
      "opening_hours": "Mo-Fr 10:30-20:00; Sa-Su 10:30-15:00",
      "amenity_type": "fast_food",
      "cuisine": "salad"
    },
    {
      "osm_id": 2527022948,
      "osm_type": "node",
      "name": "Sweetgreen",
      "brand": "Sweetgreen",
      "latitude": 38.8870475,
      "longitude": -77.0026986,
      "address": "Pennsylvania Avenue Southeast",
      "city": "Washington",
      "state": "DC",
      "postcode": "20003",
      "phone": "+1 202-547-9338",
      "website": "https://sweetgreen.com/",
      "opening_hours": "Mo-Su 10:30-22:00",
      "amenity_type": "fast_food",
      "cuisine": "salad"
    },
    {
      "osm_id": 2546985529,
      "osm_type": "node",
      "name": "Sweetgreen",
      "brand": "Sweetgreen",
      "latitude": 40.7264799,
      "longitude": -73.9914802,
      "address": "",
      "city": "",
      "state": "",
      "postcode": "",
      "phone": "",
      "website": "",
      "opening_hours": "Mo-Su 10:30-21:00",
      "amenity_type": "fast_food",
      "cuisine": "salad"
    },
    {
      "osm_id": 2562454119,
      "osm_type": "node",
      "name": "Sweetgreen",
      "brand": "Sweetgreen",
      "latitude": 40.7299618,
      "longitude": -74.0024288,
      "address": "Bleecker Street",
      "city": "",
      "state": "",
      "postcode": "10014",
      "phone": "",
      "website": "",
      "opening_hours": "",
      "amenity_type": "fast_food",
      "cuisine": "salad"
    },
    {
      "osm_id": 2569887980,
      "osm_type": "node",
      "name": "Sweetgreen",
      "brand": "Sweetgreen",
      "latitude": 40.7199987,
      "longitude": -73.8447148,
      "address": "71st Avenue",
      "city": "Forest Hills",
      "state": "NY",
      "postcode": "11375",
      "phone": "",
      "website": "https://www.sweetgreen.com/",
      "opening_hours": "Mo-Su 10:00-22:00",
      "amenity_type": "fast_food",
      "cuisine": "salad"
    },
    {
      "osm_id": 2712067239,
      "osm_type": "node",
      "name": "Sweetgreen",
      "brand": "Sweetgreen",
      "latitude": 40.679757,
      "longitude": -73.9746614,
      "address": "",
      "city": "",
      "state": "",
      "postcode": "",
      "phone": "+1-929-552-2850",
      "website": "https://order.sweetgreen.com/park-slope",
      "opening_hours": "Mo-Su 10:30-22:00",
      "amenity_type": "fast_food",
      "cuisine": "salad"
    },
    {
      "osm_id": 2723751143,
      "osm_type": "node",
      "name": "Sweetgreen",
      "brand": "Sweetgreen",
      "latitude": 40.7670985,
      "longitude": -73.9567312,
      "address": "1st Avenue",
      "city": "New York",
      "state": "NY",
      "postcode": "10021",
      "phone": "",
      "website": "https://www.sweetgreen.com/",
      "opening_hours": "",
      "amenity_type": "fast_food",
      "cuisine": "salad"
    },
    {
      "osm_id": 2742714806,
      "osm_type": "node",
      "name": "Sweetgreen",
      "brand": "Sweetgreen",
      "latitude": 42.2789335,
      "longitude": -83.7406535,
      "address": "South State Street",
      "city": "Ann Arbor",
      "state": "MI",
      "postcode": "48104",
      "phone": "+17346009030",
      "website": "https://www.sweetgreen.com/",
      "opening_hours": "Mo-Su 10:30-20:00",
      "amenity_type": "fast_food",
      "cuisine": "salad"
    },
    {
      "osm_id": 2745436362,
      "osm_type": "node",
      "name": "Sweetgreen",
      "brand": "Sweetgreen",
      "latitude": 40.780345,
      "longitude": -73.9801482,
      "address": "Amsterdam Avenue",
      "city": "New York",
      "state": "NY",
      "postcode": "10023",
      "phone": "",
      "website": "",
      "opening_hours": "",
      "amenity_type": "fast_food",
      "cuisine": "salad"
    },
    {
      "osm_id": 3000023676,
      "osm_type": "node",
      "name": "Sweetgreen",
      "brand": "Sweetgreen",
      "latitude": 38.9009587,
      "longitude": -77.0497296,
      "address": "I Street Northwest",
      "city": "Washington",
      "state": "DC",
      "postcode": "20037",
      "phone": "+1 202-937-1412",
      "website": "",
      "opening_hours": "",
      "amenity_type": "fast_food",
      "cuisine": "salad"
    },
    {
      "osm_id": 3008727681,
      "osm_type": "node",
      "name": "Sweetgreen",
      "brand": "Sweetgreen",
      "latitude": 38.9098132,
      "longitude": -77.0339893,
      "address": "P Street Northwest",
      "city": "Washington",
      "state": "DC",
      "postcode": "20005",
      "phone": "+1 202-234-7336",
      "website": "https://www.sweetgreen.com/",
      "opening_hours": "Mo-Su 10:30-22:00",
      "amenity_type": "fast_food",
      "cuisine": "salad"
    },
    {
      "osm_id": 3099875496,
      "osm_type": "node",
      "name": "Sweetgreen",
      "brand": "Sweetgreen",
      "latitude": 38.9051079,
      "longitude": -77.0495276,
      "address": "M Street Northwest",
      "city": "Washington",
      "state": "DC",
      "postcode": "20037",
      "phone": "",
      "website": "",
      "opening_hours": "Mo-Fr 09:30-22:00; Sa-Su 09:30-20:00",
      "amenity_type": "fast_food",
      "cuisine": "salad"
    },
    {
      "osm_id": 3242027656,
      "osm_type": "node",
      "name": "Sweetgreen",
      "brand": "Sweetgreen",
      "latitude": 41.3109145,
      "longitude": -72.9300638,
      "address": "",
      "city": "",
      "state": "",
      "postcode": "",
      "phone": "",
      "website": "",
      "opening_hours": "",
      "amenity_type": "fast_food",
      "cuisine": "salad"
    },
    {
      "osm_id": 3654956600,
      "osm_type": "node",
      "name": "Sweetgreen",
      "brand": "Sweetgreen",
      "latitude": 38.8801308,
      "longitude": -77.108586,
      "address": "Wilson Boulevard",
      "city": "Arlington",
      "state": "VA",
      "postcode": "22203",
      "phone": "+1-703-522-2016",
      "website": "https://order.sweetgreen.com/ballston/menu",
      "opening_hours": "Mo-Su 10:30-22:00",
      "amenity_type": "fast_food",
      "cuisine": "salad"
    },
    {
      "osm_id": 3710986602,
      "osm_type": "node",
      "name": "Sweetgreen",
      "brand": "Sweetgreen",
      "latitude": 38.8751204,
      "longitude": -77.0002718,
      "address": "4th Street Southeast",
      "city": "Washington",
      "state": "DC",
      "postcode": "20003",
      "phone": "+1 202-554-7336",
      "website": "",
      "opening_hours": "",
      "amenity_type": "fast_food",
      "cuisine": "salad"
    },
    {
      "osm_id": 3884180052,
      "osm_type": "node",
      "name": "Sweetgreen",
      "brand": "Sweetgreen",
      "latitude": 38.9331422,
      "longitude": -77.1760328,
      "address": "Old Dominion Drive",
      "city": "McLean",
      "state": "VA",
      "postcode": "22101",
      "phone": "",
      "website": "",
      "opening_hours": "10:30-21:00",
      "amenity_type": "fast_food",
      "cuisine": "salad"
    },
    {
      "osm_id": 3908803756,
      "osm_type": "node",
      "name": "Sweetgreen",
      "brand": "Sweetgreen",
      "latitude": 42.256724,
      "longitude": -83.6979354,
      "address": "Washtenaw Avenue",
      "city": "",
      "state": "",
      "postcode": "",
      "phone": "",
      "website": "",
      "opening_hours": "",
      "amenity_type": "fast_food",
      "cuisine": "salad"
    },
    {
      "osm_id": 3934945757,
      "osm_type": "node",
      "name": "Sweetgreen",
      "brand": "Sweetgreen",
      "latitude": 39.284474,
      "longitude": -76.598552,
      "address": "Fleet Street",
      "city": "Baltimore",
      "state": "MD",
      "postcode": "21202-4774",
      "phone": "+1-410-537-5006",
      "website": "",
      "opening_hours": "",
      "amenity_type": "fast_food",
      "cuisine": "salad"
    },
    {
      "osm_id": 4300127190,
      "osm_type": "node",
      "name": "Sweetgreen",
      "brand": "Sweetgreen",
      "latitude": 40.7213348,
      "longitude": -74.0097675,
      "address": "Greenwich Street",
      "city": "New York",
      "state": "",
      "postcode": "10013",
      "phone": "",
      "website": "",
      "opening_hours": "",
      "amenity_type": "fast_food",
      "cuisine": "salad"
    },
    {
      "osm_id": 4300138589,
      "osm_type": "node",
      "name": "Sweetgreen",
      "brand": "Sweetgreen",
      "latitude": 40.7448058,
      "longitude": -73.9886256,
      "address": "Broadway",
      "city": "New York",
      "state": "NY",
      "postcode": "10001",
      "phone": "+1 646 449 8884",
      "website": "https://order.sweetgreen.com/nomad/",
      "opening_hours": "Mo-Su 10:30-22:30",
      "amenity_type": "fast_food",
      "cuisine": "salad"
    },
    {
      "osm_id": 4300138689,
      "osm_type": "node",
      "name": "Sweetgreen",
      "brand": "Sweetgreen",
      "latitude": 40.7211727,
      "longitude": -73.9970047,
      "address": "Kenmare Street",
      "city": "",
      "state": "",
      "postcode": "10012",
      "phone": "+1 646-964-6012",
      "website": "https://order.sweetgreen.com/nolita/menu",
      "opening_hours": "10:30-20:00",
      "amenity_type": "fast_food",
      "cuisine": "salad"
    },
    {
      "osm_id": 4406184596,
      "osm_type": "node",
      "name": "Sweetgreen",
      "brand": "Sweetgreen",
      "latitude": 42.3609942,
      "longitude": -71.0683995,
      "address": "Cambridge Street",
      "city": "Boston",
      "state": "MA",
      "postcode": "02114",
      "phone": "",
      "website": "",
      "opening_hours": "Mo-Su 09:30-22:00",
      "amenity_type": "fast_food",
      "cuisine": "salad"
    },
    {
      "osm_id": 4846152821,
      "osm_type": "node",
      "name": "Sweetgreen",
      "brand": "Sweetgreen",
      "latitude": 40.7056103,
      "longitude": -74.0082609,
      "address": "Wall Street",
      "city": "",
      "state": "",
      "postcode": "10005",
      "phone": "+1-212-487-9030",
      "website": "https://order.sweetgreen.com/wall-street/menu",
      "opening_hours": "Mo-Su 10:30-21:00",
      "amenity_type": "fast_food",
      "cuisine": "salad"
    },
    {
      "osm_id": 4972426424,
      "osm_type": "node",
      "name": "Sweetgreen",
      "brand": "Sweetgreen",
      "latitude": 42.5168261,
      "longitude": -71.0355947,
      "address": "",
      "city": "",
      "state": "",
      "postcode": "",
      "phone": "",
      "website": "",
      "opening_hours": "Fr,Sa 10:30-22:00; Mo-Th 10:30-22:00",
      "amenity_type": "fast_food",
      "cuisine": "salad"
    },
    {
      "osm_id": 5021324222,
      "osm_type": "node",
      "name": "Sweetgreen",
      "brand": "Sweetgreen",
      "latitude": 34.0722015,
      "longitude": -118.365058,
      "address": "West 3rd Street",
      "city": "",
      "state": "",
      "postcode": "",
      "phone": "",
      "website": "",
      "opening_hours": "",
      "amenity_type": "fast_food",
      "cuisine": "salad"
    },
    {
      "osm_id": 5212781428,
      "osm_type": "node",
      "name": "Sweetgreen",
      "brand": "Sweetgreen",
      "latitude": 38.88648,
      "longitude": -77.0954427,
      "address": "Clarendon Boulevard",
      "city": "Arlington",
      "state": "VA",
      "postcode": "22201",
      "phone": "+1 571-290-3956",
      "website": "https://www.sweetgreen.com/",
      "opening_hours": "Mo-Su 10:30-22:00",
      "amenity_type": "fast_food",
      "cuisine": "salad"
    },
    {
      "osm_id": 5264640777,
      "osm_type": "node",
      "name": "sweetgreen",
      "brand": "",
      "latitude": 33.7112419,
      "longitude": -117.818202,
      "address": "Kensington Park Drive",
      "city": "Tustin",
      "state": "CA",
      "postcode": "92782",
      "phone": "",
      "website": "",
      "opening_hours": "10:30-21:00",
      "amenity_type": "restaurant",
      "cuisine": ""
    },
    {
      "osm_id": 5338488657,
      "osm_type": "node",
      "name": "Sweetgreen",
      "brand": "Sweetgreen",
      "latitude": 34.0505562,
      "longitude": -118.254112,
      "address": "",
      "city": "",
      "state": "",
      "postcode": "",
      "phone": "",
      "website": "",
      "opening_hours": "",
      "amenity_type": "fast_food",
      "cuisine": "salad"
    },
    {
      "osm_id": 5458146194,
      "osm_type": "node",
      "name": "Sweetgreen",
      "brand": "Sweetgreen",
      "latitude": 41.8931411,
      "longitude": -87.6278662,
      "address": "North State Street",
      "city": "Chicago",
      "state": "IL",
      "postcode": "60654",
      "phone": "+1-312-374-8173",
      "website": "https://www.sweetgreen.com/",
      "opening_hours": "Mo-Su 10:30-22:00",
      "amenity_type": "fast_food",
      "cuisine": "salad"
    },
    {
      "osm_id": 5458181080,
      "osm_type": "node",
      "name": "Sweetgreen",
      "brand": "Sweetgreen",
      "latitude": 34.0169375,
      "longitude": -118.495511,
      "address": "4th Street",
      "city": "Santa Monica",
      "state": "CA",
      "postcode": "90401",
      "phone": "+1-424-744-8321",
      "website": "https://www.sweetgreen.com/",
      "opening_hours": "Mo-Su 10:30-22:00",
      "amenity_type": "fast_food",
      "cuisine": "salad"
    },
    {
      "osm_id": 5640147127,
      "osm_type": "node",
      "name": "Sweetgreen",
      "brand": "Sweetgreen",
      "latitude": 38.854417,
      "longitude": -77.049649,
      "address": "Crystal Drive",
      "city": "Arlington",
      "state": "VA",
      "postcode": "22202-3730",
      "phone": "+1-703-685-9089",
      "website": "",
      "opening_hours": "Mo-Fr 10:30-21:00; Sa off; Su off",
      "amenity_type": "fast_food",
      "cuisine": "salad"
    },
    {
      "osm_id": 5726015580,
      "osm_type": "node",
      "name": "Sweetgreen",
      "brand": "Sweetgreen",
      "latitude": 40.7339919,
      "longitude": -73.9925385,
      "address": "University Place",
      "city": "",
      "state": "",
      "postcode": "10003",
      "phone": "",
      "website": "",
      "opening_hours": "",
      "amenity_type": "fast_food",
      "cuisine": "salad"
    },
    {
      "osm_id": 5749774093,
      "osm_type": "node",
      "name": "Sweetgreen",
      "brand": "Sweetgreen",
      "latitude": 42.3576068,
      "longitude": -71.0588177,
      "address": "School Street",
      "city": "Boston",
      "state": "MA",
      "postcode": "",
      "phone": "+1 857 317 4949",
      "website": "https://order.sweetgreen.com/",
      "opening_hours": "Mo-Fr 09:30-20:00; Sa,Su 10:30-16:00",
      "amenity_type": "fast_food",
      "cuisine": "salad"
    },
    {
      "osm_id": 5960160425,
      "osm_type": "node",
      "name": "Sweetgreen",
      "brand": "Sweetgreen",
      "latitude": 42.3328222,
      "longitude": -83.0473917,
      "address": "Woodward Avenue",
      "city": "Detroit",
      "state": "MI",
      "postcode": "48226",
      "phone": "",
      "website": "",
      "opening_hours": "",
      "amenity_type": "fast_food",
      "cuisine": "salad"
    },
    {
      "osm_id": 6030952686,
      "osm_type": "node",
      "name": "Sweetgreen",
      "brand": "Sweetgreen",
      "latitude": 47.6164977,
      "longitude": -122.3376528,
      "address": "Lenora Street",
      "city": "",
      "state": "WA",
      "postcode": "",
      "phone": "",
      "website": "",
      "opening_hours": "Mo-Su 10:30-21:00",
      "amenity_type": "fast_food",
      "cuisine": "salad"
    },
    {
      "osm_id": 6397326468,
      "osm_type": "node",
      "name": "Sweetgreen",
      "brand": "Sweetgreen",
      "latitude": 40.7526876,
      "longitude": -74.0011152,
      "address": "Hudson Yards",
      "city": "New York",
      "state": "NY",
      "postcode": "10001",
      "phone": "+1 646-832-4350",
      "website": "https://order.sweetgreen.com/hudson-yards/menu",
      "opening_hours": "Mo-Fr 10:30-21:00; Sa, Su 10:30-20:00",
      "amenity_type": "fast_food",
      "cuisine": "salad"
    },
    {
      "osm_id": 6534166846,
      "osm_type": "node",
      "name": "Sweetgreen",
      "brand": "Sweetgreen",
      "latitude": 40.6899213,
      "longitude": -73.9920718,
      "address": "Court Street",
      "city": "Brooklyn",
      "state": "NY",
      "postcode": "11201",
      "phone": "+1-347-767-6800",
      "website": "https://order.sweetgreen.com/court-atlantic/menu",
      "opening_hours": "Mo-Su 10:30-22:00",
      "amenity_type": "fast_food",
      "cuisine": "salad"
    },
    {
      "osm_id": 6551565572,
      "osm_type": "node",
      "name": "Sweetgreen",
      "brand": "Sweetgreen",
      "latitude": 42.3539018,
      "longitude": -71.05857,
      "address": "Summer Street",
      "city": "Boston",
      "state": "MA",
      "postcode": "02110",
      "phone": "+16178704700",
      "website": "https://order.sweetgreen.com/",
      "opening_hours": "Mo-Su 10:30-21:00",
      "amenity_type": "fast_food",
      "cuisine": "salad"
    },
    {
      "osm_id": 6573548978,
      "osm_type": "node",
      "name": "Sweetgreen",
      "brand": "Sweetgreen",
      "latitude": 38.9922712,
      "longitude": -76.9335839,
      "address": "Baltimore Avenue",
      "city": "College Park",
      "state": "MD",
      "postcode": "20740",
      "phone": "+1--240-770-4443",
      "website": "https://www.sweetgreen.com/",
      "opening_hours": "10:30-22:00",
      "amenity_type": "fast_food",
      "cuisine": "salad"
    },
    {
      "osm_id": 6680686157,
      "osm_type": "node",
      "name": "Sweetgreen",
      "brand": "Sweetgreen",
      "latitude": 40.76368,
      "longitude": -73.9674808,
      "address": "East 61st Street",
      "city": "",
      "state": "",
      "postcode": "10065",
      "phone": "+1 646-859-1300",
      "website": "https://order.sweetgreen.com/61st-lex/menu",
      "opening_hours": "10:30-21:00",
      "amenity_type": "fast_food",
      "cuisine": "salad"
    },
    {
      "osm_id": 6681888951,
      "osm_type": "node",
      "name": "Sweetgreen",
      "brand": "Sweetgreen",
      "latitude": 40.7029088,
      "longitude": -73.9897892,
      "address": "",
      "city": "",
      "state": "",
      "postcode": "",
      "phone": "",
      "website": "",
      "opening_hours": "",
      "amenity_type": "fast_food",
      "cuisine": "salad"
    },
    {
      "osm_id": 6770988481,
      "osm_type": "node",
      "name": "Sweetgreen",
      "brand": "Sweetgreen",
      "latitude": 33.9790825,
      "longitude": -118.438232,
      "address": "",
      "city": "",
      "state": "",
      "postcode": "",
      "phone": "",
      "website": "",
      "opening_hours": "",
      "amenity_type": "fast_food",
      "cuisine": "salad"
    },
    {
      "osm_id": 7100193728,
      "osm_type": "node",
      "name": "Sweetgreen",
      "brand": "Sweetgreen",
      "latitude": 42.3728716,
      "longitude": -71.1200734,
      "address": "John F. Kennedy Street",
      "city": "Cambridge",
      "state": "MA",
      "postcode": "02138",
      "phone": "+16179413400",
      "website": "https://www.sweetgreen.com",
      "opening_hours": "Mo-Fr 09:30-23:00; Sa-Su 10:30-22:00",
      "amenity_type": "fast_food",
      "cuisine": "salad"
    },
    {
      "osm_id": 7499693357,
      "osm_type": "node",
      "name": "Sweetgreen",
      "brand": "Sweetgreen",
      "latitude": 42.3499713,
      "longitude": -71.0786511,
      "address": "Boylston Street",
      "city": "Boston",
      "state": "MA",
      "postcode": "02116",
      "phone": "+1-617-936-3464",
      "website": "https://order.sweetgreen.com/back-bay/menu",
      "opening_hours": "Mo-Fr 10:30-22:00; Sa-Su 10:30-21:00",
      "amenity_type": "fast_food",
      "cuisine": "salad"
    },
    {
      "osm_id": 7683106105,
      "osm_type": "node",
      "name": "Sweetgreen",
      "brand": "Sweetgreen",
      "latitude": 42.3449449,
      "longitude": -71.1006972,
      "address": "Brookline Avenue",
      "city": "Boston",
      "state": "MA",
      "postcode": "02215",
      "phone": "+1-857-233-2673",
      "website": "https://order.sweetgreen.com/fenway/menu",
      "opening_hours": "Mo-Su 10:30-22:00",
      "amenity_type": "fast_food",
      "cuisine": "salad"
    },
    {
      "osm_id": 7689627185,
      "osm_type": "node",
      "name": "Sweetgreen",
      "brand": "Sweetgreen",
      "latitude": 42.3003032,
      "longitude": -71.2921904,
      "address": "",
      "city": "",
      "state": "",
      "postcode": "",
      "phone": "",
      "website": "",
      "opening_hours": "",
      "amenity_type": "fast_food",
      "cuisine": "salad"
    },
    {
      "osm_id": 7777144264,
      "osm_type": "node",
      "name": "Sweetgreen",
      "brand": "Sweetgreen",
      "latitude": 42.3469126,
      "longitude": -71.0833375,
      "address": "Boylston Street",
      "city": "Boston",
      "state": "MA",
      "postcode": "02199",
      "phone": "+1-857-753-4982",
      "website": "https://order.sweetgreen.com/prudential-center/menu",
      "opening_hours": "Mo-Fr 10:30-20:00",
      "amenity_type": "fast_food",
      "cuisine": "salad"
    },
    {
      "osm_id": 7975445401,
      "osm_type": "node",
      "name": "Sweetgreen",
      "brand": "Sweetgreen",
      "latitude": 42.3188042,
      "longitude": -71.1758666,
      "address": "Boylston Street",
      "city": "Chestnut Hill",
      "state": "MA",
      "postcode": "02467",
      "phone": "+1 617-916-0788",
      "website": "https://www.sweetgreen.com",
      "opening_hours": "Mo-Su 10:30-22:00",
      "amenity_type": "fast_food",
      "cuisine": "salad"
    },
    {
      "osm_id": 8266016011,
      "osm_type": "node",
      "name": "Sweetgreen",
      "brand": "Sweetgreen",
      "latitude": 41.8883978,
      "longitude": -87.8043629,
      "address": "Lake Street",
      "city": "Oak Park",
      "state": "IL",
      "postcode": "60301",
      "phone": "",
      "website": "https://www.sweetgreen.com/",
      "opening_hours": "",
      "amenity_type": "fast_food",
      "cuisine": "salad"
    },
    {
      "osm_id": 8300188874,
      "osm_type": "node",
      "name": "Sweetgreen",
      "brand": "Sweetgreen",
      "latitude": 34.0713172,
      "longitude": -118.343807,
      "address": "",
      "city": "",
      "state": "",
      "postcode": "",
      "phone": "",
      "website": "",
      "opening_hours": "",
      "amenity_type": "fast_food",
      "cuisine": "salad"
    },
    {
      "osm_id": 8474060326,
      "osm_type": "node",
      "name": "Sweetgreen",
      "brand": "Sweetgreen",
      "latitude": 29.7156942,
      "longitude": -95.4174958,
      "address": "Amherst Street",
      "city": "Houston",
      "state": "TX",
      "postcode": "77005",
      "phone": "+1-832-720-7500",
      "website": "https://www.sweetgreen.com/",
      "opening_hours": "Mo-Su 10:30-21:00",
      "amenity_type": "fast_food",
      "cuisine": "salad"
    },
    {
      "osm_id": 8492111452,
      "osm_type": "node",
      "name": "Sweetgreen",
      "brand": "Sweetgreen",
      "latitude": 38.924718,
      "longitude": -77.2248474,
      "address": "",
      "city": "",
      "state": "",
      "postcode": "",
      "phone": "",
      "website": "",
      "opening_hours": "",
      "amenity_type": "fast_food",
      "cuisine": "salad"
    },
    {
      "osm_id": 8510829573,
      "osm_type": "node",
      "name": "Sweetgreen",
      "brand": "Sweetgreen",
      "latitude": 41.7996983,
      "longitude": -87.5889546,
      "address": "East 53rd Street",
      "city": "Chicago",
      "state": "IL",
      "postcode": "60615",
      "phone": "",
      "website": "https://sweetgreen.com",
      "opening_hours": "",
      "amenity_type": "fast_food",
      "cuisine": "salad"
    },
    {
      "osm_id": 8743665981,
      "osm_type": "node",
      "name": "Sweetgreen",
      "brand": "Sweetgreen",
      "latitude": 41.9114684,
      "longitude": -87.6507599,
      "address": "West North Avenue",
      "city": "Chicago",
      "state": "IL",
      "postcode": "60642",
      "phone": "",
      "website": "",
      "opening_hours": "",
      "amenity_type": "fast_food",
      "cuisine": "salad"
    },
    {
      "osm_id": 8769344317,
      "osm_type": "node",
      "name": "Sweetgreen",
      "brand": "Sweetgreen",
      "latitude": 40.7154591,
      "longitude": -74.0088142,
      "address": "",
      "city": "",
      "state": "",
      "postcode": "",
      "phone": "",
      "website": "",
      "opening_hours": "",
      "amenity_type": "fast_food",
      "cuisine": "salad"
    },
    {
      "osm_id": 8785244238,
      "osm_type": "node",
      "name": "Sweetgreen",
      "brand": "Sweetgreen",
      "latitude": 40.7652451,
      "longitude": -73.9817646,
      "address": "",
      "city": "",
      "state": "",
      "postcode": "",
      "phone": "",
      "website": "https://www.sweetgreen.com",
      "opening_hours": "",
      "amenity_type": "fast_food",
      "cuisine": "salad"
    },
    {
      "osm_id": 8787410957,
      "osm_type": "node",
      "name": "Sweetgreen",
      "brand": "Sweetgreen",
      "latitude": 40.7743806,
      "longitude": -73.9807521,
      "address": "Columbus Avenue",
      "city": "New York",
      "state": "NY",
      "postcode": "10023",
      "phone": "",
      "website": "",
      "opening_hours": "Mo-Su 10:30-22:00",
      "amenity_type": "fast_food",
      "cuisine": "salad"
    },
    {
      "osm_id": 8858911295,
      "osm_type": "node",
      "name": "Sweetgreen",
      "brand": "Sweetgreen",
      "latitude": 37.3908565,
      "longitude": -122.08114,
      "address": "Castro Street",
      "city": "",
      "state": "",
      "postcode": "",
      "phone": "+1-650-753-7300",
      "website": "",
      "opening_hours": "Mo-Fr 10:30-20:00; Sa-Su 10:30-18:00",
      "amenity_type": "fast_food",
      "cuisine": "salad"
    },
    {
      "osm_id": 9044218519,
      "osm_type": "node",
      "name": "Sweetgreen",
      "brand": "Sweetgreen",
      "latitude": 38.8625366,
      "longitude": -77.0562547,
      "address": "12th Street South",
      "city": "Arlington",
      "state": "VA",
      "postcode": "22202",
      "phone": "+1 703-888-1025",
      "website": "https://order.sweetgreen.com/pentagon-city/",
      "opening_hours": "Mo-Su 10:30-22:00",
      "amenity_type": "fast_food",
      "cuisine": "salad"
    },
    {
      "osm_id": 9130653630,
      "osm_type": "node",
      "name": "Sweetgreen",
      "brand": "Sweetgreen",
      "latitude": 40.6919962,
      "longitude": -73.9845653,
      "address": "Willoughby Street",
      "city": "Brooklyn",
      "state": "NY",
      "postcode": "11201",
      "phone": "+1-646-916-3162",
      "website": "https://order.sweetgreen.com/downtown-brooklyn/menu",
      "opening_hours": "Mo-Su 10:30-21:00",
      "amenity_type": "fast_food",
      "cuisine": "salad"
    },
    {
      "osm_id": 9219692852,
      "osm_type": "node",
      "name": "Sweetgreen",
      "brand": "Sweetgreen",
      "latitude": 41.9799664,
      "longitude": -87.6684584,
      "address": "North Clark Street",
      "city": "Chicago",
      "state": "IL",
      "postcode": "60640",
      "phone": "",
      "website": "https://order.sweetgreen.com",
      "opening_hours": "",
      "amenity_type": "fast_food",
      "cuisine": "salad"
    },
    {
      "osm_id": 9307471061,
      "osm_type": "node",
      "name": "Sweetgreen",
      "brand": "Sweetgreen",
      "latitude": 34.0602033,
      "longitude": -118.4462156,
      "address": "",
      "city": "",
      "state": "",
      "postcode": "",
      "phone": "",
      "website": "",
      "opening_hours": "Mo-Su 10:30-21:00",
      "amenity_type": "fast_food",
      "cuisine": "salad"
    },
    {
      "osm_id": 9371481393,
      "osm_type": "node",
      "name": "Sweetgreen",
      "brand": "Sweetgreen",
      "latitude": 34.0581841,
      "longitude": -118.417494,
      "address": "",
      "city": "",
      "state": "",
      "postcode": "",
      "phone": "",
      "website": "",
      "opening_hours": "",
      "amenity_type": "fast_food",
      "cuisine": "salad"
    },
    {
      "osm_id": 9380966171,
      "osm_type": "node",
      "name": "Sweetgreen",
      "brand": "Sweetgreen",
      "latitude": 41.8484449,
      "longitude": -87.9528498,
      "address": "",
      "city": "",
      "state": "",
      "postcode": "",
      "phone": "",
      "website": "",
      "opening_hours": "",
      "amenity_type": "fast_food",
      "cuisine": "salad"
    },
    {
      "osm_id": 9413557594,
      "osm_type": "node",
      "name": "Sweetgreen",
      "brand": "Sweetgreen",
      "latitude": 29.7821214,
      "longitude": -95.4082748,
      "address": "North Shepherd Drive",
      "city": "Houston",
      "state": "TX",
      "postcode": "",
      "phone": "",
      "website": "",
      "opening_hours": "",
      "amenity_type": "fast_food",
      "cuisine": "salad"
    },
    {
      "osm_id": 9523370197,
      "osm_type": "node",
      "name": "Sweetgreen",
      "brand": "Sweetgreen",
      "latitude": 42.3389078,
      "longitude": -71.1073866,
      "address": "Longwood Avenue",
      "city": "Boston",
      "state": "MA",
      "postcode": "02215",
      "phone": "+1 781 653 6600",
      "website": "https://order.sweetgreen.com",
      "opening_hours": "Mo-Su 10:30-22:00",
      "amenity_type": "fast_food",
      "cuisine": "salad"
    },
    {
      "osm_id": 9524802584,
      "osm_type": "node",
      "name": "Sweetgreen",
      "brand": "Sweetgreen",
      "latitude": 39.4013558,
      "longitude": -76.6019237,
      "address": "East Joppa Road",
      "city": "Towson",
      "state": "MD",
      "postcode": "21286",
      "phone": "+14102206900",
      "website": "https://order.sweetgreen.com/",
      "opening_hours": "Mo-Su 10:30-21:00",
      "amenity_type": "fast_food",
      "cuisine": "salad"
    },
    {
      "osm_id": 9655030674,
      "osm_type": "node",
      "name": "Sweetgreen",
      "brand": "Sweetgreen",
      "latitude": 38.8054372,
      "longitude": -77.049037,
      "address": "King Street",
      "city": "Alexandria",
      "state": "VA",
      "postcode": "22314",
      "phone": "+1 571-319-0192",
      "website": "https://order.sweetgreen.com/old-town/menu",
      "opening_hours": "Mo-Su 10:30-22:00",
      "amenity_type": "fast_food",
      "cuisine": "salad"
    },
    {
      "osm_id": 9659314880,
      "osm_type": "node",
      "name": "Sweetgreen",
      "brand": "Sweetgreen",
      "latitude": 40.7150442,
      "longitude": -74.0341424,
      "address": "",
      "city": "",
      "state": "",
      "postcode": "",
      "phone": "",
      "website": "",
      "opening_hours": "",
      "amenity_type": "fast_food",
      "cuisine": "salad"
    },
    {
      "osm_id": 9964684740,
      "osm_type": "node",
      "name": "Sweetgreen",
      "brand": "Sweetgreen",
      "latitude": 42.3563484,
      "longitude": -71.0539211,
      "address": "Franklin Street",
      "city": "Boston",
      "state": "MA",
      "postcode": "02210",
      "phone": "+1-617-648-5500",
      "website": "https://order.sweetgreen.com/post-office-square/menu",
      "opening_hours": "Mo-Fr 09:30-20:00",
      "amenity_type": "fast_food",
      "cuisine": "salad"
    },
    {
      "osm_id": 9986922190,
      "osm_type": "node",
      "name": "Sweetgreen",
      "brand": "Sweetgreen",
      "latitude": 33.8983657,
      "longitude": -118.3941905,
      "address": "Sepulveda Boulevard",
      "city": "",
      "state": "",
      "postcode": "",
      "phone": "",
      "website": "",
      "opening_hours": "10:00-22:00",
      "amenity_type": "fast_food",
      "cuisine": "salad"
    },
    {
      "osm_id": 10068030358,
      "osm_type": "node",
      "name": "Sweetgreen",
      "brand": "Sweetgreen",
      "latitude": 34.0539143,
      "longitude": -118.465285,
      "address": "",
      "city": "",
      "state": "",
      "postcode": "",
      "phone": "",
      "website": "",
      "opening_hours": "",
      "amenity_type": "fast_food",
      "cuisine": "salad"
    },
    {
      "osm_id": 10073245911,
      "osm_type": "node",
      "name": "Sweetgreen",
      "brand": "Sweetgreen",
      "latitude": 30.2649271,
      "longitude": -97.7456432,
      "address": "",
      "city": "",
      "state": "",
      "postcode": "",
      "phone": "",
      "website": "",
      "opening_hours": "Mo-Fr 10:30-21:00; Sa,Su 10:30-20:00",
      "amenity_type": "fast_food",
      "cuisine": "salad"
    },
    {
      "osm_id": 10170149789,
      "osm_type": "node",
      "name": "Sweetgreen",
      "brand": "Sweetgreen",
      "latitude": 34.1593786,
      "longitude": -118.8205876,
      "address": "",
      "city": "",
      "state": "",
      "postcode": "",
      "phone": "",
      "website": "",
      "opening_hours": "",
      "amenity_type": "fast_food",
      "cuisine": "salad"
    },
    {
      "osm_id": 10270352163,
      "osm_type": "node",
      "name": "Sweetgreen",
      "brand": "Sweetgreen",
      "latitude": 34.0500837,
      "longitude": -118.254343,
      "address": "",
      "city": "",
      "state": "",
      "postcode": "",
      "phone": "",
      "website": "",
      "opening_hours": "",
      "amenity_type": "fast_food",
      "cuisine": "salad"
    },
    {
      "osm_id": 10674600821,
      "osm_type": "node",
      "name": "Sweetgreen",
      "brand": "Sweetgreen",
      "latitude": 32.8075112,
      "longitude": -96.797088,
      "address": "McKinney Avenue",
      "city": "Dallas",
      "state": "TX",
      "postcode": "75204",
      "phone": "",
      "website": "https://sweetgreen.com",
      "opening_hours": "",
      "amenity_type": "restaurant",
      "cuisine": "salad"
    },
    {
      "osm_id": 10674920907,
      "osm_type": "node",
      "name": "Sweetgreen",
      "brand": "Sweetgreen",
      "latitude": 42.5470201,
      "longitude": -83.2149117,
      "address": "North Old Woodward Avenue",
      "city": "Birmingham",
      "state": "MI",
      "postcode": "48009",
      "phone": "",
      "website": "",
      "opening_hours": "",
      "amenity_type": "fast_food",
      "cuisine": "salad"
    },
    {
      "osm_id": 10679432873,
      "osm_type": "node",
      "name": "Sweetgreen",
      "brand": "Sweetgreen",
      "latitude": 39.9483406,
      "longitude": -75.1571253,
      "address": "",
      "city": "",
      "state": "",
      "postcode": "",
      "phone": "",
      "website": "https://order.sweetgreen.com/10th-walnut",
      "opening_hours": "",
      "amenity_type": "fast_food",
      "cuisine": "salad"
    },
    {
      "osm_id": 10683754073,
      "osm_type": "node",
      "name": "Sweetgreen",
      "brand": "Sweetgreen",
      "latitude": 34.145659,
      "longitude": -118.1379677,
      "address": "East Colorado Boulevard",
      "city": "Pasadena",
      "state": "CA",
      "postcode": "91101",
      "phone": "+1-626-727-9440",
      "website": "https://order.sweetgreen.com/pasadena",
      "opening_hours": "Mo-Th,Su 10:00-21:00; Fr-Sa 10:00-22:00",
      "amenity_type": "fast_food",
      "cuisine": "salad"
    },
    {
      "osm_id": 10686316368,
      "osm_type": "node",
      "name": "Sweetgreen",
      "brand": "Sweetgreen",
      "latitude": 38.9104394,
      "longitude": -77.044214,
      "address": "Connecticut Avenue Northwest",
      "city": "Washington",
      "state": "DC",
      "postcode": "20036-1104",
      "phone": "+1-202-387-9338",
      "website": "https://sweetgreen.com/",
      "opening_hours": "Mo-Su 10:30-22:00",
      "amenity_type": "fast_food",
      "cuisine": "salad"
    },
    {
      "osm_id": 10693690443,
      "osm_type": "node",
      "name": "Sweetgreen",
      "brand": "Sweetgreen",
      "latitude": 40.7474269,
      "longitude": -73.9425436,
      "address": "44th Drive",
      "city": "Long Island City",
      "state": "NY",
      "postcode": "11101",
      "phone": "+1-929-470-2030",
      "website": "https://order.sweetgreen.com/long-island-city/menu",
      "opening_hours": "Mo-Su 10:30-22:00",
      "amenity_type": "fast_food",
      "cuisine": "salad"
    },
    {
      "osm_id": 10710907611,
      "osm_type": "node",
      "name": "Sweetgreen",
      "brand": "Sweetgreen",
      "latitude": 30.2984993,
      "longitude": -97.7050022,
      "address": "Aldrich Street",
      "city": "Austin",
      "state": "TX",
      "postcode": "78723",
      "phone": "+1-737-377-3825",
      "website": "https://www.sweetgreen.com/",
      "opening_hours": "Mo-Su 10:30-22:00",
      "amenity_type": "fast_food",
      "cuisine": "salad"
    },
    {
      "osm_id": 10733831107,
      "osm_type": "node",
      "name": "Sweetgreen",
      "brand": "Sweetgreen",
      "latitude": 34.0925368,
      "longitude": -118.2801522,
      "address": "Sunset Boulevard",
      "city": "",
      "state": "",
      "postcode": "90029",
      "phone": "+1 323-870-6800",
      "website": "https://order.sweetgreen.com/silver-lake",
      "opening_hours": "10:00-22:00",
      "amenity_type": "fast_food",
      "cuisine": "salad"
    },
    {
      "osm_id": 10739372715,
      "osm_type": "node",
      "name": "Sweetgreen",
      "brand": "Sweetgreen",
      "latitude": 41.9250636,
      "longitude": -87.6479875,
      "address": "",
      "city": "",
      "state": "",
      "postcode": "",
      "phone": "",
      "website": "",
      "opening_hours": "",
      "amenity_type": "fast_food",
      "cuisine": "salad"
    },
    {
      "osm_id": 10773902299,
      "osm_type": "node",
      "name": "Sweetgreen",
      "brand": "Sweetgreen",
      "latitude": 33.8342161,
      "longitude": -118.3512293,
      "address": "",
      "city": "",
      "state": "",
      "postcode": "",
      "phone": "",
      "website": "",
      "opening_hours": "",
      "amenity_type": "fast_food",
      "cuisine": "salad"
    },
    {
      "osm_id": 10856271482,
      "osm_type": "node",
      "name": "Sweetgreen",
      "brand": "Sweetgreen",
      "latitude": 41.7603782,
      "longitude": -71.4589026,
      "address": "",
      "city": "",
      "state": "",
      "postcode": "",
      "phone": "",
      "website": "",
      "opening_hours": "",
      "amenity_type": "fast_food",
      "cuisine": "salad"
    },
    {
      "osm_id": 10945307450,
      "osm_type": "node",
      "name": "Sweetgreen",
      "brand": "Sweetgreen",
      "latitude": 41.8784593,
      "longitude": -87.6358149,
      "address": "",
      "city": "",
      "state": "",
      "postcode": "",
      "phone": "",
      "website": "",
      "opening_hours": "",
      "amenity_type": "fast_food",
      "cuisine": "salad"
    },
    {
      "osm_id": 10995829824,
      "osm_type": "node",
      "name": "Sweetgreen",
      "brand": "Sweetgreen",
      "latitude": 39.0531168,
      "longitude": -77.4544472,
      "address": "Exchange Street",
      "city": "",
      "state": "",
      "postcode": "",
      "phone": "",
      "website": "",
      "opening_hours": "10:30-22:00",
      "amenity_type": "fast_food",
      "cuisine": "salad"
    },
    {
      "osm_id": 11068933488,
      "osm_type": "node",
      "name": "Sweetgreen",
      "brand": "Sweetgreen",
      "latitude": 40.7578318,
      "longitude": -73.971131,
      "address": "Lexington Avenue",
      "city": "New York",
      "state": "NY",
      "postcode": "10022",
      "phone": "+1-646-956-2700",
      "website": "https://order.sweetgreen.com/52nd-lex/menu",
      "opening_hours": "Mo-Fr 10:30-21:00",
      "amenity_type": "fast_food",
      "cuisine": "salad"
    },
    {
      "osm_id": 11128905448,
      "osm_type": "node",
      "name": "Sweetgreen",
      "brand": "Sweetgreen",
      "latitude": 33.9792145,
      "longitude": -118.4383352,
      "address": "",
      "city": "",
      "state": "",
      "postcode": "",
      "phone": "",
      "website": "",
      "opening_hours": "",
      "amenity_type": "fast_food",
      "cuisine": "salad"
    },
    {
      "osm_id": 11164934580,
      "osm_type": "node",
      "name": "Sweetgreen",
      "brand": "Sweetgreen",
      "latitude": 39.0505829,
      "longitude": -77.1172075,
      "address": "",
      "city": "",
      "state": "",
      "postcode": "",
      "phone": "",
      "website": "",
      "opening_hours": "",
      "amenity_type": "fast_food",
      "cuisine": "salad"
    },
    {
      "osm_id": 11225615372,
      "osm_type": "node",
      "name": "Sweetgreen",
      "brand": "Sweetgreen",
      "latitude": 40.8136624,
      "longitude": -74.2175472,
      "address": "",
      "city": "",
      "state": "",
      "postcode": "",
      "phone": "",
      "website": "",
      "opening_hours": "",
      "amenity_type": "fast_food",
      "cuisine": "salad"
    },
    {
      "osm_id": 11231124972,
      "osm_type": "node",
      "name": "Sweetgreen",
      "brand": "Sweetgreen",
      "latitude": 38.9581596,
      "longitude": -77.3587438,
      "address": "Library Street",
      "city": "Reston",
      "state": "VA",
      "postcode": "20190",
      "phone": "+1-571-203-0082",
      "website": "",
      "opening_hours": "Mo-Su 11:00-21:00",
      "amenity_type": "fast_food",
      "cuisine": "salad"
    },
    {
      "osm_id": 11238675673,
      "osm_type": "node",
      "name": "Sweetgreen",
      "brand": "Sweetgreen",
      "latitude": 38.8724196,
      "longitude": -77.2288249,
      "address": "",
      "city": "",
      "state": "",
      "postcode": "",
      "phone": "",
      "website": "",
      "opening_hours": "",
      "amenity_type": "fast_food",
      "cuisine": "salad"
    },
    {
      "osm_id": 11268560834,
      "osm_type": "node",
      "name": "Sweetgreen",
      "brand": "Sweetgreen",
      "latitude": 33.0195527,
      "longitude": -117.1105496,
      "address": "Craftsman Way",
      "city": "San Diego",
      "state": "CA",
      "postcode": "92127",
      "phone": "",
      "website": "",
      "opening_hours": "Mo-Su 10:00-21:00",
      "amenity_type": "fast_food",
      "cuisine": "salad"
    },
    {
      "osm_id": 11272453395,
      "osm_type": "node",
      "name": "Sweetgreen",
      "brand": "Sweetgreen",
      "latitude": 41.8845523,
      "longitude": -87.6524414,
      "address": "West Randolph Street",
      "city": "Chicago",
      "state": "IL",
      "postcode": "60607",
      "phone": "",
      "website": "",
      "opening_hours": "Mo-Su 10:30-21:00",
      "amenity_type": "fast_food",
      "cuisine": "salad"
    },
    {
      "osm_id": 11315873177,
      "osm_type": "node",
      "name": "Sweetgreen",
      "brand": "Sweetgreen",
      "latitude": 34.1115438,
      "longitude": -117.5342361,
      "address": "",
      "city": "",
      "state": "",
      "postcode": "",
      "phone": "",
      "website": "",
      "opening_hours": "",
      "amenity_type": "fast_food",
      "cuisine": "salad"
    },
    {
      "osm_id": 11336950638,
      "osm_type": "node",
      "name": "Sweetgreen",
      "brand": "Sweetgreen",
      "latitude": 25.8016774,
      "longitude": -80.1989806,
      "address": "Northwest 2nd Avenue",
      "city": "Miami",
      "state": "FL",
      "postcode": "33127",
      "phone": "+1-305-614-9007",
      "website": "https://order.sweetgreen.com/wynwood/menu",
      "opening_hours": "Mo-Su 10:30-22:00",
      "amenity_type": "fast_food",
      "cuisine": "salad"
    },
    {
      "osm_id": 11359233169,
      "osm_type": "node",
      "name": "Sweetgreen",
      "brand": "Sweetgreen",
      "latitude": 43.0340252,
      "longitude": -87.9070459,
      "address": "East Buffalo Street",
      "city": "Milwaukee",
      "state": "WI",
      "postcode": "53202",
      "phone": "+1-414-250-0205",
      "website": "https://order.sweetgreen.com/third-ward/menu",
      "opening_hours": "Mo-Su 10:30-21:00",
      "amenity_type": "fast_food",
      "cuisine": "salad"
    },
    {
      "osm_id": 11359355883,
      "osm_type": "node",
      "name": "Sweetgreen",
      "brand": "Sweetgreen",
      "latitude": 37.7895948,
      "longitude": -122.3918816,
      "address": "",
      "city": "",
      "state": "",
      "postcode": "",
      "phone": "",
      "website": "",
      "opening_hours": "",
      "amenity_type": "fast_food",
      "cuisine": "salad"
    },
    {
      "osm_id": 11521280860,
      "osm_type": "node",
      "name": "Sweetgreen",
      "brand": "Sweetgreen",
      "latitude": 40.7914554,
      "longitude": -73.9737671,
      "address": "Broadway",
      "city": "New York",
      "state": "NY",
      "postcode": "10025",
      "phone": "+1-917-934-3200",
      "website": "https://order.sweetgreen.com/91st-broadway/menu",
      "opening_hours": "10:30-22:00",
      "amenity_type": "fast_food",
      "cuisine": "salad"
    },
    {
      "osm_id": 11543746984,
      "osm_type": "node",
      "name": "Sweetgreen",
      "brand": "Sweetgreen",
      "latitude": 42.3649341,
      "longitude": -71.089081,
      "address": "Galileo Galilei Way",
      "city": "Cambridge",
      "state": "MA",
      "postcode": "02142",
      "phone": "",
      "website": "",
      "opening_hours": "",
      "amenity_type": "fast_food",
      "cuisine": "salad"
    },
    {
      "osm_id": 11554649659,
      "osm_type": "node",
      "name": "Sweetgreen",
      "brand": "Sweetgreen",
      "latitude": 40.0077702,
      "longitude": -75.2878213,
      "address": "Coulter Avenue",
      "city": "Ardmore",
      "state": "PA",
      "postcode": "19003",
      "phone": "+1-610-642-9400",
      "website": "https://www.sweetgreen.com/locations",
      "opening_hours": "Mo-Su 10:30-22:00",
      "amenity_type": "fast_food",
      "cuisine": "salad"
    },
    {
      "osm_id": 11704876923,
      "osm_type": "node",
      "name": "Sweetgreen",
      "brand": "Sweetgreen",
      "latitude": 40.752375,
      "longitude": -73.9739586,
      "address": "East 44th Street",
      "city": "New York",
      "state": "NY",
      "postcode": "10017",
      "phone": "+1-646-982-0900",
      "website": "https://order.sweetgreen.com/44th-3rd/menu?target=35",
      "opening_hours": "Mo-Su 10:30-22:00",
      "amenity_type": "fast_food",
      "cuisine": "salad"
    },
    {
      "osm_id": 11712056494,
      "osm_type": "node",
      "name": "Sweetgreen",
      "brand": "Sweetgreen",
      "latitude": 34.1520055,
      "longitude": -118.347359,
      "address": "Riverside Drive",
      "city": "",
      "state": "",
      "postcode": "",
      "phone": "+1 818-740-5200",
      "website": "https://sweetgreen.com",
      "opening_hours": "Mo-Th 10:00-22:00; Fr-Su 10:00-21:00",
      "amenity_type": "fast_food",
      "cuisine": "salad"
    },
    {
      "osm_id": 11737926274,
      "osm_type": "node",
      "name": "Sweetgreen",
      "brand": "Sweetgreen",
      "latitude": 37.2885573,
      "longitude": -121.9329434,
      "address": "South Bascom Avenue",
      "city": "Campbell",
      "state": "CA",
      "postcode": "95008",
      "phone": "+1-831-318-7251",
      "website": "https://www.sweetgreen.com/",
      "opening_hours": "Mo-Su 10:30-22:00",
      "amenity_type": "fast_food",
      "cuisine": "salad"
    },
    {
      "osm_id": 11804005342,
      "osm_type": "node",
      "name": "Sweetgreen",
      "brand": "Sweetgreen",
      "latitude": 32.9537424,
      "longitude": -96.8187477,
      "address": "Belt Line Road",
      "city": "Dallas",
      "state": "TX",
      "postcode": "75254",
      "phone": "",
      "website": "https://www.sweetgreen.com/",
      "opening_hours": "",
      "amenity_type": "fast_food",
      "cuisine": "salad"
    },
    {
      "osm_id": 11829015570,
      "osm_type": "node",
      "name": "Sweetgreen",
      "brand": "Sweetgreen",
      "latitude": 38.9094074,
      "longitude": -76.9991733,
      "address": "4th Street Northeast",
      "city": "",
      "state": "",
      "postcode": "20002",
      "phone": "+1 202-891-5954",
      "website": "https://order.sweetgreen.com/union-market/menu",
      "opening_hours": "Mo-Su 10:30-22:00",
      "amenity_type": "fast_food",
      "cuisine": "salad"
    },
    {
      "osm_id": 11872859723,
      "osm_type": "node",
      "name": "Sweetgreen",
      "brand": "Sweetgreen",
      "latitude": 40.7545974,
      "longitude": -73.9830893,
      "address": "West 42nd Street",
      "city": "New York",
      "state": "NY",
      "postcode": "",
      "phone": "",
      "website": "",
      "opening_hours": "",
      "amenity_type": "fast_food",
      "cuisine": "salad"
    },
    {
      "osm_id": 11916860648,
      "osm_type": "node",
      "name": "Sweetgreen",
      "brand": "Sweetgreen",
      "latitude": 41.9266209,
      "longitude": -87.7037116,
      "address": "",
      "city": "",
      "state": "",
      "postcode": "",
      "phone": "",
      "website": "",
      "opening_hours": "",
      "amenity_type": "fast_food",
      "cuisine": "salad"
    },
    {
      "osm_id": 11957650946,
      "osm_type": "node",
      "name": "Sweetgreen",
      "brand": "Sweetgreen",
      "latitude": 32.8726568,
      "longitude": -117.2086856,
      "address": "",
      "city": "",
      "state": "",
      "postcode": "",
      "phone": "",
      "website": "",
      "opening_hours": "Mo-Su 10:00-21:00",
      "amenity_type": "fast_food",
      "cuisine": "salad"
    },
    {
      "osm_id": 11984283672,
      "osm_type": "node",
      "name": "Sweetgreen",
      "brand": "Sweetgreen",
      "latitude": 38.8963344,
      "longitude": -77.0710177,
      "address": "North Lynn Street",
      "city": "",
      "state": "",
      "postcode": "",
      "phone": "+1 703 372 9009",
      "website": "https://order.sweetgreen.com/rosslyn/menu",
      "opening_hours": "Mo-Su 10:30-22:00",
      "amenity_type": "fast_food",
      "cuisine": "salad"
    },
    {
      "osm_id": 12066816705,
      "osm_type": "node",
      "name": "Sweetgreen",
      "brand": "Sweetgreen",
      "latitude": 41.9086886,
      "longitude": -87.6746017,
      "address": "North Milwaukee Avenue",
      "city": "Chicago",
      "state": "IL",
      "postcode": "60622",
      "phone": "",
      "website": "",
      "opening_hours": "",
      "amenity_type": "fast_food",
      "cuisine": "salad"
    },
    {
      "osm_id": 12084013219,
      "osm_type": "node",
      "name": "Sweetgreen",
      "brand": "Sweetgreen",
      "latitude": 42.7718436,
      "longitude": -71.2262941,
      "address": "Artisan Drive",
      "city": "Salem",
      "state": "NH",
      "postcode": "03079",
      "phone": "+1 603 912 2670",
      "website": "",
      "opening_hours": "Mo-Su 10:30-22:00",
      "amenity_type": "fast_food",
      "cuisine": "salad"
    },
    {
      "osm_id": 12085299557,
      "osm_type": "node",
      "name": "Sweetgreen",
      "brand": "Sweetgreen",
      "latitude": 42.2319334,
      "longitude": -71.1773674,
      "address": "",
      "city": "",
      "state": "",
      "postcode": "",
      "phone": "",
      "website": "",
      "opening_hours": "",
      "amenity_type": "fast_food",
      "cuisine": "salad"
    },
    {
      "osm_id": 12092094842,
      "osm_type": "node",
      "name": "Sweetgreen",
      "brand": "Sweetgreen",
      "latitude": 32.9406236,
      "longitude": -97.1347349,
      "address": "East Southlake Boulevard",
      "city": "Southlake",
      "state": "TX",
      "postcode": "76092",
      "phone": "",
      "website": "https://order.sweetgreen.com/southlake",
      "opening_hours": "Mo-Su 10:30-20:00",
      "amenity_type": "fast_food",
      "cuisine": "salad"
    },
    {
      "osm_id": 12146940529,
      "osm_type": "node",
      "name": "Sweetgreen",
      "brand": "Sweetgreen",
      "latitude": 32.9504198,
      "longitude": -117.2331997,
      "address": "",
      "city": "",
      "state": "",
      "postcode": "",
      "phone": "",
      "website": "",
      "opening_hours": "",
      "amenity_type": "fast_food",
      "cuisine": "salad"
    },
    {
      "osm_id": 12164557870,
      "osm_type": "node",
      "name": "Sweetgreen",
      "brand": "Sweetgreen",
      "latitude": 44.9852863,
      "longitude": -93.271692,
      "address": "",
      "city": "",
      "state": "",
      "postcode": "",
      "phone": "",
      "website": "",
      "opening_hours": "",
      "amenity_type": "fast_food",
      "cuisine": "salad"
    },
    {
      "osm_id": 12177511392,
      "osm_type": "node",
      "name": "Sweetgreen",
      "brand": "Sweetgreen",
      "latitude": 33.7715346,
      "longitude": -84.3668407,
      "address": "",
      "city": "",
      "state": "",
      "postcode": "",
      "phone": "",
      "website": "",
      "opening_hours": "",
      "amenity_type": "fast_food",
      "cuisine": "salad"
    },
    {
      "osm_id": 12178839602,
      "osm_type": "node",
      "name": "Sweetgreen",
      "brand": "",
      "latitude": 30.4006129,
      "longitude": -97.7228063,
      "address": "Rock Rose Avenue",
      "city": "",
      "state": "",
      "postcode": "78758",
      "phone": "+1-737-209-5749",
      "website": "https://order.sweetgreen.com/",
      "opening_hours": "Mo-Su 10:30-22:00",
      "amenity_type": "restaurant",
      "cuisine": "beef_bowl;chicken;fish"
    },
    {
      "osm_id": 12254179752,
      "osm_type": "node",
      "name": "Sweetgreen",
      "brand": "Sweetgreen",
      "latitude": 47.6151088,
      "longitude": -122.3179752,
      "address": "11th Avenue",
      "city": "Seattle",
      "state": "WA",
      "postcode": "98122",
      "phone": "",
      "website": "",
      "opening_hours": "Mo-Su 10:30-22:00",
      "amenity_type": "fast_food",
      "cuisine": "salad"
    },
    {
      "osm_id": 12272461293,
      "osm_type": "node",
      "name": "Sweetgreen",
      "brand": "Sweetgreen",
      "latitude": 41.8849883,
      "longitude": -87.6247669,
      "address": "",
      "city": "",
      "state": "",
      "postcode": "",
      "phone": "",
      "website": "",
      "opening_hours": "",
      "amenity_type": "fast_food",
      "cuisine": "salad"
    },
    {
      "osm_id": 12310859589,
      "osm_type": "node",
      "name": "Sweetgreen",
      "brand": "Sweetgreen",
      "latitude": 39.7727596,
      "longitude": -105.0442435,
      "address": "Tennyson Street",
      "city": "Denver",
      "state": "CO",
      "postcode": "80212",
      "phone": "",
      "website": "",
      "opening_hours": "",
      "amenity_type": "fast_food",
      "cuisine": "salad"
    },
    {
      "osm_id": 12365650086,
      "osm_type": "node",
      "name": "Sweetgreen",
      "brand": "Sweetgreen",
      "latitude": 42.1666658,
      "longitude": -87.8452427,
      "address": "North Waukegan Road",
      "city": "Deerfield",
      "state": "IL",
      "postcode": "60015",
      "phone": "",
      "website": "",
      "opening_hours": "",
      "amenity_type": "fast_food",
      "cuisine": "salad"
    },
    {
      "osm_id": 12580977430,
      "osm_type": "node",
      "name": "Sweetgreen",
      "brand": "Sweetgreen",
      "latitude": 42.1619018,
      "longitude": -88.0534863,
      "address": "Rand Road",
      "city": "Deer Park",
      "state": "IL",
      "postcode": "60047",
      "phone": "",
      "website": "https://www.sweetgreen.com/",
      "opening_hours": "",
      "amenity_type": "fast_food",
      "cuisine": "salad"
    },
    {
      "osm_id": 12691291373,
      "osm_type": "node",
      "name": "Sweetgreen",
      "brand": "Sweetgreen",
      "latitude": 44.9402991,
      "longitude": -93.1311293,
      "address": "",
      "city": "",
      "state": "",
      "postcode": "",
      "phone": "",
      "website": "",
      "opening_hours": "",
      "amenity_type": "fast_food",
      "cuisine": "salad"
    },
    {
      "osm_id": 12710607850,
      "osm_type": "node",
      "name": "Sweetgreen",
      "brand": "Sweetgreen",
      "latitude": 41.9472168,
      "longitude": -87.663808,
      "address": "North Southport Avenue",
      "city": "Chicago",
      "state": "IL",
      "postcode": "60613",
      "phone": "",
      "website": "",
      "opening_hours": "Mo-Su 10:30-22:00",
      "amenity_type": "fast_food",
      "cuisine": "salad"
    },
    {
      "osm_id": 12717254738,
      "osm_type": "node",
      "name": "Sweetgreen",
      "brand": "Sweetgreen",
      "latitude": 39.6661363,
      "longitude": -104.9399214,
      "address": "South Colorado Boulevard",
      "city": "Denver",
      "state": "CO",
      "postcode": "80222",
      "phone": "+1-720-734-6473",
      "website": "",
      "opening_hours": "Mo-Su 10:00-21:00",
      "amenity_type": "fast_food",
      "cuisine": "salad"
    },
    {
      "osm_id": 12806342954,
      "osm_type": "node",
      "name": "Sweetgreen",
      "brand": "Sweetgreen",
      "latitude": 39.7710614,
      "longitude": -86.1548548,
      "address": "",
      "city": "",
      "state": "",
      "postcode": "",
      "phone": "",
      "website": "",
      "opening_hours": "Mo-Su 10:30-21:00",
      "amenity_type": "fast_food",
      "cuisine": "salad"
    },
    {
      "osm_id": 12861779392,
      "osm_type": "node",
      "name": "Sweetgreen",
      "brand": "Sweetgreen",
      "latitude": 35.2274448,
      "longitude": -80.8430586,
      "address": "",
      "city": "",
      "state": "",
      "postcode": "",
      "phone": "",
      "website": "",
      "opening_hours": "",
      "amenity_type": "fast_food",
      "cuisine": "salad"
    },
    {
      "osm_id": 13032502702,
      "osm_type": "node",
      "name": "Sweetgreen",
      "brand": "Sweetgreen",
      "latitude": 34.1666776,
      "longitude": -118.5891453,
      "address": "Ventura Boulevard",
      "city": "Woodland Hills",
      "state": "CA",
      "postcode": "91364",
      "phone": "",
      "website": "",
      "opening_hours": "Mo-Su 10:00-21:00",
      "amenity_type": "fast_food",
      "cuisine": "salad"
    },
    {
      "osm_id": 13115603139,
      "osm_type": "node",
      "name": "Sweetgreen",
      "brand": "Sweetgreen",
      "latitude": 37.5633165,
      "longitude": -122.3259499,
      "address": "",
      "city": "",
      "state": "",
      "postcode": "",
      "phone": "",
      "website": "",
      "opening_hours": "",
      "amenity_type": "fast_food",
      "cuisine": "salad"
    },
    {
      "osm_id": 13231008613,
      "osm_type": "node",
      "name": "Sweetgreen",
      "brand": "Sweetgreen",
      "latitude": 42.3621701,
      "longitude": -71.1585099,
      "address": "",
      "city": "",
      "state": "",
      "postcode": "",
      "phone": "",
      "website": "",
      "opening_hours": "",
      "amenity_type": "fast_food",
      "cuisine": "salad"
    },
    {
      "osm_id": 13330506045,
      "osm_type": "node",
      "name": "Sweetgreen",
      "brand": "Sweetgreen",
      "latitude": 36.3640758,
      "longitude": -94.1900982,
      "address": "",
      "city": "",
      "state": "",
      "postcode": "",
      "phone": "",
      "website": "",
      "opening_hours": "",
      "amenity_type": "fast_food",
      "cuisine": "salad"
    },
    {
      "osm_id": 13415107256,
      "osm_type": "node",
      "name": "Sweetgreen",
      "brand": "Sweetgreen",
      "latitude": 37.4446736,
      "longitude": -122.1610062,
      "address": "Ramona Street",
      "city": "Palo Alto",
      "state": "CA",
      "postcode": "94301",
      "phone": "",
      "website": "https://www.sweetgreen.com/",
      "opening_hours": "10:30-21:00",
      "amenity_type": "fast_food",
      "cuisine": "salad"
    },
    {
      "osm_id": 13420007402,
      "osm_type": "node",
      "name": "Sweetgreen",
      "brand": "Sweetgreen",
      "latitude": 34.1576515,
      "longitude": -118.4912267,
      "address": "",
      "city": "",
      "state": "",
      "postcode": "",
      "phone": "",
      "website": "",
      "opening_hours": "",
      "amenity_type": "fast_food",
      "cuisine": "salad"
    }
  ]
}